{
"type": "FeatureCollection",
"name": "Aberlingen",
"crs": { "type": "name", "properties": { "name": "urn:ogc:def:crs:OGC:1.3:CRS84" } },
"features": [
{ "type": "Feature", "properties": { "OBJECTID": 101.0, "YEAR": 1700.0, "OWNER_ID": 9667.0, "SHORT_NAME": "Ã?Å?berlingen", "LONG_NAME": "Imperial City of Ã?Å?berlingen", "VARIANTS": null, "SHAPE_LENG": 115804.8, "Shape__Are": 463674217.49169928, "Shape__Len": 115979.08258976485 }, "geometry": { "type": "MultiPolygon", "coordinates": [ [ [ [ 9.373040234595171, 47.901684826702549 ], [ 9.372154996086643, 47.86619521929871 ], [ 9.359283024702394, 47.818024624223831 ], [ 9.350254507837668, 47.809351200460547 ], [ 9.328482237925826, 47.788429242403417 ], [ 9.269179228605925, 47.76187049943703 ], [ 9.262586166647324, 47.758454569422888 ], [ 9.251740653508552, 47.751996646906989 ], [ 9.255387831528383, 47.748433295064089 ], [ 9.256307257221678, 47.731937408754867 ], [ 9.256307257221678, 47.722159586824503 ], [ 9.247699031535671, 47.717913941669693 ], [ 9.244838632177652, 47.723976851010939 ], [ 9.199817898932412, 47.747757312301154 ], [ 9.157495776665888, 47.766135575440281 ], [ 9.112935782143351, 47.794673784879819 ], [ 9.08294389953404, 47.806803939774014 ], [ 9.056045385368533, 47.82399563725815 ], [ 9.055759690565463, 47.82794262850804 ], [ 9.055321530099111, 47.833995416903711 ], [ 9.041389675138689, 47.852357566281931 ], [ 9.044429124902507, 47.863426992016969 ], [ 9.083455076863316, 47.846078798125426 ], [ 9.090504476698042, 47.847080516651793 ], [ 9.107819878396921, 47.836932374290491 ], [ 9.119792031615578, 47.833050153247328 ], [ 9.128506974462393, 47.830223965733751 ], [ 9.134881178970009, 47.82831438396245 ], [ 9.157009196107406, 47.821684730023819 ], [ 9.167485794515189, 47.821842700708096 ], [ 9.177236579326232, 47.821989727172905 ], [ 9.18908174040812, 47.826547546682129 ], [ 9.200222241421576, 47.830833857275849 ], [ 9.212472628036554, 47.84149827419089 ], [ 9.223667617261885, 47.843639910359897 ], [ 9.281131773398561, 47.864366778243124 ], [ 9.316989405979838, 47.890263642350924 ], [ 9.337153775076427, 47.908558211128195 ], [ 9.361888149806127, 47.903539151304543 ], [ 9.373040234595171, 47.901684826702549 ] ] ] ] } }
]
}
