{
"type": "FeatureCollection",
"name": "Adrar",
"crs": { "type": "name", "properties": { "name": "urn:ogc:def:crs:OGC:1.3:CRS84" } },
"features": [
{ "type": "Feature", "properties": { "OBJECTID": 26.0, "YEAR": 1700.0, "OWNER_ID": 3242.0, "SHORT_NAME": "Adrar", "LONG_NAME": "Emirate of the Adrar", "VARIANTS": null, "SHAPE_LENG": 1229842.0, "Shape__Are": 104750333669.26465, "Shape__Len": 1234342.1290792162 }, "geometry": { "type": "MultiPolygon", "coordinates": [ [ [ [ -13.738548629728472, 20.41628911572953 ], [ -13.77124061451987, 20.499999999651138 ], [ -13.876448164577292, 20.769968098484558 ], [ -13.890304895227136, 20.99999999958332 ], [ -13.903764569623082, 21.223854457646041 ], [ -13.793234681170309, 21.49999999987325 ], [ -13.593258518493277, 22.000000000301405 ], [ -13.499999999917415, 22.2333987196082 ], [ -13.419469306360364, 22.434627781528118 ], [ -13.352114774404017, 22.499999999656861 ], [ -12.999999999887205, 22.842489941239545 ], [ -12.837763142071005, 22.999999999937117 ], [ -12.786295245845718, 23.050116995164061 ], [ -12.499999999856989, 23.26477385686276 ], [ -12.361968713597024, 23.368141610567672 ], [ -11.999999999826779, 23.497230091916805 ], [ -11.992229155800851, 23.500000000390163 ], [ -11.799325433847271, 23.569005639716408 ], [ -11.714102988681603, 23.500000000390163 ], [ -11.51267885225935, 23.337384860048711 ], [ -11.499999999796566, 23.301243109723682 ], [ -11.39445603875008, 22.999999999937117 ], [ -11.33712044680192, 22.836680294962431 ], [ -11.286339970178132, 22.499999999656861 ], [ -11.224341463440286, 22.089323835684592 ], [ -11.219492946831437, 22.000000000301405 ], [ -11.192312650924237, 21.49999999987325 ], [ -11.165132355915352, 20.99999999958332 ], [ -11.155040359518365, 20.814546244673544 ], [ -11.144628993173255, 20.499999999651138 ], [ -11.142743585698748, 20.443156197165518 ], [ -11.217973491444113, 20.154065936339137 ], [ -11.328501033497364, 20.000000000030731 ], [ -11.421309430538866, 19.870515037470568 ], [ -11.499999999796566, 19.864734704840497 ], [ -11.999999999826779, 19.828001484657825 ], [ -12.330348437804201, 19.803727245366648 ], [ -12.499999999856989, 19.840386677520513 ], [ -12.999999999887205, 19.948380137450744 ], [ -13.134030443196611, 19.977316277755151 ], [ -13.179647957827813, 20.000000000030731 ], [ -13.499999999917415, 20.159204629547723 ], [ -13.531874994805682, 20.175036511343354 ], [ -13.738548629728472, 20.41628911572953 ] ] ] ] } }
]
}
