{
"type": "FeatureCollection",
"name": "Anhalt-Dessau",
"crs": { "type": "name", "properties": { "name": "urn:ogc:def:crs:OGC:1.3:CRS84" } },
"features": [
{ "type": "Feature", "properties": { "OBJECTID": 57.0, "YEAR": 1700.0, "OWNER_ID": 7937.0, "SHORT_NAME": "Dessau", "LONG_NAME": "Principality of Anhalt-Dessau", "VARIANTS": null, "SHAPE_LENG": 180471.0, "Shape__Are": 1230321974.0410156, "Shape__Len": 180704.11853398226 }, "geometry": { "type": "MultiPolygon", "coordinates": [ [ [ [ 12.132304608795488, 51.853260381416895 ], [ 12.134282474472299, 51.854117373313194 ], [ 12.183614677313562, 51.867471261264733 ], [ 12.224662585163642, 51.857136517915727 ], [ 12.251866713375328, 51.84513784028691 ], [ 12.282960283560875, 51.850939799923808 ], [ 12.300495739266697, 51.836552198369333 ], [ 12.338489226030434, 51.83766011591343 ], [ 12.356222449439315, 51.854512906010534 ], [ 12.39436975652578, 51.843291605000751 ], [ 12.416959290326917, 51.853273558397852 ], [ 12.434275003741195, 51.856754192141921 ], [ 12.461962564814611, 51.841959630180696 ], [ 12.495517252079006, 51.859957717923862 ], [ 12.499999999856989, 51.8587784979727 ], [ 12.559813922401473, 51.843041038433498 ], [ 12.566270813237731, 51.846731830047688 ], [ 12.564868000496787, 51.843001475075297 ], [ 12.535883958465984, 51.809148909901261 ], [ 12.540916062871135, 51.792952381874827 ], [ 12.570427486940625, 51.781279865076705 ], [ 12.543157436760128, 51.745028187114478 ], [ 12.522721379392378, 51.734109962797554 ], [ 12.501406351960153, 51.741208431879116 ], [ 12.499999999856989, 51.739026414909134 ], [ 12.478838792747496, 51.706181085887046 ], [ 12.438779726107661, 51.719050095043308 ], [ 12.410872421844395, 51.70061175139486 ], [ 12.382217993250901, 51.723757671551041 ], [ 12.357189316959394, 51.721549403325284 ], [ 12.350223478412397, 51.707424501285416 ], [ 12.36134245130007, 51.694300769697243 ], [ 12.366528375129635, 51.677625997557485 ], [ 12.392194305503912, 51.672503221383565 ], [ 12.373450265397988, 51.653052548049253 ], [ 12.339697810430534, 51.643516137236887 ], [ 12.312164068781536, 51.665711666000654 ], [ 12.296056939767357, 51.674740371186118 ], [ 12.250724051842354, 51.673350438643382 ], [ 12.218268076933976, 51.685302453253925 ], [ 12.209362614890127, 51.683678274760716 ], [ 12.187152532159947, 51.69727775843274 ], [ 12.180670126474675, 51.748715463128157 ], [ 12.147005568064509, 51.766579267583488 ], [ 12.137857439621385, 51.785462860960905 ], [ 12.122328479798796, 51.810719411088385 ], [ 12.137666509894267, 51.825708990585376 ], [ 12.139314578877448, 51.84373998310673 ], [ 12.132304608795488, 51.853260381416895 ] ] ] ] } }
]
}
