{
"type": "FeatureCollection",
"name": "Anhalt-Bernburg",
"crs": { "type": "name", "properties": { "name": "urn:ogc:def:crs:OGC:1.3:CRS84" } },
"features": [
{ "type": "Feature", "properties": { "OBJECTID": 1.0, "YEAR": 1700.0, "OWNER_ID": 1160.0, "SHORT_NAME": "Bernburg", "LONG_NAME": "Principality of Anhalt-Bernburg", "VARIANTS": null, "SHAPE_LENG": 290384.8, "Shape__Are": 1173818019.965332, "Shape__Len": 290749.66338283749 }, "geometry": { "type": "MultiPolygon", "coordinates": [ [ [ [ 11.338307741129787, 51.621961891928656 ], [ 11.338550754278764, 51.599251410791275 ], [ 11.264080004000224, 51.600086745983347 ], [ 11.230041882975788, 51.606212064533494 ], [ 11.208682907264921, 51.60923464309348 ], [ 11.17682023726235, 51.603122992747302 ], [ 11.11403979108713, 51.618036088372705 ], [ 11.078199780756783, 51.633712725151675 ], [ 11.02913126938402, 51.649039554362247 ], [ 10.999999999766354, 51.636180393984432 ], [ 10.99663134709531, 51.634693162165952 ], [ 10.967051672623795, 51.640210645505768 ], [ 10.96766927875467, 51.642072255348076 ], [ 10.965340007410074, 51.642297450557756 ], [ 10.984347738086178, 51.664242013960362 ], [ 10.993906539446277, 51.68056438198456 ], [ 10.999999999766354, 51.681305328768453 ], [ 11.014913927131357, 51.683118767204839 ], [ 11.024274959890077, 51.698759563317019 ], [ 11.030449724929891, 51.707067353724881 ], [ 11.047545695154316, 51.710770970029678 ], [ 11.075628793430479, 51.720213811442463 ], [ 11.135925812866772, 51.73654224841242 ], [ 11.152165123585116, 51.746574501290105 ], [ 11.166997745332068, 51.753697430411549 ], [ 11.196201530552731, 51.755586997918385 ], [ 11.222548662390107, 51.766988783371332 ], [ 11.233469866676403, 51.781926950697901 ], [ 11.254521202640127, 51.775772658257196 ], [ 11.284274344487955, 51.794100983410104 ], [ 11.359448270818074, 51.77546888348121 ], [ 11.365820804459263, 51.757185800447857 ], [ 11.332354013752157, 51.745279301658066 ], [ 11.291767565073638, 51.754093849699949 ], [ 11.279835544988613, 51.738128600850352 ], [ 11.293964990683985, 51.708786927971211 ], [ 11.287922070480109, 51.679412875517365 ], [ 11.247841029251795, 51.658283472302237 ], [ 11.270166872482747, 51.610573528079122 ], [ 11.338307741129787, 51.621961891928656 ] ] ], [ [ [ 11.75074382822312, 51.716034871300764 ], [ 11.749579192999981, 51.71710609197882 ], [ 11.743997731967664, 51.705043463269014 ], [ 11.708838923998732, 51.71497685001728 ], [ 11.697148620793726, 51.732999486017789 ], [ 11.67128492271639, 51.732721862955827 ], [ 11.669153419973169, 51.749468740186337 ], [ 11.691874799508556, 51.773897147951793 ], [ 11.688095227782151, 51.795539994698885 ], [ 11.734197214625862, 51.809003734333601 ], [ 11.730439616589623, 51.826698443109592 ], [ 11.710311198969016, 51.843383918294421 ], [ 11.705696605456781, 51.875247109379167 ], [ 11.739646829923929, 51.882125631647632 ], [ 11.786342121673448, 51.870963970676492 ], [ 11.794999978380588, 51.845296085961287 ], [ 11.802075688073357, 51.793691714893896 ], [ 11.83028485861144, 51.795113267323373 ], [ 11.833696641195905, 51.794351823684444 ], [ 11.823544534929997, 51.783260709541786 ], [ 11.797988476599807, 51.767636074993653 ], [ 11.772718083428282, 51.748200055907056 ], [ 11.751732670331682, 51.735630213269303 ], [ 11.75074382822312, 51.716034871300764 ] ] ], [ [ [ 11.740811351959344, 52.000773433388936 ], [ 11.740404151030944, 51.999999999749583 ], [ 11.739558932468322, 51.998412481297009 ], [ 11.749155748734612, 51.987575495937314 ], [ 11.76370863869535, 51.971081991912492 ], [ 11.770872245843726, 51.945458412970801 ], [ 11.767883771879019, 51.925901927089647 ], [ 11.743162710181831, 51.923808966903259 ], [ 11.722572833389666, 51.916647204729301 ], [ 11.697522183407997, 51.926349536575408 ], [ 11.67163651074218, 51.932325229914454 ], [ 11.650738994202873, 51.935483863244933 ], [ 11.665923203975616, 51.965690161891281 ], [ 11.70708098386978, 51.976630950575668 ], [ 11.71173952566066, 51.993391974479636 ], [ 11.737795446140808, 51.999999999749583 ], [ 11.740811351959344, 52.000773433388936 ] ] ] ] } }
]
}
