{
"type": "FeatureCollection",
"name": "Anhalt-Kaathen",
"crs": { "type": "name", "properties": { "name": "urn:ogc:def:crs:OGC:1.3:CRS84" } },
"features": [
{ "type": "Feature", "properties": { "OBJECTID": 71.0, "YEAR": 1700.0, "OWNER_ID": 7936.0, "SHORT_NAME": "KÃ?Â¶then", "LONG_NAME": "Principality of Anhalt-KÃ?Â¶then", "VARIANTS": null, "SHAPE_LENG": 179978.1, "Shape__Are": 1299593480.7607422, "Shape__Len": 180225.51760280936 }, "geometry": { "type": "MultiPolygon", "coordinates": [ [ [ [ 12.209362614890127, 51.683678274760716 ], [ 12.189459828916066, 51.680048192935381 ], [ 12.187196480438592, 51.664930505426014 ], [ 12.20479785901154, 51.656747365286115 ], [ 12.167683342312278, 51.625868461545458 ], [ 12.114857232903276, 51.634534173932842 ], [ 12.049813438250583, 51.634600419330958 ], [ 12.002327073892191, 51.632639519409707 ], [ 11.999999999826779, 51.631457760318206 ], [ 11.992021148201868, 51.627405620405511 ], [ 11.987626296981174, 51.642708098672344 ], [ 11.979495822312719, 51.649383917503783 ], [ 11.961498907435338, 51.651238136363652 ], [ 11.943480018867792, 51.643794311309108 ], [ 11.917001041296164, 51.617837279497714 ], [ 11.890038630862811, 51.631089288710989 ], [ 11.868459911962088, 51.643688340782262 ], [ 11.820160500406342, 51.675388991029621 ], [ 11.812139896883657, 51.674978640488661 ], [ 11.804119294259289, 51.670808737958907 ], [ 11.789792079962542, 51.670914645318945 ], [ 11.781200146122528, 51.679465819117347 ], [ 11.772080830243826, 51.696258989003596 ], [ 11.75074382822312, 51.716034871300764 ], [ 11.751732670331682, 51.735630213269303 ], [ 11.772718083428282, 51.748200055907056 ], [ 11.797988476599807, 51.767636074993653 ], [ 11.823544534929997, 51.783260709541786 ], [ 11.833696641195905, 51.794351823684444 ], [ 11.83028485861144, 51.795113267323373 ], [ 11.85463810601386, 51.834481374618619 ], [ 11.887357771492423, 51.857294720633192 ], [ 11.937415124075434, 51.855475354236312 ], [ 11.93868963134266, 51.822819664407952 ], [ 11.936558128599437, 51.798206664222299 ], [ 11.934426625856215, 51.770674257424034 ], [ 11.989318314243002, 51.765984802591113 ], [ 11.999999999826779, 51.787755515502617 ], [ 12.001118489492091, 51.790034537576517 ], [ 12.022103903487006, 51.787578647919275 ], [ 12.0383648519256, 51.805558985633624 ], [ 12.092904952286593, 51.806482890873866 ], [ 12.107957317223402, 51.784488789320733 ], [ 12.137857439621385, 51.785462860960905 ], [ 12.147005568064509, 51.766579267583488 ], [ 12.180670126474675, 51.748715463128157 ], [ 12.187152532159947, 51.69727775843274 ], [ 12.209362614890127, 51.683678274760716 ] ] ] ] } }
]
}
