{
"type": "FeatureCollection",
"name": "Anhalt-Zerbst",
"crs": { "type": "name", "properties": { "name": "urn:ogc:def:crs:OGC:1.3:CRS84" } },
"features": [
{ "type": "Feature", "properties": { "OBJECTID": 94.0, "YEAR": 1700.0, "OWNER_ID": 6319.0, "SHORT_NAME": "Zerbst", "LONG_NAME": "Principality of Anhalt-Zerbst", "VARIANTS": null, "SHAPE_LENG": 486446.5, "Shape__Are": 3963746780.6567383, "Shape__Len": 486985.38101842691 }, "geometry": { "type": "MultiPolygon", "coordinates": [ [ [ [ 12.267976080092883, 52.088941131999768 ], [ 12.370923226350332, 52.030731473643577 ], [ 12.416168217718045, 52.026946319196163 ], [ 12.452052175428722, 52.01206820702776 ], [ 12.489694074166668, 52.025485296201531 ], [ 12.499999999856989, 52.015802924955736 ], [ 12.503493906424731, 52.012519937273062 ], [ 12.554320357926446, 52.005650486164605 ], [ 12.556850212294204, 51.999999999749583 ], [ 12.5647801039395, 51.982481592748684 ], [ 12.598752302096809, 51.975421283808274 ], [ 12.607322261348344, 51.941484651108773 ], [ 12.576030922561422, 51.872677275251682 ], [ 12.566270813237731, 51.846731830047688 ], [ 12.559813922401473, 51.843041038433498 ], [ 12.499999999856989, 51.8587784979727 ], [ 12.495517252079006, 51.859957717923862 ], [ 12.461962564814611, 51.841959630180696 ], [ 12.434275003741195, 51.856754192141921 ], [ 12.416959290326917, 51.853273558397852 ], [ 12.39436975652578, 51.843291605000751 ], [ 12.356222449439315, 51.854512906010534 ], [ 12.338489226030434, 51.83766011591343 ], [ 12.300495739266697, 51.836552198369333 ], [ 12.282960283560875, 51.850939799923808 ], [ 12.251866713375328, 51.84513784028691 ], [ 12.224662585163642, 51.857136517915727 ], [ 12.183614677313562, 51.867471261264733 ], [ 12.134282474472299, 51.854117373313194 ], [ 12.132304608795488, 51.853260381416895 ], [ 12.095300146498317, 51.854855698039998 ], [ 12.058778934704868, 51.840231960944593 ], [ 12.016258750986188, 51.844531228357702 ], [ 11.999999999826779, 51.864133092984645 ], [ 11.960070581642011, 51.912236356958573 ], [ 11.932998299164574, 51.933904574515253 ], [ 11.881556564575307, 51.952865491327664 ], [ 11.878787812240889, 51.953575893267967 ], [ 11.874173218728652, 51.978576867725771 ], [ 11.901047732604717, 51.988226307148196 ], [ 11.925065593097493, 51.993391974479636 ], [ 11.965608093497366, 51.997190263375749 ], [ 11.985231103667765, 51.976538912168259 ], [ 11.999999999826779, 51.979741021497183 ], [ 12.01348999505851, 51.982665645386142 ], [ 12.02970699521846, 51.989816818543972 ], [ 12.031419966582602, 51.999999999749583 ], [ 12.034409486186298, 52.017966910535691 ], [ 12.009710423332107, 52.024515681449685 ], [ 11.999999999826779, 52.034520254722025 ], [ 11.994680032983776, 52.040000421444731 ], [ 11.999999999826779, 52.045985816590786 ], [ 12.001689807233006, 52.047886817856288 ], [ 12.017796948823598, 52.065592867328533 ], [ 12.054450006351301, 52.055254124805131 ], [ 12.050494640611999, 52.078874421125654 ], [ 12.105935685625951, 52.078914220248471 ], [ 12.163464285104478, 52.074602466533626 ], [ 12.266853154546698, 52.086302929335709 ], [ 12.267976080092883, 52.088941131999768 ] ] ], [ [ [ 8.163836196373568, 53.412681514819397 ], [ 8.160023156114615, 53.404767748206716 ], [ 8.024715329132432, 53.346596779921889 ], [ 7.999999999585081, 53.348345713721528 ], [ 7.987636850147434, 53.349220541411768 ], [ 7.985684196587386, 53.351237694980178 ], [ 7.984594221245835, 53.352361063413213 ], [ 7.961725794684959, 53.37592357482589 ], [ 7.968614932378026, 53.417592019017164 ], [ 7.937964852363421, 53.431805745602439 ], [ 7.915432545737477, 53.413932528047525 ], [ 7.882369073440112, 53.418026398008131 ], [ 7.834693609222847, 53.411391760017779 ], [ 7.812512340853685, 53.424396778389493 ], [ 7.8223853091198, 53.450631579440618 ], [ 7.818172842851238, 53.476850108590135 ], [ 7.846387591028913, 53.499268895824834 ], [ 7.846451651688462, 53.499999999893774 ], [ 7.848976502440079, 53.529148388961325 ], [ 7.819664757688574, 53.60675333231368 ], [ 7.79408280092875, 53.625817427200865 ], [ 7.77749258670087, 53.646895115755925 ], [ 7.779517392944519, 53.647476314924937 ], [ 7.907007613200347, 53.656807936076561 ], [ 7.999999999585081, 53.651124483262684 ], [ 8.034873516094505, 53.648992906393879 ], [ 8.028510936684972, 53.630522461237348 ], [ 8.02842317756993, 53.610108073756436 ], [ 8.03831808539022, 53.593066397711802 ], [ 8.055409289153721, 53.594034708929293 ], [ 8.069823822391049, 53.60155494400027 ], [ 8.111290286773023, 53.574544809127417 ], [ 8.142576625537084, 53.526464764718099 ], [ 8.111882665515784, 53.50233104395992 ], [ 8.066686412243801, 53.500855462475435 ], [ 8.065364317622725, 53.499999999893774 ], [ 8.034039798662466, 53.4799652709276 ], [ 8.043759187354338, 53.442134022682986 ], [ 8.080267228049081, 53.417828953955215 ], [ 8.123357248186794, 53.431687317962982 ], [ 8.157956515328175, 53.414182647146568 ], [ 8.163836196373568, 53.412681514819397 ] ] ], [ [ [ 7.885638122709093, 53.718905490106934 ], [ 7.914664647866297, 53.722423183832817 ], [ 7.955319335268743, 53.724168696930874 ], [ 7.963271243723327, 53.725378215161413 ], [ 7.969382610161988, 53.726103750459195 ], [ 7.977420961699723, 53.72658756632034 ], [ 7.983446104244119, 53.72489954237615 ], [ 7.981449790764642, 53.722423183832817 ], [ 7.96984356807362, 53.71364162146515 ], [ 7.932106891683282, 53.71364162146515 ], [ 7.911768577306661, 53.710123189775537 ], [ 7.89434827484048, 53.708363862795977 ], [ 7.885638122709093, 53.718905490106934 ] ] ], [ [ [ 8.109908071503229, 53.672632222746437 ], [ 8.122348010728004, 53.68514176251351 ], [ 8.151374536783541, 53.692645694727183 ], [ 8.159667829300611, 53.67763648659038 ], [ 8.109908071503229, 53.672632222746437 ] ] ] ] } }
]
}
