{
"type": "FeatureCollection",
"name": "Augsburg",
"crs": { "type": "name", "properties": { "name": "urn:ogc:def:crs:OGC:1.3:CRS84" } },
"features": [
{ "type": "Feature", "properties": { "OBJECTID": 8.0, "YEAR": 1700.0, "OWNER_ID": 9634.0, "SHORT_NAME": "Augsburg", "LONG_NAME": "Imperial City of Augsburg", "VARIANTS": null, "SHAPE_LENG": 46251.1, "Shape__Are": 109100665.69628906, "Shape__Len": 46319.425724535671 }, "geometry": { "type": "MultiPolygon", "coordinates": [ [ [ [ 10.880240322417869, 48.286493925745155 ], [ 10.878256035583409, 48.286766736796999 ], [ 10.862324700582125, 48.29024783692585 ], [ 10.856919033562704, 48.299539312118185 ], [ 10.843536712197556, 48.297180195555526 ], [ 10.835911645877623, 48.306324800444003 ], [ 10.803389749000434, 48.302553579050183 ], [ 10.800818760775817, 48.32446351666583 ], [ 10.835472160396227, 48.331973316842195 ], [ 10.833406580520132, 48.360532410750992 ], [ 10.872740497418217, 48.36232136439876 ], [ 10.874392472276254, 48.362384148331252 ], [ 10.898889860654219, 48.354423311056379 ], [ 10.915194758269774, 48.319485478142362 ], [ 10.921523343632316, 48.295068548311328 ], [ 10.881442302404002, 48.290335225436742 ], [ 10.880240322417869, 48.286493925745155 ] ] ] ] } }
]
}
