{
"type": "FeatureCollection",
"name": "Baden",
"crs": { "type": "name", "properties": { "name": "urn:ogc:def:crs:OGC:1.3:CRS84" } },
"features": [
{ "type": "Feature", "properties": { "OBJECTID": 87.0, "YEAR": 1700.0, "OWNER_ID": 5683.0, "SHORT_NAME": "Baden", "LONG_NAME": "Margravate of Baden", "VARIANTS": null, "SHAPE_LENG": 985478.7, "Shape__Are": 6454334517.722168, "Shape__Len": 987080.57324738521 }, "geometry": { "type": "MultiPolygon", "coordinates": [ [ [ [ 8.032539454034499, 48.781491019608545 ], [ 8.033820399527366, 48.785545074443704 ], [ 8.035027095668738, 48.78634619507978 ], [ 8.040510782268901, 48.78736800059621 ], [ 8.051341186642905, 48.790318815492945 ], [ 8.068424195076112, 48.794972839470795 ], [ 8.078326486149722, 48.801789318927923 ], [ 8.122311341498124, 48.847793420487108 ], [ 8.137403137086006, 48.865570307353785 ], [ 8.144079809739676, 48.878074844136819 ], [ 8.151800014834711, 48.892529861944759 ], [ 8.168260418910792, 48.923335663182833 ], [ 8.169891835823554, 48.926387835890289 ], [ 8.185133403027178, 48.938202040071516 ], [ 8.21813773922938, 48.963775073065548 ], [ 8.235026495067208, 48.968842996241143 ], [ 8.282048750223968, 48.984743143795377 ], [ 8.29350989050503, 49.000000000276607 ], [ 8.321431693577011, 49.037526182455181 ], [ 8.346815419103068, 49.074151739049228 ], [ 8.349931795197946, 49.075800240404625 ], [ 8.35056714754726, 49.076653145161337 ], [ 8.355636820395899, 49.078817943293579 ], [ 8.379308453110207, 49.091337206704701 ], [ 8.400568244033918, 49.132309537558932 ], [ 8.402411198026412, 49.202072624276497 ], [ 8.403222975904276, 49.202743785096473 ], [ 8.472026591025193, 49.199066878483009 ], [ 8.470315277052757, 49.151636421612658 ], [ 8.485585467276309, 49.152439718121066 ], [ 8.490017328188383, 49.067978222160733 ], [ 8.471741372329234, 49.063018215242565 ], [ 8.465203273791293, 49.048764813148786 ], [ 8.474791022463112, 49.030085758886955 ], [ 8.499999999615302, 49.027172678417429 ], [ 8.507334932556329, 49.02632504133534 ], [ 8.502593354093847, 49.000000000276607 ], [ 8.5023036923305, 48.998407518820571 ], [ 8.520162793965181, 48.990589404817072 ], [ 8.531821254588317, 49.000000000276607 ], [ 8.539623510903107, 49.006360805770072 ], [ 8.564854428507779, 49.005232855103074 ], [ 8.573805919328468, 49.020772874348552 ], [ 8.60015577306114, 49.028065187627085 ], [ 8.582845170162509, 49.045281324512807 ], [ 8.588001053430659, 49.059769854840368 ], [ 8.59036840795344, 49.061743435375853 ], [ 8.59747910253493, 49.067670899779657 ], [ 8.611323197482003, 49.067480703969011 ], [ 8.615772605186516, 49.06480225207617 ], [ 8.633197305804318, 49.054311543114203 ], [ 8.630103775663791, 49.038137940735247 ], [ 8.613539130183835, 49.029441527377486 ], [ 8.62883125996156, 49.027450214647033 ], [ 8.64850549745935, 49.01275155136225 ], [ 8.647784518595433, 49.000000000276607 ], [ 8.647194980325626, 48.989675518924734 ], [ 8.681903947034558, 48.980173005882165 ], [ 8.704633713241428, 48.99205448855173 ], [ 8.722207595281843, 48.965008734821545 ], [ 8.735898110654682, 48.977038953221658 ], [ 8.756762983314873, 48.971104022909465 ], [ 8.765911932818167, 48.953788541892017 ], [ 8.737017047681016, 48.945847234223841 ], [ 8.714265341919933, 48.940474879061526 ], [ 8.737960464680604, 48.922771032400085 ], [ 8.767096689405365, 48.935130986931959 ], [ 8.80531604497088, 48.949317175853551 ], [ 8.79204238831406, 48.924528628591638 ], [ 8.760273371273124, 48.908388364280448 ], [ 8.752660216613856, 48.867614851033693 ], [ 8.752353057465388, 48.855412639559994 ], [ 8.762906162690973, 48.848415743134836 ], [ 8.783222536615131, 48.855281729561113 ], [ 8.784209833621404, 48.833138436447051 ], [ 8.742107110489973, 48.829020036995111 ], [ 8.716415454162609, 48.814653907217277 ], [ 8.691403935693003, 48.829543951166642 ], [ 8.666787336385289, 48.827433706986952 ], [ 8.640613001780991, 48.860125171387551 ], [ 8.624706553706329, 48.857696236896132 ], [ 8.609787401739643, 48.862757594673191 ], [ 8.605333596781806, 48.879755916816677 ], [ 8.585061102864341, 48.902924764841934 ], [ 8.564481449798441, 48.905787417115327 ], [ 8.560795541813444, 48.920069151659916 ], [ 8.540764387483588, 48.921274847699742 ], [ 8.524375260233741, 48.904639469624136 ], [ 8.506625858166611, 48.896922830914612 ], [ 8.502457271904733, 48.875801308287301 ], [ 8.499999999615302, 48.876030887373169 ], [ 8.457326839091943, 48.880017607701589 ], [ 8.429243730934292, 48.869912429881772 ], [ 8.452609754093986, 48.855616276717463 ], [ 8.429441189616924, 48.844909652326223 ], [ 8.444338401131091, 48.815294430519884 ], [ 8.468625902634496, 48.806966982557107 ], [ 8.492386844956034, 48.796774156179488 ], [ 8.49093880922705, 48.763662224576599 ], [ 8.470995414910561, 48.75411643282596 ], [ 8.484532350709159, 48.72991587231013 ], [ 8.454650167667408, 48.717125663978351 ], [ 8.449757563541034, 48.699882144294989 ], [ 8.452960793249147, 48.686485869147397 ], [ 8.433412317196169, 48.66839958977193 ], [ 8.418734504817094, 48.647166521104829 ], [ 8.409826894003086, 48.625398404309685 ], [ 8.379703372272013, 48.60682229485618 ], [ 8.357609863916263, 48.601296366153704 ], [ 8.346003642123538, 48.593094064758127 ], [ 8.296309703887053, 48.597904489492514 ], [ 8.280710414960859, 48.591909664895113 ], [ 8.269477171877469, 48.601018591707522 ], [ 8.254579960363257, 48.606851530619565 ], [ 8.244860571671421, 48.599980578893643 ], [ 8.241404740196989, 48.589940793077382 ], [ 8.240099607565107, 48.590140323661984 ], [ 8.225794773895331, 48.597436626518494 ], [ 8.236720858728583, 48.608488725259249 ], [ 8.234022246851533, 48.62094134948925 ], [ 8.199159700568366, 48.61885151208449 ], [ 8.192380262442814, 48.642652969903089 ], [ 8.169606617127586, 48.639585276297119 ], [ 8.146789091805644, 48.647166521104829 ], [ 8.134831830857758, 48.665800701121078 ], [ 8.097863050542015, 48.665669293104962 ], [ 8.05764716230806, 48.657346081684651 ], [ 8.041433555084957, 48.666238725748961 ], [ 8.024934642029274, 48.664166377772339 ], [ 8.024495929997331, 48.698933724140197 ], [ 8.027413941009481, 48.713231073947696 ], [ 8.020480923309687, 48.724403503910168 ], [ 7.999999999585081, 48.732222320058973 ], [ 7.983161179297237, 48.738649807821922 ], [ 7.983931814335108, 48.748542202008835 ], [ 7.984060641729985, 48.750195571873434 ], [ 7.997356238839305, 48.759800406198941 ], [ 7.999999999585081, 48.760558282998112 ], [ 8.025570987016978, 48.76788802282087 ], [ 8.032539454034499, 48.781491019608545 ] ] ], [ [ [ 7.669793106452039, 47.554018046915139 ], [ 7.66862718753634, 47.556362689334676 ], [ 7.665558700629295, 47.562532856626298 ], [ 7.673452992938177, 47.573685779038726 ], [ 7.672754459379976, 47.575569603089207 ], [ 7.667980983538394, 47.58131106953801 ], [ 7.658559863368651, 47.578739333565494 ], [ 7.637409772012455, 47.578008102754701 ], [ 7.60344590221875, 47.574144802063877 ], [ 7.598849264809026, 47.570359285223319 ], [ 7.58973430779518, 47.563556880909189 ], [ 7.58973430779518, 47.563556880909189 ], [ 7.587298548953145, 47.588263807492886 ], [ 7.59444105706629, 47.599535017156789 ], [ 7.549237741011227, 47.632764762525873 ], [ 7.549189319960283, 47.647239258942747 ], [ 7.540852146538231, 47.692743852099255 ], [ 7.550922574385237, 47.752582056431791 ], [ 7.562535662001679, 47.77208622004914 ], [ 7.605180017147139, 47.776349374275917 ], [ 7.605838214552433, 47.815946998492457 ], [ 7.571446919077442, 47.816953733135556 ], [ 7.571401715852328, 47.817905130397328 ], [ 7.568277057290549, 47.860867121001526 ], [ 7.59089712392987, 47.874537650878295 ], [ 7.591862502941535, 47.876617115343699 ], [ 7.649542552088749, 47.884192094463778 ], [ 7.676199565868228, 47.867891899858627 ], [ 7.712905066143927, 47.87603537186996 ], [ 7.738157923302764, 47.864241461628296 ], [ 7.783112836987146, 47.868706304934292 ], [ 7.813609337427518, 47.845999939446656 ], [ 7.789409596835812, 47.830036949239478 ], [ 7.81288531956302, 47.818669220690438 ], [ 7.844720156164827, 47.838913971242576 ], [ 7.865255929224077, 47.834373783891117 ], [ 7.854922223133585, 47.806367128967665 ], [ 7.858388731983482, 47.724487276105386 ], [ 7.826158977118165, 47.699995787726714 ], [ 7.847396827589369, 47.668281153040788 ], [ 7.883158910865477, 47.686629259385285 ], [ 7.890113868119402, 47.674339519167091 ], [ 7.952774303864258, 47.685038471320397 ], [ 7.960672678117819, 47.670675387069764 ], [ 7.980967112487756, 47.659871259450512 ], [ 7.941848219929337, 47.651795895749139 ], [ 7.92806994454313, 47.635904350742713 ], [ 7.888051514991806, 47.634414268701235 ], [ 7.890069988112719, 47.613037117590373 ], [ 7.86949033504682, 47.600890745456269 ], [ 7.854856403572725, 47.610230987453761 ], [ 7.803889949633971, 47.596417358801752 ], [ 7.762577063927895, 47.597908530645689 ], [ 7.70134272345955, 47.567799052240773 ], [ 7.674773470591753, 47.538345403286591 ], [ 7.656058711072517, 47.527835799867546 ], [ 7.653730657843463, 47.527055956760378 ], [ 7.652145149333297, 47.529162951373571 ], [ 7.641797757409468, 47.542911590053819 ], [ 7.653491739215533, 47.549540630096139 ], [ 7.669793106452039, 47.554018046915139 ] ] ], [ [ [ 7.74322604745588, 48.339511105859025 ], [ 7.752374996959174, 48.391110462021075 ], [ 7.754327650519211, 48.426216796111909 ], [ 7.764993709908603, 48.444941631276265 ], [ 7.767820465562601, 48.449902986079131 ], [ 7.76990502863731, 48.453561324017372 ], [ 7.797922288487984, 48.449859138025595 ], [ 7.819138199405002, 48.46126972229861 ], [ 7.835768665344162, 48.46293899334097 ], [ 7.849963799446352, 48.428816833356912 ], [ 7.894852892671542, 48.406559671356035 ], [ 7.939522586761631, 48.392215171633524 ], [ 7.95446367828252, 48.376485320364324 ], [ 7.940970622490615, 48.364153885808513 ], [ 7.914050330467684, 48.364022994006348 ], [ 7.857489194990575, 48.381966609563527 ], [ 7.839300993754918, 48.377081457386872 ], [ 7.836536563215307, 48.357143406206845 ], [ 7.871377169046001, 48.334228950460151 ], [ 7.881535356008073, 48.319747492195873 ], [ 7.906305535788365, 48.330648994837603 ], [ 7.927367867131151, 48.338739916570887 ], [ 7.936604576647812, 48.326326516593078 ], [ 7.959553741989811, 48.316312087548617 ], [ 7.954419798275836, 48.304067925323785 ], [ 7.963810088265028, 48.274340612468578 ], [ 7.940553763774596, 48.257816297474214 ], [ 7.945117269198308, 48.23920179438273 ], [ 7.91429166915696, 48.229695128346002 ], [ 7.898143882393021, 48.244420956283051 ], [ 7.847528466711122, 48.240251501259465 ], [ 7.827607011948817, 48.241578183260287 ], [ 7.806303341018421, 48.250849411177562 ], [ 7.797812588920434, 48.271907474958894 ], [ 7.783310296568065, 48.299262631195646 ], [ 7.750243248077562, 48.302099609119914 ], [ 7.74648183399797, 48.32120763590202 ], [ 7.74322604745588, 48.339511105859025 ] ] ], [ [ [ 7.879683572474643, 48.191190277450296 ], [ 7.91672700189219, 48.186645035376543 ], [ 7.927345926678679, 48.17796058256436 ], [ 7.957162289261237, 48.174895128399349 ], [ 7.978136861488981, 48.17196087776879 ], [ 7.995864323103637, 48.174603170939243 ], [ 7.999999999585081, 48.174212857656123 ], [ 8.021698011162286, 48.172165014804847 ], [ 8.020458982857178, 48.148758295439571 ], [ 7.999999999585081, 48.149284091300352 ], [ 7.997158779258388, 48.149357110159507 ], [ 7.966925557959764, 48.143719209452343 ], [ 7.973551416511083, 48.1279706849771 ], [ 7.94889093629835, 48.117493325534753 ], [ 7.961374755529798, 48.090040344934785 ], [ 7.944239671759585, 48.070516077402942 ], [ 7.959882840692464, 48.061138855254718 ], [ 7.954288159154111, 48.048291758479451 ], [ 7.941321661645767, 48.033157898512492 ], [ 7.910583821617795, 48.032499166197297 ], [ 7.915651944872577, 48.046286852025553 ], [ 7.885967221411736, 48.047077116507531 ], [ 7.880701638576036, 48.031694038222206 ], [ 7.851324074263636, 48.035617088803164 ], [ 7.856589657099336, 48.063816146882559 ], [ 7.82396498397051, 48.066420154415539 ], [ 7.74853550939994, 48.039173923363933 ], [ 7.701496303033785, 48.038105435567815 ], [ 7.703909695316543, 48.061738697759793 ], [ 7.744630202279848, 48.065717963072601 ], [ 7.747306873704392, 48.086750260319789 ], [ 7.829142806792843, 48.114745768150087 ], [ 7.822802167835819, 48.131491880710392 ], [ 7.842745563050604, 48.132996716009458 ], [ 7.863764014386733, 48.138562760626229 ], [ 7.876796331455944, 48.167245286049194 ], [ 7.855953399248225, 48.177070160339653 ], [ 7.879683572474643, 48.191190277450296 ] ] ], [ [ [ 7.678148061126843, 48.195981794571239 ], [ 7.689341582504982, 48.22523279800388 ], [ 7.716415454102175, 48.221878501058022 ], [ 7.717051712851593, 48.203615582158889 ], [ 7.733813817912478, 48.166821883351574 ], [ 7.713343864414121, 48.15351940909612 ], [ 7.694958204495844, 48.160046962573645 ], [ 7.664784925081212, 48.160969932942841 ], [ 7.678148061126843, 48.195981794571239 ] ] ], [ [ [ 7.710667192989587, 48.010770908498699 ], [ 7.741361153010875, 48.010961289963767 ], [ 7.752045898256521, 48.002891406762259 ], [ 7.751731149242208, 48.000000000254126 ], [ 7.750948901682698, 47.992882994062676 ], [ 7.765802233190183, 47.978590874085981 ], [ 7.768105925905391, 47.966268887189585 ], [ 7.759176374638901, 47.96538344795966 ], [ 7.747635972407035, 47.967270431092842 ], [ 7.743116347888329, 47.959939839081102 ], [ 7.735941990600932, 47.956891165593923 ], [ 7.72227341568061, 47.969476661927636 ], [ 7.73063252775854, 47.977052601304202 ], [ 7.72543276538203, 47.987108585907173 ], [ 7.713387744420814, 47.997423717498222 ], [ 7.712858533412173, 48.000000000254126 ], [ 7.710667192989587, 48.010770908498699 ] ] ] ] } }
]
}
