{
"type": "FeatureCollection",
"name": "Balakan",
"crs": { "type": "name", "properties": { "name": "urn:ogc:def:crs:OGC:1.3:CRS84" } },
"features": [
{ "type": "Feature", "properties": { "OBJECTID": 65.0, "YEAR": 1700.0, "OWNER_ID": 8557.0, "SHORT_NAME": "Belakan", "LONG_NAME": "Khanate of Balakan", "VARIANTS": null, "SHAPE_LENG": 323644.8, "Shape__Are": 5336866724.6074219, "Shape__Len": 324135.70144375239 }, "geometry": { "type": "MultiPolygon", "coordinates": [ [ [ [ 46.516517237903955, 41.433361439980658 ], [ 46.500000000114795, 41.439296888267712 ], [ 46.461408854311067, 41.453162435204383 ], [ 46.444799951532005, 41.476957359099139 ], [ 46.36824635036772, 41.499999999681769 ], [ 46.367429963234137, 41.500247606533293 ], [ 46.337573223176172, 41.535582459792955 ], [ 46.328101129003933, 41.580515692213702 ], [ 46.296367430126693, 41.594317566934045 ], [ 46.245034789640478, 41.598325048061632 ], [ 46.193876749306149, 41.613641658849723 ], [ 46.164020009248183, 41.64407012475764 ], [ 46.104917632358784, 41.644199301789904 ], [ 46.060481723923068, 41.666187893438391 ], [ 46.000000000084583, 41.673934573700123 ], [ 45.998607558393594, 41.674112910478598 ], [ 45.969907549282581, 41.703560822095923 ], [ 45.923049054307192, 41.701415213771647 ], [ 45.895767676370966, 41.72081985702755 ], [ 45.892515735516575, 41.759724263938516 ], [ 45.897579159684106, 41.785024367451584 ], [ 45.919447912250725, 41.814678750842077 ], [ 45.903821139368425, 41.823454827118361 ], [ 45.934594532918723, 41.823132791115455 ], [ 45.944939631443638, 41.835079249748844 ], [ 45.949632028940947, 41.85787111016365 ], [ 45.977851885837651, 41.867799750912639 ], [ 45.99441713857874, 41.882681755805791 ], [ 46.000000000084583, 41.887134464200635 ], [ 46.022593346335782, 41.905150987427746 ], [ 46.044047421295886, 41.926085077443751 ], [ 46.054938147541229, 41.947478291317616 ], [ 46.093060157170981, 41.999999999713268 ], [ 46.101098239214153, 42.011156670634804 ], [ 46.164893013600853, 42.014570923375651 ], [ 46.278056168680259, 42.017062726066904 ], [ 46.325464292472354, 41.999999999713268 ], [ 46.341632691978809, 41.994225646870298 ], [ 46.401106096436742, 41.964703331183394 ], [ 46.464944520861415, 41.933013348535454 ], [ 46.500000000114795, 41.921660172862616 ], [ 46.534435646313703, 41.910505756969378 ], [ 46.610234226956422, 41.885368189156054 ], [ 46.713728862243556, 41.873575992202881 ], [ 46.789309191798111, 41.86279539514463 ], [ 46.855853929356741, 41.811345134646551 ], [ 46.913253948477085, 41.746828625457937 ], [ 46.927723991310749, 41.688023698494071 ], [ 46.91891711487775, 41.678739617033152 ], [ 46.908910753080171, 41.668189416527525 ], [ 46.817245322998836, 41.668350827035063 ], [ 46.757400891870681, 41.648332829732091 ], [ 46.713095934447196, 41.653693101655264 ], [ 46.657289147551843, 41.634397250373667 ], [ 46.60074030731603, 41.541033039209978 ], [ 46.575488663781115, 41.522042965366367 ], [ 46.557134779071077, 41.499999999681769 ], [ 46.542008957096854, 41.481969076769012 ], [ 46.517193815738288, 41.434663478082435 ], [ 46.516517237903955, 41.433361439980658 ] ] ] ] } }
]
}
