{
"type": "FeatureCollection",
"name": "Basel",
"crs": { "type": "name", "properties": { "name": "urn:ogc:def:crs:OGC:1.3:CRS84" } },
"features": [
{ "type": "Feature", "properties": { "OBJECTID": 52.0, "YEAR": 1700.0, "OWNER_ID": 9611.0, "SHORT_NAME": "Porrentruy", "LONG_NAME": "Prince-Bishopric of Basel", "VARIANTS": null, "SHAPE_LENG": 420098.8, "Shape__Are": 2238902526.8911133, "Shape__Len": 420617.25838044693 }, "geometry": { "type": "MultiPolygon", "coordinates": [ [ [ [ 7.400400323694052, 47.427822081958574 ], [ 7.402608657546905, 47.426775665685327 ], [ 7.42002896091141, 47.432775092366235 ], [ 7.455045086768819, 47.435375114358663 ], [ 7.461606005209934, 47.44430192970092 ], [ 7.463097040596613, 47.453629727891588 ], [ 7.453158252769632, 47.459814809862074 ], [ 7.447804909920555, 47.461426295537223 ], [ 7.416855281284559, 47.466328261020152 ], [ 7.414969623180107, 47.466626906346853 ], [ 7.414543978940608, 47.468786233070333 ], [ 7.413090163451103, 47.480450856792416 ], [ 7.407730750685634, 47.482996952919251 ], [ 7.404978169822971, 47.483981876241998 ], [ 7.408283323281517, 47.491577392304734 ], [ 7.409179303844212, 47.493636238237549 ], [ 7.413317713000769, 47.495595146445496 ], [ 7.422624021290679, 47.500000000208502 ], [ 7.423451589754624, 47.500395457019785 ], [ 7.425036544902574, 47.50038048468268 ], [ 7.429436595572134, 47.500338918238157 ], [ 7.440368736846979, 47.500000000208502 ], [ 7.446510454664139, 47.499811409111217 ], [ 7.462109743590331, 47.489771602414706 ], [ 7.463053160589921, 47.489220227150987 ], [ 7.449911143054845, 47.480469999713733 ], [ 7.466190569838842, 47.469918438987314 ], [ 7.477599332948948, 47.468539466649482 ], [ 7.477874162628675, 47.467612991832958 ], [ 7.480473463954407, 47.463168386357005 ], [ 7.499999999554868, 47.463701382332808 ], [ 7.501367076415502, 47.463738697835758 ], [ 7.505133943268843, 47.463981342073644 ], [ 7.533100494120036, 47.472662316811551 ], [ 7.535295009188873, 47.486996870593373 ], [ 7.534687026709626, 47.492847586356469 ], [ 7.536129211711145, 47.500000000208502 ], [ 7.537429797969386, 47.506511417009314 ], [ 7.532936970195598, 47.508561011972361 ], [ 7.527622369888104, 47.505990124139856 ], [ 7.525208977605356, 47.506151218558912 ], [ 7.513235890138803, 47.503837334461473 ], [ 7.51202308096191, 47.503602944541996 ], [ 7.504366045397663, 47.510310202607272 ], [ 7.505308397893631, 47.511567232038558 ], [ 7.519789815195413, 47.530880582726986 ], [ 7.519833695202103, 47.532022330449216 ], [ 7.532725920002756, 47.543021901368249 ], [ 7.534387194220614, 47.54458090294758 ], [ 7.534987329915846, 47.545621659810429 ], [ 7.535953027829408, 47.546050296595503 ], [ 7.539426353994015, 47.544141954058432 ], [ 7.555222799768875, 47.535462060370229 ], [ 7.556012637194232, 47.527630856031337 ], [ 7.561717019198423, 47.518510045429068 ], [ 7.585741240661747, 47.518290423916511 ], [ 7.589895521252715, 47.51758776590755 ], [ 7.591555321335201, 47.517572985939019 ], [ 7.607527809956283, 47.514605323533495 ], [ 7.618673072939051, 47.504745289623351 ], [ 7.615870758647313, 47.500000000208502 ], [ 7.613292672833634, 47.49567566288637 ], [ 7.612104773041255, 47.49368302589815 ], [ 7.60632179922946, 47.494060454446107 ], [ 7.579685820400691, 47.495908881150434 ], [ 7.57759961340903, 47.485823298564348 ], [ 7.575583053699671, 47.476072565645282 ], [ 7.581012941095794, 47.475847256077969 ], [ 7.593771254037033, 47.475317853762213 ], [ 7.60353452273556, 47.458000014575084 ], [ 7.598582035115752, 47.452236589785727 ], [ 7.597084183312696, 47.450493350294899 ], [ 7.589281631452159, 47.444563246821126 ], [ 7.585176420435271, 47.441442929484865 ], [ 7.583794771104126, 47.441154657433415 ], [ 7.57506280248772, 47.440269592311644 ], [ 7.573345180545333, 47.440095494113613 ], [ 7.571510706649137, 47.443347666403469 ], [ 7.565073827582446, 47.448925091531805 ], [ 7.561165125728921, 47.448514523276785 ], [ 7.552745120451108, 47.446254778376378 ], [ 7.5574286533732, 47.434548017048535 ], [ 7.561080760449014, 47.427400335450322 ], [ 7.539623510842683, 47.423652205584915 ], [ 7.532605765841919, 47.421553517151253 ], [ 7.538655131457978, 47.407790439459895 ], [ 7.521654709640416, 47.399442698011867 ], [ 7.514199798608356, 47.399006339226631 ], [ 7.506571563032082, 47.398559831635531 ], [ 7.50526558239057, 47.39848338750884 ], [ 7.499999999554868, 47.403790604649366 ], [ 7.498617784285075, 47.405183660112769 ], [ 7.49772355633548, 47.408393121084643 ], [ 7.494229798888097, 47.412275422478345 ], [ 7.487330210194997, 47.412049857939536 ], [ 7.481757452041143, 47.41153120441755 ], [ 7.480385703941032, 47.411403535933111 ], [ 7.473277167112827, 47.40519819319762 ], [ 7.474944601976913, 47.39442792485498 ], [ 7.476981199506999, 47.393206327884968 ], [ 7.488152438174533, 47.386505058917869 ], [ 7.499999999554868, 47.383505457454312 ], [ 7.501087783007129, 47.383230040473386 ], [ 7.511496522678341, 47.382172416416921 ], [ 7.521559846648096, 47.382406043207851 ], [ 7.530562320454432, 47.383728137719437 ], [ 7.531647716184676, 47.382640238816428 ], [ 7.543748217097868, 47.370510302533773 ], [ 7.558375573802407, 47.371062907925385 ], [ 7.564920248008203, 47.371310156423895 ], [ 7.580629237400281, 47.359034693427574 ], [ 7.578215845117523, 47.345694232593168 ], [ 7.564009273665127, 47.331298960153426 ], [ 7.562002237894394, 47.329264947662459 ], [ 7.545914236707576, 47.326986751940183 ], [ 7.525823295902301, 47.32414156771943 ], [ 7.517887106168558, 47.333345923145522 ], [ 7.516060027203765, 47.335464732488518 ], [ 7.518293516579508, 47.341601014800126 ], [ 7.519197437350982, 47.350175376242831 ], [ 7.505024243701293, 47.355790815069582 ], [ 7.499999999554868, 47.354790675394014 ], [ 7.495304855009421, 47.353856029725733 ], [ 7.478169771239202, 47.337589373512834 ], [ 7.445391329889912, 47.313397259552879 ], [ 7.430626390809753, 47.334137165270512 ], [ 7.424576675749058, 47.335265848093051 ], [ 7.397299194704512, 47.339815787792126 ], [ 7.377992057340846, 47.331433500328771 ], [ 7.367022093399243, 47.291963468199228 ], [ 7.33775422865442, 47.283923146658587 ], [ 7.336470838845655, 47.283514073427376 ], [ 7.311073163381532, 47.275418046560773 ], [ 7.304845150703236, 47.273432549662253 ], [ 7.302518703661918, 47.272690857134059 ], [ 7.293018715003473, 47.255553716835756 ], [ 7.263331686465587, 47.250415886557448 ], [ 7.234570745527187, 47.245437852884088 ], [ 7.197887184805692, 47.25227429088546 ], [ 7.176694762138379, 47.251228286279826 ], [ 7.149794861872397, 47.247230863964106 ], [ 7.102322917270964, 47.234533809503489 ], [ 7.083338818575036, 47.228773050564392 ], [ 7.047072116569568, 47.224179461362674 ], [ 7.019164527540328, 47.213619979568193 ], [ 7.000000000422981, 47.201438301222225 ], [ 6.990545068564223, 47.195427362938041 ], [ 6.987768490107059, 47.193662032451449 ], [ 6.988097588809703, 47.182031002797217 ], [ 6.974780052146208, 47.176207228010242 ], [ 6.95093134981133, 47.164294950222676 ], [ 6.9281357640436, 47.157096646589643 ], [ 6.911329778976033, 47.139191538496036 ], [ 6.909869844162795, 47.139435276675471 ], [ 6.889806708910537, 47.142784730628414 ], [ 6.882124103700006, 47.147833705549118 ], [ 6.878573465827147, 47.149868153377646 ], [ 6.873191798198856, 47.151437774502654 ], [ 6.866462625305027, 47.152861891637237 ], [ 6.863614218456042, 47.161372277086706 ], [ 6.882522652953922, 47.171813428904564 ], [ 6.914686588258371, 47.201657789372732 ], [ 6.925693683163948, 47.204648881278878 ], [ 6.953344742094087, 47.213386596449084 ], [ 6.951260448513982, 47.227402306800961 ], [ 6.949241975393068, 47.244913058033589 ], [ 6.909179665835061, 47.247362057543903 ], [ 6.897222404887174, 47.255524567068207 ], [ 6.894457974347598, 47.267532815651705 ], [ 6.904462581735437, 47.282961721802131 ], [ 6.918175036662444, 47.287419089844633 ], [ 6.945709646982313, 47.285394384520146 ], [ 6.961374755469373, 47.289152408996429 ], [ 7.000000000422981, 47.273570446092137 ], [ 7.008896641010739, 47.269980762743984 ], [ 7.020415103688395, 47.272253754383101 ], [ 7.014491322549092, 47.293143194361043 ], [ 7.035158735628365, 47.308244264563783 ], [ 7.032218785062047, 47.318129691679076 ], [ 7.000734987615393, 47.311330930302226 ], [ 7.000000000422981, 47.312168651005216 ], [ 6.993121832057803, 47.320007567165256 ], [ 6.999111432757999, 47.32818791495739 ], [ 7.000000000422981, 47.328125926900917 ], [ 7.032701463338925, 47.325844564891206 ], [ 7.048849251001204, 47.329468707790788 ], [ 7.06844160706083, 47.337880413178596 ], [ 7.097687531353162, 47.347425628773273 ], [ 7.08588384997952, 47.362191099878423 ], [ 7.077173698746429, 47.371411954956812 ], [ 7.042881589855183, 47.382070638783915 ], [ 7.000000000422981, 47.375115480866377 ], [ 6.976271966983578, 47.371266528333535 ], [ 6.953937119938525, 47.374742118060809 ], [ 6.933949845615353, 47.367936145009885 ], [ 6.912953333833427, 47.36133292524606 ], [ 6.902266377833859, 47.365113727616318 ], [ 6.900013428254133, 47.365910734913648 ], [ 6.898933719757943, 47.366292690434875 ], [ 6.911527238556951, 47.388569480800633 ], [ 6.925722371760843, 47.402727477279775 ], [ 6.926994888361381, 47.426920938843011 ], [ 6.945139208692058, 47.437887861916316 ], [ 6.952708484242967, 47.452032522471406 ], [ 6.956249022357095, 47.453357736000576 ], [ 6.993867790374807, 47.467436263056847 ], [ 6.984982119114966, 47.472632730805202 ], [ 7.000000000422981, 47.476543360363756 ], [ 7.006329669153756, 47.478191507969512 ], [ 7.023771912072409, 47.486811521858101 ], [ 7.038713003593305, 47.499332676442307 ], [ 7.055965496272828, 47.500000000208502 ], [ 7.066467013048267, 47.5004101036686 ], [ 7.12230413155922, 47.50355900788054 ], [ 7.134359825404356, 47.500000000208502 ], [ 7.155345663404066, 47.493863201957495 ], [ 7.19549573297545, 47.496242566296175 ], [ 7.19461813553672, 47.486709947040154 ], [ 7.173775203329037, 47.457056295996367 ], [ 7.191261326254382, 47.447356785109669 ], [ 7.226101932983364, 47.446979222483208 ], [ 7.243237016753585, 47.43791690992056 ], [ 7.262675793239011, 47.444147418608949 ], [ 7.289266986559282, 47.446122436506514 ], [ 7.329702274826635, 47.444350733006537 ], [ 7.356885846889676, 47.439863116262146 ], [ 7.389225198914601, 47.454762215355608 ], [ 7.38891357873244, 47.453631103083033 ], [ 7.388172184755395, 47.446529048540896 ], [ 7.390322297896366, 47.434009755466477 ], [ 7.400400323694052, 47.427822081958574 ] ] ] ] } }
]
}
