{
"type": "FeatureCollection",
"name": "Bastions",
"crs": { "type": "name", "properties": { "name": "urn:ogc:def:crs:OGC:1.3:CRS84" } },
"features": [
{ "type": "Feature", "properties": { "id": 1, "Name": null }, "geometry": { "type": "Point", "coordinates": [ 3.067, 50.633 ] } },
{ "type": "Feature", "properties": { "id": 2, "Name": null }, "geometry": { "type": "Point", "coordinates": [ 3.383, 50.6 ] } },
{ "type": "Feature", "properties": { "id": 3, "Name": null }, "geometry": { "type": "Point", "coordinates": [ 3.591287940956081, 50.448948256463922 ] } },
{ "type": "Feature", "properties": { "id": 4, "Name": null }, "geometry": { "type": "Point", "coordinates": [ 3.451461336893981, 50.499672652581054 ] } },
{ "type": "Feature", "properties": { "id": 5, "Name": null }, "geometry": { "type": "Point", "coordinates": [ 3.533, 50.35 ] } },
{ "type": "Feature", "properties": { "id": 6, "Name": null }, "geometry": { "type": "Point", "coordinates": [ 3.635580011467487, 50.247580293234442 ] } },
{ "type": "Feature", "properties": { "id": 7, "Name": null }, "geometry": { "type": "Point", "coordinates": [ 3.973395368896856, 50.278040504730384 ] } },
{ "type": "Feature", "properties": { "id": 8, "Name": null }, "geometry": { "type": "Point", "coordinates": [ 3.931899787189248, 50.124461850738946 ] } },
{ "type": "Feature", "properties": { "id": 9, "Name": null }, "geometry": { "type": "Point", "coordinates": [ 3.687012340640857, 50.125264858757582 ] } },
{ "type": "Feature", "properties": { "id": 10, "Name": null }, "geometry": { "type": "Point", "coordinates": [ 3.222492287432807, 50.174599651269808 ] } },
{ "type": "Feature", "properties": { "id": 11, "Name": null }, "geometry": { "type": "Point", "coordinates": [ 3.319093401892743, 50.281371702738966 ] } },
{ "type": "Feature", "properties": { "id": 12, "Name": null }, "geometry": { "type": "Point", "coordinates": [ 3.067, 50.367 ] } },
{ "type": "Feature", "properties": { "id": 13, "Name": null }, "geometry": { "type": "Point", "coordinates": [ 2.774699039559817, 50.291449915500493 ] } },
{ "type": "Feature", "properties": { "id": 14, "Name": null }, "geometry": { "type": "Point", "coordinates": [ 2.649348735173787, 50.529333913265752 ] } },
{ "type": "Feature", "properties": { "id": 15, "Name": null }, "geometry": { "type": "Point", "coordinates": [ 2.547799243113398, 50.623368271078867 ] } },
{ "type": "Feature", "properties": { "id": 16, "Name": null }, "geometry": { "type": "Point", "coordinates": [ 2.402452749155584, 50.637725387057991 ] } },
{ "type": "Feature", "properties": { "id": 17, "Name": null }, "geometry": { "type": "Point", "coordinates": [ 2.25, 50.75 ] } },
{ "type": "Feature", "properties": { "id": 18, "Name": null }, "geometry": { "type": "Point", "coordinates": [ 2.126838394212131, 50.987071903026731 ] } },
{ "type": "Feature", "properties": { "id": 19, "Name": null }, "geometry": { "type": "Point", "coordinates": [ 2.367, 51.05 ] } },
{ "type": "Feature", "properties": { "id": 20, "Name": null }, "geometry": { "type": "Point", "coordinates": [ 2.435681513144964, 50.965573993054896 ] } },
{ "type": "Feature", "properties": { "id": 21, "Name": null }, "geometry": { "type": "Point", "coordinates": [ 2.661311090209917, 51.071470279273562 ] } },
{ "type": "Feature", "properties": { "id": 24, "Name": null }, "geometry": { "type": "Point", "coordinates": [ 2.879397037400481, 50.85130380414148 ] } },
{ "type": "Feature", "properties": { "id": 22, "Name": null }, "geometry": { "type": "Point", "coordinates": [ 3.127516918556704, 50.794606226713469 ] } },
{ "type": "Feature", "properties": { "id": 23, "Name": null }, "geometry": { "type": "Point", "coordinates": [ 4.544119153044689, 50.195965195347632 ] } },
{ "type": "Feature", "properties": { "id": 26, "Name": "Mariembourg" }, "geometry": { "type": "Point", "coordinates": [ 4.52293848158041, 50.091664477189454 ] } },
{ "type": "Feature", "properties": { "id": 27, "Name": "Rocroi" }, "geometry": { "type": "Point", "coordinates": [ 4.520878807915837, 49.925005857979393 ] } },
{ "type": "Feature", "properties": { "id": 28, "Name": null }, "geometry": { "type": "Point", "coordinates": [ 4.825578420323361, 50.137965364069082 ] } },
{ "type": "Feature", "properties": { "id": 29, "Name": null }, "geometry": { "type": "Point", "coordinates": [ 4.916329442807666, 50.260626777450639 ] } },
{ "type": "Feature", "properties": { "id": 30, "Name": null }, "geometry": { "type": "Point", "coordinates": [ 2.760169797866741, 51.122411369731978 ] } },
{ "type": "Feature", "properties": { "id": 31, "Name": null }, "geometry": { "type": "Point", "coordinates": [ 2.917, 51.217 ] } },
{ "type": "Feature", "properties": { "id": 32, "Name": null }, "geometry": { "type": "Point", "coordinates": [ 3.342232565971841, 51.302718156574642 ] } },
{ "type": "Feature", "properties": { "id": 33, "Name": "Sluis" }, "geometry": { "type": "Point", "coordinates": [ 3.388160885547133, 51.307553078950249 ] } },
{ "type": "Feature", "properties": { "id": 34, "Name": null }, "geometry": { "type": "Point", "coordinates": [ 3.296389433221797, 51.278026012189237 ] } },
{ "type": "Feature", "properties": { "id": 35, "Name": null }, "geometry": { "type": "Point", "coordinates": [ 3.35641969473506, 51.277626069315787 ] } },
{ "type": "Feature", "properties": { "id": 36, "Name": null }, "geometry": { "type": "Point", "coordinates": [ 3.324740997341469, 51.349503617307988 ] } },
{ "type": "Feature", "properties": { "id": 27, "Name": null }, "geometry": { "type": "Point", "coordinates": [ 3.61736369622066, 51.499966268736557 ] } },
{ "type": "Feature", "properties": { "id": 38, "Name": null }, "geometry": { "type": "Point", "coordinates": [ 3.570784748522019, 51.450313916832293 ] } },
{ "type": "Feature", "properties": { "id": 39, "Name": "Sas van Gent" }, "geometry": { "type": "Point", "coordinates": [ 3.799809927239004, 51.228418547265449 ] } },
{ "type": "Feature", "properties": { "id": 40, "Name": null }, "geometry": { "type": "Point", "coordinates": [ 4.417, 51.217 ] } },
{ "type": "Feature", "properties": { "id": 41, "Name": null }, "geometry": { "type": "Point", "coordinates": [ 4.271188543845298, 51.496054756542442 ] } },
{ "type": "Feature", "properties": { "id": 42, "Name": null }, "geometry": { "type": "Point", "coordinates": [ 4.771929487874644, 51.588602403464684 ] } },
{ "type": "Feature", "properties": { "id": 42, "Name": "Willemstad" }, "geometry": { "type": "Point", "coordinates": [ 4.4535659842809, 51.673635507463935 ] } },
{ "type": "Feature", "properties": { "id": 43, "Name": "Geertruidenberg" }, "geometry": { "type": "Point", "coordinates": [ 4.858306643763749, 51.701798063863372 ] } },
{ "type": "Feature", "properties": { "id": 44, "Name": null }, "geometry": { "type": "Point", "coordinates": [ 5.307274303868375, 51.697547791407274 ] } },
{ "type": "Feature", "properties": { "id": 45, "Name": null }, "geometry": { "type": "Point", "coordinates": [ 5.743246659964044, 51.756099085133421 ] } },
{ "type": "Feature", "properties": { "id": 46, "Name": null }, "geometry": { "type": "Point", "coordinates": [ 5.862404893118945, 51.848250339055973 ] } },
{ "type": "Feature", "properties": { "id": 47, "Name": null }, "geometry": { "type": "Point", "coordinates": [ 4.5, 51.917 ] } },
{ "type": "Feature", "properties": { "id": 48, "Name": null }, "geometry": { "type": "Point", "coordinates": [ 5.683, 50.85 ] } },
{ "type": "Feature", "properties": { "id": 49, "Name": null }, "geometry": { "type": "Point", "coordinates": [ 4.867, 50.467 ] } },
{ "type": "Feature", "properties": { "id": 50, "Name": null }, "geometry": { "type": "Point", "coordinates": [ 4.446987402630175, 50.40997207744936 ] } },
{ "type": "Feature", "properties": { "id": 51, "Name": null }, "geometry": { "type": "Point", "coordinates": [ 3.945026173290208, 50.452720005528022 ] } },
{ "type": "Feature", "properties": { "id": 52, "Name": null }, "geometry": { "type": "Point", "coordinates": [ 3.780355548117143, 50.631362873649259 ] } },
{ "type": "Feature", "properties": { "id": 55, "Name": null }, "geometry": { "type": "Point", "coordinates": [ 4.718224084723097, 49.771273463894069 ] } },
{ "type": "Feature", "properties": { "id": 53, "Name": null }, "geometry": { "type": "Point", "coordinates": [ 4.95, 49.7 ] } },
{ "type": "Feature", "properties": { "id": 54, "Name": null }, "geometry": { "type": "Point", "coordinates": [ 5.386532069128192, 49.163010428165741 ] } },
{ "type": "Feature", "properties": { "id": 56, "Name": null }, "geometry": { "type": "Point", "coordinates": [ 6.174536376193164, 49.119946135715303 ] } },
{ "type": "Feature", "properties": { "id": 58, "Name": null }, "geometry": { "type": "Point", "coordinates": [ 6.166158961916121, 49.357975433946166 ] } },
{ "type": "Feature", "properties": { "id": 59, "Name": null }, "geometry": { "type": "Point", "coordinates": [ 5.768071967684596, 49.512956888204592 ] } },
{ "type": "Feature", "properties": { "id": 57, "Name": "Neuf-Brisach" }, "geometry": { "type": "Point", "coordinates": [ 7.530087695895261, 48.014151386643995 ] } },
{ "type": "Feature", "properties": { "id": 60, "Name": null }, "geometry": { "type": "Point", "coordinates": [ 6.024147740637969, 47.240846330386034 ] } },
{ "type": "Feature", "properties": { "id": 61, "Name": "Mont-Dauphin" }, "geometry": { "type": "Point", "coordinates": [ 6.620192399168473, 44.670038575337635 ] } },
{ "type": "Feature", "properties": { "id": 62, "Name": null }, "geometry": { "type": "Point", "coordinates": [ 7.682064309677354, 45.071116431233015 ] } },
{ "type": "Feature", "properties": { "id": 63, "Name": null }, "geometry": { "type": "Point", "coordinates": [ -4.474311442395037, 48.39212530360539 ] } },
{ "type": "Feature", "properties": { "id": 64, "Name": null }, "geometry": { "type": "Point", "coordinates": [ -1.154357590442672, 46.161428376675374 ] } },
{ "type": "Feature", "properties": { "id": 68, "Name": null }, "geometry": { "type": "Point", "coordinates": [ 5.891520244987681, 48.67510346359245 ] } },
{ "type": "Feature", "properties": { "id": 69, "Name": null }, "geometry": { "type": "Point", "coordinates": [ 6.609591732150657, 48.789800367584782 ] } },
{ "type": "Feature", "properties": { "id": 70, "Name": "Phalsbourg" }, "geometry": { "type": "Point", "coordinates": [ 7.258078197431589, 48.764832458445596 ] } },
{ "type": "Feature", "properties": { "id": 70, "Name": null }, "geometry": { "type": "Point", "coordinates": [ 8.055088024587512, 48.80205255080935 ] } },
{ "type": "Feature", "properties": { "id": 71, "Name": null }, "geometry": { "type": "Point", "coordinates": [ 7.748768303543303, 48.582735217761325 ] } },
{ "type": "Feature", "properties": { "id": 72, "Name": "Selestat" }, "geometry": { "type": "Point", "coordinates": [ 7.450677499646015, 48.26211535658873 ] } },
{ "type": "Feature", "properties": { "id": 73, "Name": "Huningue" }, "geometry": { "type": "Point", "coordinates": [ 7.577498453766, 47.590479262031117 ] } },
{ "type": "Feature", "properties": { "id": 75, "Name": "Belfort" }, "geometry": { "type": "Point", "coordinates": [ 6.861867596610431, 47.62812768107765 ] } },
{ "type": "Feature", "properties": { "id": 77, "Name": "Auxonne" }, "geometry": { "type": "Point", "coordinates": [ 5.388761718807173, 47.19465911291995 ] } },
{ "type": "Feature", "properties": { "id": 78, "Name": "Chateaux de Joux" }, "geometry": { "type": "Point", "coordinates": [ 6.353859812205989, 46.899709321940009 ] } },
{ "type": "Feature", "properties": { "id": 79, "Name": null }, "geometry": { "type": "Point", "coordinates": [ 5.725358714170004, 45.179013969178399 ] } },
{ "type": "Feature", "properties": { "id": 80, "Name": "Sisteron" }, "geometry": { "type": "Point", "coordinates": [ 5.948217224561142, 44.184127301958227 ] } },
{ "type": "Feature", "properties": { "id": 81, "Name": "Entrevaux" }, "geometry": { "type": "Point", "coordinates": [ 6.810029298777741, 43.947704720598765 ] } },
{ "type": "Feature", "properties": { "id": 85, "Name": null }, "geometry": { "type": "Point", "coordinates": [ 7.248108852009221, 43.695451087886696 ] } },
{ "type": "Feature", "properties": { "id": 90, "Name": "Antibes" }, "geometry": { "type": "Point", "coordinates": [ 7.077205834761244, 43.572092496435936 ] } },
{ "type": "Feature", "properties": { "id": 91, "Name": null }, "geometry": { "type": "Point", "coordinates": [ 5.919254555473723, 43.108320292214778 ] } },
{ "type": "Feature", "properties": { "id": 92, "Name": null }, "geometry": { "type": "Point", "coordinates": [ 5.399436554548754, 43.298833698967826 ] } },
{ "type": "Feature", "properties": { "id": 94, "Name": "Fort du Bouc" }, "geometry": { "type": "Point", "coordinates": [ 5.648972977877576, 43.663724016708791 ] } },
{ "type": "Feature", "properties": { "id": 95, "Name": null }, "geometry": { "type": "Point", "coordinates": [ 4.351015034464958, 43.831229677468514 ] } },
{ "type": "Feature", "properties": { "id": 96, "Name": "Fort d'Ales" }, "geometry": { "type": "Point", "coordinates": [ 4.087503084023343, 44.129093293997308 ] } },
{ "type": "Feature", "properties": { "id": 96, "Name": "Cammazes" }, "geometry": { "type": "Point", "coordinates": [ 2.072337129617086, 43.408309867840764 ] } },
{ "type": "Feature", "properties": { "id": 98, "Name": null }, "geometry": { "type": "Point", "coordinates": [ 2.887453973866041, 42.691542780291982 ] } },
{ "type": "Feature", "properties": { "id": 98, "Name": "Collioure" }, "geometry": { "type": "Point", "coordinates": [ 3.082836077774924, 42.524926465990468 ] } },
{ "type": "Feature", "properties": { "id": 99, "Name": "Fort de Bellegarde" }, "geometry": { "type": "Point", "coordinates": [ 2.859275798666876, 42.45883984013448 ] } },
{ "type": "Feature", "properties": { "id": 100, "Name": "Fort les Bains" }, "geometry": { "type": "Point", "coordinates": [ 2.666428894158379, 42.474081188814672 ] } },
{ "type": "Feature", "properties": { "id": 101, "Name": "Prats-de-Mollo" }, "geometry": { "type": "Point", "coordinates": [ 2.48123583126574, 42.403335199980731 ] } },
{ "type": "Feature", "properties": { "id": 102, "Name": "Mont-Louis" }, "geometry": { "type": "Point", "coordinates": [ 2.121095147215664, 42.508059141120903 ] } },
{ "type": "Feature", "properties": { "id": 105, "Name": null }, "geometry": { "type": "Point", "coordinates": [ -1.482468584360187, 43.484129706448407 ] } },
{ "type": "Feature", "properties": { "id": 106, "Name": "Tour de Socoa" }, "geometry": { "type": "Point", "coordinates": [ -1.682136399235159, 43.396383364353156 ] } },
{ "type": "Feature", "properties": { "id": 107, "Name": "Saint Jean Pied de Port" }, "geometry": { "type": "Point", "coordinates": [ -1.243369918356393, 43.162013689892134 ] } },
{ "type": "Feature", "properties": { "id": 108, "Name": "Blaye Citadel" }, "geometry": { "type": "Point", "coordinates": [ -0.651873938377637, 45.120769615322203 ] } },
{ "type": "Feature", "properties": { "id": 107, "Name": "Saint Martin de Re" }, "geometry": { "type": "Point", "coordinates": [ -1.408958521816914, 46.199726200474338 ] } },
{ "type": "Feature", "properties": { "id": 120, "Name": null }, "geometry": { "type": "Point", "coordinates": [ -0.960082523423681, 45.938697462588955 ] } },
{ "type": "Feature", "properties": { "id": 221, "Name": "Brouage" }, "geometry": { "type": "Point", "coordinates": [ -1.062919113990875, 45.86670544476771 ] } },
{ "type": "Feature", "properties": { "id": 224, "Name": "Chateau d'Oleron" }, "geometry": { "type": "Point", "coordinates": [ -1.195492934208162, 45.880209247097113 ] } },
{ "type": "Feature", "properties": { "id": 225, "Name": "Le Palais" }, "geometry": { "type": "Point", "coordinates": [ -3.159809971349724, 47.340175936057655 ] } },
{ "type": "Feature", "properties": { "id": 225, "Name": "Port Louis" }, "geometry": { "type": "Point", "coordinates": [ -3.363141621422392, 47.709897197017767 ] } },
{ "type": "Feature", "properties": { "id": 130, "Name": "Roscanvel" }, "geometry": { "type": "Point", "coordinates": [ -4.550530294994807, 48.310964507420373 ] } },
{ "type": "Feature", "properties": { "id": 130, "Name": null }, "geometry": { "type": "Point", "coordinates": [ -2.022243600811776, 48.647556325315904 ] } },
{ "type": "Feature", "properties": { "id": 140, "Name": "Tour de Tatihou" }, "geometry": { "type": "Point", "coordinates": [ -1.244406575484517, 49.588629956212728 ] } },
{ "type": "Feature", "properties": { "id": 131, "Name": "Tour de la Hougue" }, "geometry": { "type": "Point", "coordinates": [ -1.274698314682762, 49.574748442199791 ] } },
{ "type": "Feature", "properties": { "id": 138, "Name": null }, "geometry": { "type": "Point", "coordinates": [ 1.833185149608298, 50.099987353541373 ] } },
{ "type": "Feature", "properties": { "id": 146, "Name": null }, "geometry": { "type": "Point", "coordinates": [ 1.880493743498231, 50.966193550826119 ] } },
{ "type": "Feature", "properties": { "id": 150, "Name": "Bourtange" }, "geometry": { "type": "Point", "coordinates": [ 7.19086194026286, 53.004856527536397 ] } },
{ "type": "Feature", "properties": { "id": 151, "Name": null }, "geometry": { "type": "Point", "coordinates": [ 5.783243068438638, 53.199804265350792 ] } },
{ "type": "Feature", "properties": { "id": 158, "Name": null }, "geometry": { "type": "Point", "coordinates": [ 6.55038470215362, 53.217069947897045 ] } },
{ "type": "Feature", "properties": { "id": 159, "Name": null }, "geometry": { "type": "Point", "coordinates": [ 6.200163429196944, 52.250128525138457 ] } },
{ "type": "Feature", "properties": { "id": 160, "Name": "Naarden" }, "geometry": { "type": "Point", "coordinates": [ 5.163849754773663, 52.292664702352234 ] } },
{ "type": "Feature", "properties": { "id": 170, "Name": "Gorinchem" }, "geometry": { "type": "Point", "coordinates": [ 4.977485142254406, 51.82414569923148 ] } },
{ "type": "Feature", "properties": { "id": 171, "Name": "Woudrichem" }, "geometry": { "type": "Point", "coordinates": [ 5.00408201841969, 51.816174845840081 ] } },
{ "type": "Feature", "properties": { "id": 170, "Name": null }, "geometry": { "type": "Point", "coordinates": [ 5.133, 52.083 ] } },
{ "type": "Feature", "properties": { "id": 171, "Name": "Brielle" }, "geometry": { "type": "Point", "coordinates": [ 4.163120666743989, 51.907268477497595 ] } },
{ "type": "Feature", "properties": { "id": 173, "Name": "Zutphen" }, "geometry": { "type": "Point", "coordinates": [ 6.193670331661822, 52.135966877422682 ] } },
{ "type": "Feature", "properties": { "id": 150, "Name": null }, "geometry": { "type": "Point", "coordinates": [ 6.131099811315479, 49.610202858813011 ] } },
{ "type": "Feature", "properties": { "id": 151, "Name": null }, "geometry": { "type": "Point", "coordinates": [ 6.747689377313685, 49.315535753583937 ] } },
{ "type": "Feature", "properties": { "id": 152, "Name": null }, "geometry": { "type": "Point", "coordinates": [ 8.117563700079653, 49.19554514546121 ] } },
{ "type": "Feature", "properties": { "id": 156, "Name": null }, "geometry": { "type": "Point", "coordinates": [ 8.283983778321963, 50.002456257352343 ] } },
{ "type": "Feature", "properties": { "id": 157, "Name": "Koblenz" }, "geometry": { "type": "Point", "coordinates": [ 7.59691349259136, 50.356699493941854 ] } },
{ "type": "Feature", "properties": { "id": 160, "Name": null }, "geometry": { "type": "Point", "coordinates": [ 8.581761948172245, 53.549331593590161 ] } },
{ "type": "Feature", "properties": { "id": 171, "Name": null }, "geometry": { "type": "Point", "coordinates": [ 11.438768508233935, 53.896136567520919 ] } },
{ "type": "Feature", "properties": { "id": 172, "Name": null }, "geometry": { "type": "Point", "coordinates": [ 13.103177221298589, 54.300603319067967 ] } },
{ "type": "Feature", "properties": { "id": 174, "Name": null }, "geometry": { "type": "Point", "coordinates": [ 14.586750884131476, 53.414054997061314 ] } },
{ "type": "Feature", "properties": { "id": 175, "Name": null }, "geometry": { "type": "Point", "coordinates": [ 8.943856172610595, 54.324116442727174 ] } },
{ "type": "Feature", "properties": { "id": 178, "Name": null }, "geometry": { "type": "Point", "coordinates": [ 24.096033469867603, 56.94106855226218 ] } },
{ "type": "Feature", "properties": { "id": 180, "Name": null }, "geometry": { "type": "Point", "coordinates": [ 28.195756359442914, 59.374947165354875 ] } },
{ "type": "Feature", "properties": { "id": 181, "Name": null }, "geometry": { "type": "Point", "coordinates": [ 28.218218256847585, 59.374284242873465 ] } },
{ "type": "Feature", "properties": { "id": 191, "Name": null }, "geometry": { "type": "Point", "coordinates": [ 24.026900266502647, 49.843579040172088 ] } },
{ "type": "Feature", "properties": { "id": 195, "Name": null }, "geometry": { "type": "Point", "coordinates": [ 9.200275824865424, 45.46704254876181 ] } },
{ "type": "Feature", "properties": { "id": 160, "Name": "Palmanova" }, "geometry": { "type": "Point", "coordinates": [ 13.309657996764267, 45.905230876553226 ] } },
{ "type": "Feature", "properties": { "id": 162, "Name": null }, "geometry": { "type": "Point", "coordinates": [ 9.717548007888702, 45.682940382751319 ] } },
{ "type": "Feature", "properties": { "id": 164, "Name": "Peschiera del Garda" }, "geometry": { "type": "Point", "coordinates": [ 10.687145724122564, 45.435984036450662 ] } },
{ "type": "Feature", "properties": { "id": 165, "Name": "Zadar" }, "geometry": { "type": "Point", "coordinates": [ 15.272559211509373, 44.122046682079628 ] } },
{ "type": "Feature", "properties": { "id": 113, "Name": "Kotor" }, "geometry": { "type": "Point", "coordinates": [ 18.767720270434747, 42.421402732420525 ] } },
{ "type": "Feature", "properties": { "id": 176, "Name": null }, "geometry": { "type": "Point", "coordinates": [ 10.799929654701563, 45.149819730410073 ] } },
{ "type": "Feature", "properties": { "id": 180, "Name": null }, "geometry": { "type": "Point", "coordinates": [ 7.533221349135069, 44.382791072489205 ] } },
{ "type": "Feature", "properties": { "id": 191, "Name": null }, "geometry": { "type": "Point", "coordinates": [ 10.033475432943051, 45.116846009101508 ] } },
{ "type": "Feature", "properties": { "id": 130, "Name": null }, "geometry": { "type": "Point", "coordinates": [ 19.930658102036844, 39.599862051191231 ] } },
{ "type": "Feature", "properties": { "id": 191, "Name": null }, "geometry": { "type": "Point", "coordinates": [ 8.950728393010857, 44.416998513092629 ] } },
{ "type": "Feature", "properties": { "id": null, "Name": null }, "geometry": { "type": "Point", "coordinates": [ 9.117887107107023, 39.2166331852045 ] } },
{ "type": "Feature", "properties": { "id": 140, "Name": null }, "geometry": { "type": "Point", "coordinates": [ 17.190366540763552, 40.467858051575298 ] } },
{ "type": "Feature", "properties": { "id": 230, "Name": null }, "geometry": { "type": "Point", "coordinates": [ 13.370805831670156, 38.115722523127531 ] } },
{ "type": "Feature", "properties": { "id": null, "Name": "79" }, "geometry": { "type": "Point", "coordinates": [ 15.573915883416701, 38.184393713871508 ] } },
{ "type": "Feature", "properties": { "id": null, "Name": null }, "geometry": { "type": "Point", "coordinates": [ 8.550104775918951, 47.367077177359604 ] } },
{ "type": "Feature", "properties": { "id": null, "Name": null }, "geometry": { "type": "Point", "coordinates": [ 6.149633751807857, 46.199273439245864 ] } },
{ "type": "Feature", "properties": { "id": null, "Name": null }, "geometry": { "type": "Point", "coordinates": [ 7.455882260718612, 46.952057785296915 ] } },
{ "type": "Feature", "properties": { "id": null, "Name": null }, "geometry": { "type": "Point", "coordinates": [ 12.582900809376751, 55.666823041201631 ] } },
{ "type": "Feature", "properties": { "id": null, "Name": "Kronborg" }, "geometry": { "type": "Point", "coordinates": [ 12.586066027833651, 56.025248896307637 ] } },
{ "type": "Feature", "properties": { "id": null, "Name": "Fredericia" }, "geometry": { "type": "Point", "coordinates": [ 9.806652497083645, 55.539277780953455 ] } },
{ "type": "Feature", "properties": { "id": null, "Name": "Ertholmene" }, "geometry": { "type": "Point", "coordinates": [ 15.188439395301804, 55.319986171096318 ] } },
{ "type": "Feature", "properties": { "id": null, "Name": "Kuressaare" }, "geometry": { "type": "Point", "coordinates": [ 22.483996080462902, 58.250010070980593 ] } },
{ "type": "Feature", "properties": { "id": null, "Name": null }, "geometry": { "type": "Point", "coordinates": [ 11.033711743174946, 50.983211877210486 ] } },
{ "type": "Feature", "properties": { "id": null, "Name": null }, "geometry": { "type": "Point", "coordinates": [ 7.217438077208984, 53.366891258866289 ] } },
{ "type": "Feature", "properties": { "id": null, "Name": null }, "geometry": { "type": "Point", "coordinates": [ 13.401753610441382, 52.516574418928549 ] } },
{ "type": "Feature", "properties": { "id": null, "Name": "Küstrin" }, "geometry": { "type": "Point", "coordinates": [ 14.648796153762401, 52.590885323267464 ] } },
{ "type": "Feature", "properties": { "id": null, "Name": null }, "geometry": { "type": "Point", "coordinates": [ 15.56537778849426, 54.168320993039139 ] } },
{ "type": "Feature", "properties": { "id": null, "Name": null }, "geometry": { "type": "Point", "coordinates": [ 21.127611829555708, 55.712283015340503 ] } },
{ "type": "Feature", "properties": { "id": null, "Name": "Pillau" }, "geometry": { "type": "Point", "coordinates": [ 19.935085602770883, 54.645337841737017 ] } },
{ "type": "Feature", "properties": { "id": null, "Name": null }, "geometry": { "type": "Point", "coordinates": [ 20.494646577792658, 54.710928868900339 ] } },
{ "type": "Feature", "properties": { "id": null, "Name": null }, "geometry": { "type": "Point", "coordinates": [ 6.61719920635787, 51.655898697072253 ] } },
{ "type": "Feature", "properties": { "id": null, "Name": "Wolfenbüttel" }, "geometry": { "type": "Point", "coordinates": [ 10.533958830233921, 52.162736974946249 ] } },
{ "type": "Feature", "properties": { "id": null, "Name": "Schülp" }, "geometry": { "type": "Point", "coordinates": [ 9.629459717282007, 54.256484501993107 ] } },
{ "type": "Feature", "properties": { "id": null, "Name": "Königstein Fortress" }, "geometry": { "type": "Point", "coordinates": [ 14.059028363260765, 50.918846999249467 ] } },
{ "type": "Feature", "properties": { "id": null, "Name": null }, "geometry": { "type": "Point", "coordinates": [ 13.750136279385364, 51.050071792175473 ] } },
{ "type": "Feature", "properties": { "id": null, "Name": null }, "geometry": { "type": "Point", "coordinates": [ 9.50034901890759, 51.316979945513701 ] } },
{ "type": "Feature", "properties": { "id": null, "Name": null }, "geometry": { "type": "Point", "coordinates": [ 15.000150888412049, 51.166787578750935 ] } },
{ "type": "Feature", "properties": { "id": null, "Name": null }, "geometry": { "type": "Point", "coordinates": [ 10.717496609838136, 50.950236619304683 ] } },
{ "type": "Feature", "properties": { "id": null, "Name": null }, "geometry": { "type": "Point", "coordinates": [ 8.917273838133406, 50.133098587103149 ] } },
{ "type": "Feature", "properties": { "id": null, "Name": null }, "geometry": { "type": "Point", "coordinates": [ 9.949221906500981, 49.7969761485448 ] } },
{ "type": "Feature", "properties": { "id": null, "Name": null }, "geometry": { "type": "Point", "coordinates": [ 8.465390775849007, 49.487976857029921 ] } },
{ "type": "Feature", "properties": { "id": null, "Name": "Ingolstadt" }, "geometry": { "type": "Point", "coordinates": [ 11.424161464367479, 48.76426163942245 ] } },
{ "type": "Feature", "properties": { "id": null, "Name": null }, "geometry": { "type": "Point", "coordinates": [ 7.58001871182347, 48.030005530692655 ] } },
{ "type": "Feature", "properties": { "id": null, "Name": null }, "geometry": { "type": "Point", "coordinates": [ 7.81115507403292, 48.573337139560323 ] } },
{ "type": "Feature", "properties": { "id": null, "Name": null }, "geometry": { "type": "Point", "coordinates": [ 17.250064925612858, 49.582968095878137 ] } },
{ "type": "Feature", "properties": { "id": null, "Name": "Josefstadt" }, "geometry": { "type": "Point", "coordinates": [ 15.917092616685133, 50.353567891332027 ] } },
{ "type": "Feature", "properties": { "id": null, "Name": "Terezín" }, "geometry": { "type": "Point", "coordinates": [ 14.149091389231186, 50.51519201886105 ] } },
{ "type": "Feature", "properties": { "id": null, "Name": null }, "geometry": { "type": "Point", "coordinates": [ 14.467053433905004, 50.082936769743689 ] } },
{ "type": "Feature", "properties": { "id": null, "Name": null }, "geometry": { "type": "Point", "coordinates": [ 17.033193065293897, 51.099497681232315 ] } },
{ "type": "Feature", "properties": { "id": null, "Name": null }, "geometry": { "type": "Point", "coordinates": [ 16.367705326591672, 48.200038872949158 ] } },
{ "type": "Feature", "properties": { "id": null, "Name": null }, "geometry": { "type": "Point", "coordinates": [ 14.30000917536722, 48.29999273477825 ] } },
{ "type": "Feature", "properties": { "id": null, "Name": null }, "geometry": { "type": "Point", "coordinates": [ 15.450070410485628, 47.06697302116622 ] } },
{ "type": "Feature", "properties": { "id": null, "Name": null }, "geometry": { "type": "Point", "coordinates": [ 14.30512734167155, 46.625006846266785 ] } },
{ "type": "Feature", "properties": { "id": null, "Name": null }, "geometry": { "type": "Point", "coordinates": [ 21.229, 45.759 ] } },
{ "type": "Feature", "properties": { "id": null, "Name": "Petrovaradin" }, "geometry": { "type": "Point", "coordinates": [ 19.84830437119415, 45.271009685674137 ] } },
{ "type": "Feature", "properties": { "id": null, "Name": null }, "geometry": { "type": "Point", "coordinates": [ 26.501215143097042, 48.501987041604181 ] } },
{ "type": "Feature", "properties": { "id": null, "Name": "Chania/Hanya" }, "geometry": { "type": "Point", "coordinates": [ 24.032323876145945, 35.516670208086317 ] } },
{ "type": "Feature", "properties": { "id": null, "Name": null }, "geometry": { "type": "Point", "coordinates": [ 25.150160122125961, 35.314525409573172 ] } },
{ "type": "Feature", "properties": { "id": null, "Name": "Santa Maura" }, "geometry": { "type": "Point", "coordinates": [ 20.785366855908109, 38.816251144785909 ] } },
{ "type": "Feature", "properties": { "id": null, "Name": "Zamość" }, "geometry": { "type": "Point", "coordinates": [ 23.261304584643039, 50.731717945001911 ] } },
{ "type": "Feature", "properties": { "id": null, "Name": "New Älvsborg" }, "geometry": { "type": "Point", "coordinates": [ 11.932773750089707, 57.704843476540383 ] } },
{ "type": "Feature", "properties": { "id": null, "Name": "Carlstens Fästning" }, "geometry": { "type": "Point", "coordinates": [ 11.577919974302295, 57.886506206370036 ] } },
{ "type": "Feature", "properties": { "id": null, "Name": "Landskrona" }, "geometry": { "type": "Point", "coordinates": [ 12.814100592322401, 55.866098537616857 ] } },
{ "type": "Feature", "properties": { "id": null, "Name": null }, "geometry": { "type": "Point", "coordinates": [ 15.583, 56.167 ] } },
{ "type": "Feature", "properties": { "id": null, "Name": "Karlshamn" }, "geometry": { "type": "Point", "coordinates": [ 14.856495850791886, 56.152418479664483 ] } },
{ "type": "Feature", "properties": { "id": null, "Name": "Fredrikstad" }, "geometry": { "type": "Point", "coordinates": [ 10.96715749952776, 59.200035664857268 ] } },
{ "type": "Feature", "properties": { "id": null, "Name": "Stavern" }, "geometry": { "type": "Point", "coordinates": [ 10.029696024351868, 58.995413929198548 ] } },
{ "type": "Feature", "properties": { "id": null, "Name": "Trondheim" }, "geometry": { "type": "Point", "coordinates": [ 10.399140672810811, 63.417387605985049 ] } },
{ "type": "Feature", "properties": { "id": null, "Name": "Fredriksten Fortress" }, "geometry": { "type": "Point", "coordinates": [ 11.420957198394962, 59.117866234589201 ] } },
{ "type": "Feature", "properties": { "id": null, "Name": "Taganrog Fortress" }, "geometry": { "type": "Point", "coordinates": [ 38.936877872731749, 47.178025525384953 ] } },
{ "type": "Feature", "properties": { "id": null, "Name": "Azov" }, "geometry": { "type": "Point", "coordinates": [ 39.795830932998896, 47.219940133514029 ] } },
{ "type": "Feature", "properties": { "id": null, "Name": null }, "geometry": { "type": "Point", "coordinates": [ 2.183, 41.383 ] } },
{ "type": "Feature", "properties": { "id": null, "Name": null }, "geometry": { "type": "Point", "coordinates": [ 0.517, 40.8 ] } },
{ "type": "Feature", "properties": { "id": null, "Name": null }, "geometry": { "type": "Point", "coordinates": [ -0.367, 39.467 ] } },
{ "type": "Feature", "properties": { "id": null, "Name": null }, "geometry": { "type": "Point", "coordinates": [ -0.983, 37.6 ] } },
{ "type": "Feature", "properties": { "id": null, "Name": null }, "geometry": { "type": "Point", "coordinates": [ -5.353, 36.143 ] } },
{ "type": "Feature", "properties": { "id": null, "Name": null }, "geometry": { "type": "Point", "coordinates": [ -6.285541959478116, 36.513218273657763 ] } },
{ "type": "Feature", "properties": { "id": null, "Name": null }, "geometry": { "type": "Point", "coordinates": [ -6.967, 38.883 ] } },
{ "type": "Feature", "properties": { "id": null, "Name": "Almeida" }, "geometry": { "type": "Point", "coordinates": [ -6.906358450711587, 40.725912523422934 ] } },
{ "type": "Feature", "properties": { "id": null, "Name": "Real Fuerte de la Concepción" }, "geometry": { "type": "Point", "coordinates": [ -6.80427134209343, 40.70305251846721 ] } },
{ "type": "Feature", "properties": { "id": null, "Name": "Salvaterra de Miño" }, "geometry": { "type": "Point", "coordinates": [ -8.501168453545811, 42.08542749641402 ] } },
{ "type": "Feature", "properties": { "id": null, "Name": "Fortaleza de São João Baptista" }, "geometry": { "type": "Point", "coordinates": [ -27.242745680726159, 38.648145480345924 ] } },
{ "type": "Feature", "properties": { "id": null, "Name": "Forte de São Sebastião" }, "geometry": { "type": "Point", "coordinates": [ -27.222468850323825, 38.651678071179695 ] } },
{ "type": "Feature", "properties": { "id": null, "Name": "Cascais" }, "geometry": { "type": "Point", "coordinates": [ -9.442625613876599, 38.663808029186924 ] } },
{ "type": "Feature", "properties": { "id": null, "Name": null }, "geometry": { "type": "Point", "coordinates": [ -7.167, 38.883 ] } },
{ "type": "Feature", "properties": { "id": null, "Name": "Forte de São Julião da Barra" }, "geometry": { "type": "Point", "coordinates": [ -9.389397761478451, 38.639342574417121 ] } },
{ "type": "Feature", "properties": { "id": null, "Name": "Forte de São Roque" }, "geometry": { "type": "Point", "coordinates": [ -7.445365532303429, 39.409595953869285 ] } },
{ "type": "Feature", "properties": { "id": null, "Name": "Charles Fort" }, "geometry": { "type": "Point", "coordinates": [ -8.514508771203092, 51.701009882096841 ] } },
{ "type": "Feature", "properties": { "id": null, "Name": null }, "geometry": { "type": "Point", "coordinates": [ -4.146, 50.388 ] } },
{ "type": "Feature", "properties": { "id": null, "Name": "Tilbury" }, "geometry": { "type": "Point", "coordinates": [ 0.361259446476781, 51.45984086068713 ] } },
{ "type": "Feature", "properties": { "id": null, "Name": null }, "geometry": { "type": "Point", "coordinates": [ 0.534599864882223, 51.368852395229752 ] } }
]
}
