{
"type": "FeatureCollection",
"name": "Bavaria",
"crs": { "type": "name", "properties": { "name": "urn:ogc:def:crs:OGC:1.3:CRS84" } },
"features": [
{ "type": "Feature", "properties": { "OBJECTID": 7.0, "YEAR": 1700.0, "OWNER_ID": 1702.0, "SHORT_NAME": "Bavaria", "LONG_NAME": "Electorate of Bavaria", "VARIANTS": null, "SHAPE_LENG": 3430389.0, "Shape__Are": 79849103654.522949, "Shape__Len": 3435425.0685560317 }, "geometry": { "type": "MultiPolygon", "coordinates": [ [ [ [ 10.801543932077129, 48.609278099797223 ], [ 10.810948892453242, 48.623717922006811 ], [ 10.870477148940745, 48.635816138359282 ], [ 10.878387880419345, 48.653417629497213 ], [ 10.851952852024677, 48.662617609755344 ], [ 10.850150962718764, 48.679713402367611 ], [ 10.854521556731843, 48.6802596142646 ], [ 10.893132605609006, 48.685084743867179 ], [ 10.897901019443973, 48.689390158699553 ], [ 10.920688321846486, 48.692878003458929 ], [ 10.923905055029939, 48.714178655998218 ], [ 10.951979660633407, 48.714893969570866 ], [ 10.986369369683633, 48.717140250016996 ], [ 10.994521818042253, 48.703982030484163 ], [ 10.988918383319771, 48.695329564100845 ], [ 10.999999999766354, 48.689442113601885 ], [ 11.005508946093991, 48.686515058493441 ], [ 11.025241826511845, 48.69284881722799 ], [ 11.060071021043468, 48.679727999314331 ], [ 11.058203208870427, 48.663406100704286 ], [ 11.095998927931104, 48.654542162493968 ], [ 11.116610778413433, 48.648159739810488 ], [ 11.143727009169515, 48.635407067544051 ], [ 11.188136978751398, 48.645501374924258 ], [ 11.190576121241767, 48.660003818485563 ], [ 11.223383683277621, 48.668268188572291 ], [ 11.254235537481463, 48.663143271766579 ], [ 11.304358812931598, 48.661989728128553 ], [ 11.372479003259114, 48.670297568590911 ], [ 11.402254118797105, 48.672224674368913 ], [ 11.417658071759702, 48.667465173025107 ], [ 11.424316271457872, 48.65432309953357 ], [ 11.441851726265376, 48.654308495183166 ], [ 11.499999999796566, 48.694070141422102 ], [ 11.513136209723323, 48.703048278181065 ], [ 11.505379297669137, 48.712501716341635 ], [ 11.499999999796566, 48.712379912265924 ], [ 11.438379794286119, 48.710984617931885 ], [ 11.395310254838586, 48.714047942030916 ], [ 11.350306980350892, 48.727334759957493 ], [ 11.336463199814187, 48.73598169179742 ], [ 11.341738240113198, 48.740107347468957 ], [ 11.360063549414049, 48.754437084315924 ], [ 11.374258917976546, 48.778815152765596 ], [ 11.391091197630788, 48.789200992969597 ], [ 11.42792004917138, 48.797677033152247 ], [ 11.477779633153014, 48.799890469616649 ], [ 11.481734998892314, 48.81018457072016 ], [ 11.441895675442337, 48.826342166874447 ], [ 11.461760401594441, 48.865564390232656 ], [ 11.476900663088538, 48.889292207946077 ], [ 11.499999999796566, 48.897857250470246 ], [ 11.50210513339294, 48.898637743403285 ], [ 11.540560080226552, 48.911323347833701 ], [ 11.532649347849636, 48.938572635903974 ], [ 11.547701712786445, 48.949462356509997 ], [ 11.542559737235523, 48.994665421566282 ], [ 11.541996957981382, 49.000000000276607 ], [ 11.540186517612279, 49.01733134878468 ], [ 11.519728486554365, 49.023613782691072 ], [ 11.519816383111655, 49.045486242264552 ], [ 11.499999999796566, 49.049576093973364 ], [ 11.448048466791985, 49.06029663047719 ], [ 11.425920391264093, 49.11404209957535 ], [ 11.415504594428, 49.136824204420833 ], [ 11.387443471638633, 49.153199186643917 ], [ 11.346439511168883, 49.158062428051295 ], [ 11.307632977207795, 49.13644434539524 ], [ 11.303326023442708, 49.124258084944373 ], [ 11.28981202253164, 49.126771731126688 ], [ 11.277242582175516, 49.129109571072256 ], [ 11.296294262028583, 49.148759051250963 ], [ 11.268079318018168, 49.164122552257922 ], [ 11.309193149633687, 49.179452066613543 ], [ 11.306204650516154, 49.203079361776759 ], [ 11.283263528689229, 49.211599332250103 ], [ 11.266870734516383, 49.231522126517994 ], [ 11.307852719499335, 49.241553388811369 ], [ 11.308204307525129, 49.275699716317789 ], [ 11.26785957572663, 49.278525961250246 ], [ 11.259751075646653, 49.294547982350714 ], [ 11.305853062490364, 49.304464446051242 ], [ 11.306751120856312, 49.346088909922422 ], [ 11.345802257984426, 49.359136382829604 ], [ 11.372500977847595, 49.383782067851278 ], [ 11.392761241202447, 49.41441553040881 ], [ 11.459409156559678, 49.439338260208707 ], [ 11.499999999796566, 49.437002755798396 ], [ 11.50003955351684, 49.43700047986966 ], [ 11.543065144685727, 49.443766666515785 ], [ 11.565720601353989, 49.460576430540591 ], [ 11.567346696647006, 49.471997374194991 ], [ 11.568686291348145, 49.471927028470695 ], [ 11.602439581748815, 49.470154531017684 ], [ 11.630258988556475, 49.45031416405979 ], [ 11.658825519694366, 49.444173188875666 ], [ 11.709849739797457, 49.444086077184942 ], [ 11.741053182027088, 49.45553991588158 ], [ 11.761687007097898, 49.478845753445903 ], [ 11.770103146925019, 49.49259763953895 ], [ 11.766577892747126, 49.499999999800124 ], [ 11.756786748426999, 49.520765880199903 ], [ 11.733032579402719, 49.524266026690121 ], [ 11.717408884148581, 49.555404765307507 ], [ 11.728286140156236, 49.561960827010303 ], [ 11.7105749128954, 49.603866447717138 ], [ 11.727407170091759, 49.605620922443592 ], [ 11.746678591338052, 49.583408181894292 ], [ 11.770718426419309, 49.593850460821677 ], [ 11.749161682107065, 49.622533214573672 ], [ 11.767971644181797, 49.637072774122863 ], [ 11.745316187513534, 49.642960419675276 ], [ 11.713980858227149, 49.64350101113957 ], [ 11.699939351309885, 49.668840032597998 ], [ 11.683480634269914, 49.639541873895936 ], [ 11.654079081346197, 49.630146935338971 ], [ 11.607229969273945, 49.581316531122063 ], [ 11.581520090621025, 49.577323128827317 ], [ 11.56576455053095, 49.568018543590476 ], [ 11.532407630969615, 49.558287784994945 ], [ 11.508211938186561, 49.558518449632977 ], [ 11.500171399251093, 49.55859510229886 ], [ 11.50412676499039, 49.596453367789024 ], [ 11.499999999796566, 49.59900771772908 ], [ 11.472022379006118, 49.616321520015198 ], [ 11.454355077566047, 49.599582520597593 ], [ 11.44132434422669, 49.601804973944034 ], [ 11.450839196409829, 49.619405543046447 ], [ 11.451168810745452, 49.662342221168991 ], [ 11.472615683911929, 49.674271241398706 ], [ 11.441604359880532, 49.686312072949605 ], [ 11.473208987919424, 49.708071177584905 ], [ 11.494853629687276, 49.717742714472337 ], [ 11.496581309167565, 49.724134013962271 ], [ 11.499999999796566, 49.736778467221264 ], [ 11.505313374802013, 49.756424071376664 ], [ 11.523639903116706, 49.75700704336947 ], [ 11.529133467591731, 49.727528979996706 ], [ 11.576268243924332, 49.724685187947493 ], [ 11.574971762966941, 49.740637425112283 ], [ 11.54825106941361, 49.744077984031662 ], [ 11.555260856239252, 49.779460676030801 ], [ 11.579212793864906, 49.78131070354533 ], [ 11.609229626282918, 49.786044702618497 ], [ 11.615602160822419, 49.799879878190168 ], [ 11.635269118373149, 49.804932367307522 ], [ 11.651771784590078, 49.809838744192483 ], [ 11.658759596827242, 49.819693663251655 ], [ 11.682447843882709, 49.825500860894699 ], [ 11.722067425939461, 49.824976931850387 ], [ 11.724396696385744, 49.845158623539447 ], [ 11.684293681467267, 49.846540621529925 ], [ 11.693720637093113, 49.871264390391268 ], [ 11.71657386236275, 49.872645637741677 ], [ 11.737075841699308, 49.877763175389241 ], [ 11.718353777080184, 49.889333777911091 ], [ 11.72446261925287, 49.89773379958325 ], [ 11.732724939655574, 49.902499940424086 ], [ 11.743624170251708, 49.897864584466731 ], [ 11.756940568749728, 49.886644879042926 ], [ 11.800889078261736, 49.876600146618181 ], [ 11.840091149425573, 49.847340707042235 ], [ 11.827851489593403, 49.833650131380182 ], [ 11.861713815706628, 49.82992492170785 ], [ 11.885072449324788, 49.83293712504944 ], [ 11.871294591655206, 49.855020853313569 ], [ 11.87111879764231, 49.872311234206244 ], [ 11.836223680243561, 49.884813434782593 ], [ 11.818666250847576, 49.897167062516438 ], [ 11.835059045020422, 49.913004120688385 ], [ 11.81413955389263, 49.915851330575791 ], [ 11.74186622922444, 49.911972691540818 ], [ 11.728264258992544, 49.911246324634376 ], [ 11.722221245363876, 49.92996866995184 ], [ 11.744634986050434, 49.942063863318936 ], [ 11.789264697923857, 49.939552147501921 ], [ 11.801306589154651, 49.958626275368132 ], [ 11.821786594801045, 49.968450696019104 ], [ 11.798384012904243, 49.990544644990848 ], [ 11.799230498989729, 50.000000000210534 ], [ 11.800449593678655, 50.012472703199478 ], [ 11.841607372674503, 50.018316087550318 ], [ 11.877227639814995, 50.007491981812237 ], [ 11.885033325897531, 50.000000000210534 ], [ 11.895883782465315, 49.988630143235028 ], [ 11.917242758176185, 49.991037762354601 ], [ 11.930493233807082, 49.976213028868251 ], [ 11.964311612539976, 49.97882437198998 ], [ 11.996130333365585, 49.98171119117395 ], [ 11.999999999826779, 49.983019447439567 ], [ 12.050236054269257, 50.000000000210534 ], [ 12.051351636087995, 50.000345400750852 ], [ 12.051916877624329, 50.000000000210534 ], [ 12.073787350464718, 49.985410126733349 ], [ 12.114791310934466, 49.982625072367924 ], [ 12.146434237747179, 49.994939007361246 ], [ 12.181144708235905, 50.000000000210534 ], [ 12.188405064838694, 50.000969773030988 ], [ 12.190998026753476, 50.02095865639717 ], [ 12.233474261295198, 50.027000161354955 ], [ 12.247743559408946, 50.039413107649509 ], [ 12.251273408469519, 50.035987975036534 ], [ 12.284740198278309, 50.039107426410695 ], [ 12.296562347217561, 50.024291537193896 ], [ 12.344202531898683, 50.012379734536985 ], [ 12.381952854596477, 50.000000000210534 ], [ 12.389689240146421, 49.997230296940373 ], [ 12.430781097173458, 49.981827240197745 ], [ 12.45728204843525, 49.997230296940373 ], [ 12.493869183095825, 49.971700872671946 ], [ 12.474905400698361, 49.956507302799423 ], [ 12.483870897152649, 49.931551527909079 ], [ 12.499999999856989, 49.921753683605523 ], [ 12.505339744009287, 49.918509542165154 ], [ 12.536455288783316, 49.91701340840978 ], [ 12.54531091409183, 49.892153326602198 ], [ 12.540037092806658, 49.867309442713534 ], [ 12.52371022150094, 49.844227571043611 ], [ 12.500021974445472, 49.838233489029413 ], [ 12.502351244891754, 49.811309103603229 ], [ 12.499999999856989, 49.811645754697047 ], [ 12.476729263694439, 49.814977528385882 ], [ 12.46475329533077, 49.810653998511285 ], [ 12.464181964115122, 49.762734368874185 ], [ 12.43242916615664, 49.754223288336661 ], [ 12.421064846296884, 49.745071990385505 ], [ 12.420189506324471, 49.745550351386676 ], [ 12.408147614195361, 49.752211888985336 ], [ 12.374351210050946, 49.770996258118977 ], [ 12.338313432017538, 49.776619944462055 ], [ 12.291002860773727, 49.766625064635569 ], [ 12.27307186876347, 49.776182893837593 ], [ 12.232683188686327, 49.761247953020025 ], [ 12.208731306756222, 49.755826804004961 ], [ 12.167133985685112, 49.746410426675887 ], [ 12.167251768293591, 49.753725789516871 ], [ 12.167551496578028, 49.772336678002112 ], [ 12.166145144474866, 49.822386310714684 ], [ 12.131887281158892, 49.840954196671667 ], [ 12.115494486986046, 49.860881957010882 ], [ 12.109956974232375, 49.888490787969943 ], [ 12.114637490611736, 49.907904867788666 ], [ 12.089081432281546, 49.926221879862261 ], [ 12.070117649884082, 49.905187951040133 ], [ 12.066294129879035, 49.871656959786122 ], [ 12.001184412359214, 49.849042663575844 ], [ 11.999999999826779, 49.847551841588235 ], [ 11.990263208072918, 49.83529437008719 ], [ 11.999999999826779, 49.831357399693715 ], [ 12.009732397920587, 49.827421884657312 ], [ 12.014083299964321, 49.817481212936457 ], [ 12.0726886381087, 49.798889703055522 ], [ 12.070710954789893, 49.770632007523531 ], [ 12.041067684986153, 49.743567747097963 ], [ 12.027355750183698, 49.747518297601594 ], [ 11.999999999826779, 49.709019367632393 ], [ 11.992570504829036, 49.698558214676908 ], [ 11.977474191613583, 49.652469718575446 ], [ 11.940337700325841, 49.649022631004051 ], [ 11.947479332885736, 49.604129667635576 ], [ 11.999999999826779, 49.577094276739444 ], [ 12.003447760836687, 49.575318990152105 ], [ 12.008238148361819, 49.553824153264131 ], [ 12.019313172970847, 49.541836174256474 ], [ 12.11999920935251, 49.520326513383296 ], [ 12.147423078957425, 49.522450082397853 ], [ 12.127382558792426, 49.542787709399811 ], [ 12.115011053226006, 49.571105640166529 ], [ 12.123844703946041, 49.596526481060629 ], [ 12.129579984402774, 49.64164562271484 ], [ 12.148763509091777, 49.658647570811254 ], [ 12.16394771886452, 49.639877895461964 ], [ 12.202380691109649, 49.651710211872221 ], [ 12.241209199659215, 49.642244590105136 ], [ 12.279620197315866, 49.647328209747201 ], [ 12.28144752062242, 49.647684273950482 ], [ 12.355409402241964, 49.662093972897011 ], [ 12.421200322123196, 49.681205365937238 ], [ 12.423551567157959, 49.699886056502699 ], [ 12.432263465614277, 49.702107850083102 ], [ 12.440383845913885, 49.69714278263104 ], [ 12.455392262572049, 49.661641281318062 ], [ 12.499999999856989, 49.652957588702129 ], [ 12.501230557947258, 49.65271801622513 ], [ 12.526654771441512, 49.640988211137071 ], [ 12.529863012850587, 49.608062386975547 ], [ 12.576975815493022, 49.593982071577905 ], [ 12.570317615794854, 49.563687499879201 ], [ 12.584534958945831, 49.542714515140325 ], [ 12.617979775064455, 49.528966663244525 ], [ 12.670432321859188, 49.527165538197345 ], [ 12.676957677794828, 49.499999999800124 ], [ 12.677595929007564, 49.497369274437752 ], [ 12.656105107562441, 49.483792817775502 ], [ 12.685924171379078, 49.473782108162744 ], [ 12.714007268756927, 49.436448689680802 ], [ 12.769953722119396, 49.424801548601948 ], [ 12.767250889058843, 49.391137014038662 ], [ 12.795839394785213, 49.356707492089676 ], [ 12.811792703476662, 49.320827317780896 ], [ 12.865080272057227, 49.312399082951345 ], [ 12.909512215329276, 49.317057353978306 ], [ 12.927531104795136, 49.322239159862342 ], [ 12.931266728242898, 49.345143156045232 ], [ 12.979192578082683, 49.340298414194415 ], [ 12.999999999887205, 49.32293496649325 ], [ 13.004199279785707, 49.319429990218886 ], [ 13.027250273656721, 49.308977883281557 ], [ 13.027426067669618, 49.278190899775844 ], [ 13.041951050567739, 49.262979597891899 ], [ 13.08967913180615, 49.23286363487076 ], [ 13.147097860138908, 49.184298119380124 ], [ 13.175466623573737, 49.184166756913569 ], [ 13.185442934928435, 49.172065296444536 ], [ 13.180432805111764, 49.14241948064172 ], [ 13.198385770812186, 49.125602520491469 ], [ 13.250684498182501, 49.104730409975154 ], [ 13.28193188869078, 49.104642693297784 ], [ 13.310542369005629, 49.110855565075305 ], [ 13.381760928698135, 49.062228092905784 ], [ 13.413074242073536, 49.054135930986554 ], [ 13.41520574481676, 49.024653455744193 ], [ 13.42051880451354, 49.000000000276607 ], [ 13.423204373750965, 48.987659107349792 ], [ 13.494686624911969, 48.948562230537703 ], [ 13.499999999917415, 48.949303691280249 ], [ 13.501796773317784, 48.949554421740061 ], [ 13.502113923528842, 48.948562230537703 ], [ 13.508706199461569, 48.913037763359256 ], [ 13.510749805647505, 48.877691417296653 ], [ 13.500685596837201, 48.8512088013237 ], [ 13.499999999917415, 48.850781838178165 ], [ 13.471393915059251, 48.832963811800973 ], [ 13.483084218264255, 48.818395030654763 ], [ 13.471020352444981, 48.791866295236034 ], [ 13.459637688088808, 48.788851435094074 ], [ 13.430324032620691, 48.729857543629748 ], [ 13.457132623629628, 48.716746428453384 ], [ 13.483260012277151, 48.695037717699286 ], [ 13.488753576752176, 48.675699116241539 ], [ 13.481414175590908, 48.668793791302967 ], [ 13.464472024790897, 48.671348726549894 ], [ 13.440871675191035, 48.685011768087982 ], [ 13.415974843735464, 48.696905504430795 ], [ 13.409272695758652, 48.714587651081608 ], [ 13.394989430638864, 48.711363897145148 ], [ 13.386793033103286, 48.694512390363727 ], [ 13.375630111936967, 48.699123410084809 ], [ 13.356556458393735, 48.692878003458929 ], [ 13.319859452587391, 48.700451187997984 ], [ 13.293644166484263, 48.661639279134519 ], [ 13.321507521570574, 48.652716609759729 ], [ 13.314014300984887, 48.643704707825457 ], [ 13.281712146399238, 48.64557440886847 ], [ 13.263912999224919, 48.619246103346661 ], [ 13.271076606373292, 48.61152908768927 ], [ 13.295841592094611, 48.611251369851011 ], [ 13.317837820989938, 48.61543159058472 ], [ 13.366400924912497, 48.602407447977264 ], [ 13.356578432982213, 48.578660027331523 ], [ 13.326539625975723, 48.577329020276558 ], [ 13.301840564019843, 48.556628063603938 ], [ 13.329967609676336, 48.533283549494236 ], [ 13.357435428458212, 48.529198975684167 ], [ 13.374597321549761, 48.5166650260635 ], [ 13.388815538761509, 48.500000000192749 ], [ 13.3947037654802, 48.493165017361441 ], [ 13.416699994375527, 48.491496746464897 ], [ 13.430342979886666, 48.500000000192749 ], [ 13.443464637105818, 48.508258504053813 ], [ 13.465438891412665, 48.506837751056729 ], [ 13.470097434101861, 48.534264383106127 ], [ 13.449265840429675, 48.535420864265021 ], [ 13.41837003794719, 48.543003208659123 ], [ 13.422874760313654, 48.564324255248145 ], [ 13.455118758866123, 48.56264443355429 ], [ 13.45910470595264, 48.546718356124252 ], [ 13.478203497052469, 48.541064528766405 ], [ 13.499424375653028, 48.549545031868071 ], [ 13.499424375653028, 48.560336143701825 ], [ 13.499999999917415, 48.560306153389483 ], [ 13.502069975250198, 48.560198306778474 ], [ 13.499999999917415, 48.564692558921401 ], [ 13.498026712055292, 48.56897651496206 ], [ 13.49492834179199, 48.572326460933297 ], [ 13.477986190991979, 48.571858359721467 ], [ 13.483018295397128, 48.593474237034599 ], [ 13.490555465159774, 48.626611239201402 ], [ 13.499999999917415, 48.630105611492979 ], [ 13.510420191311878, 48.633960683138106 ], [ 13.528526978233343, 48.632236655897827 ], [ 13.547864322346763, 48.620605227676307 ], [ 13.552566812416288, 48.59479019416851 ], [ 13.568893683722008, 48.5891898253875 ], [ 13.555467414078215, 48.554740414572329 ], [ 13.640200141768432, 48.543852125634849 ], [ 13.712407543569499, 48.520150245586194 ], [ 13.691905563334624, 48.509137300278198 ], [ 13.691541792356951, 48.500000000192749 ], [ 13.690938695814545, 48.484997216119616 ], [ 13.717571492810585, 48.480789483802447 ], [ 13.710451834839173, 48.455564752323205 ], [ 13.724295615375878, 48.386109894838988 ], [ 13.746401715416974, 48.37205042163778 ], [ 13.745698539365392, 48.297791829031411 ], [ 13.718999819502228, 48.286533684052607 ], [ 13.670766329915294, 48.291048892944886 ], [ 13.647363748916806, 48.275273041485782 ], [ 13.626114644351706, 48.248881603445049 ], [ 13.580276348078183, 48.208342397331315 ], [ 13.571926131118186, 48.184864478253431 ], [ 13.604579874627939, 48.158177860453591 ], [ 13.600624507990325, 48.101371238198006 ], [ 13.511255213097709, 48.087262065741733 ], [ 13.499999999917415, 48.084879432679877 ], [ 13.457857774269691, 48.07595729681632 ], [ 13.41281055150335, 48.053296364051285 ], [ 13.404548231100646, 48.055725323455491 ], [ 13.376596978558734, 48.035016940152275 ], [ 13.360446611833298, 48.000000000254126 ], [ 13.357545299603981, 47.993767958941255 ], [ 13.361513858001542, 47.992070596748121 ], [ 13.360204184385887, 47.990735802717928 ], [ 13.337740453352085, 48.000000000254126 ], [ 13.334032847459723, 48.001543861748132 ], [ 13.329747867384798, 48.011459208766617 ], [ 13.309465630339778, 48.019864514930312 ], [ 13.287441794419141, 48.000000000254126 ], [ 13.287139787108826, 47.999730192747684 ], [ 13.246948874734745, 47.998598727194576 ], [ 13.179356066445912, 47.98245086394995 ], [ 13.169885162541421, 47.993840495855025 ], [ 13.150965329320918, 47.993361747193084 ], [ 13.131144551447459, 47.998961378989542 ], [ 13.102819736291274, 47.997307665168613 ], [ 13.098664201652161, 48.000000000254126 ], [ 13.08150470885905, 48.011224894921966 ], [ 13.071572345782998, 48.024871898955439 ], [ 13.051553799308167, 48.030771785217212 ], [ 13.039006499728849, 48.042642697555223 ], [ 12.999999999887205, 48.022407507256858 ], [ 12.997892669011646, 48.021314071186978 ], [ 12.978511375721267, 48.018868836391142 ], [ 12.942935056859421, 48.036378243050684 ], [ 12.91434655113305, 48.017184923763018 ], [ 12.89626173969838, 48.021724038999679 ], [ 12.877627571636543, 48.008193360881783 ], [ 12.872485560153009, 48.000000000254126 ], [ 12.869694865569462, 47.995595870791682 ], [ 12.839194599391412, 47.998888848715133 ], [ 12.838699904350968, 48.000000000254126 ], [ 12.832316657401702, 48.014475905658159 ], [ 12.783050378325878, 48.034680268185703 ], [ 12.760197153056243, 48.04696004114691 ], [ 12.757032859925813, 48.071700908461729 ], [ 12.763976724782648, 48.081397937411907 ], [ 12.765119386315623, 48.089630923980089 ], [ 12.746243501373765, 48.089470078835575 ], [ 12.689527949092588, 48.075211357619018 ], [ 12.652457380671974, 48.054803503192716 ], [ 12.608618742305735, 48.055110778659092 ], [ 12.581546459828298, 48.027580367537141 ], [ 12.557111368716972, 48.000000000254126 ], [ 12.549332202698254, 47.991301625350623 ], [ 12.584732727547209, 47.965731819621453 ], [ 12.609541660648858, 47.970086262028673 ], [ 12.634482440383072, 47.968213896651761 ], [ 12.637690681792145, 47.956557252107999 ], [ 12.658236610305664, 47.943576504886003 ], [ 12.678255155882182, 47.947439128344755 ], [ 12.683375157742939, 47.929125396092921 ], [ 12.64916124270561, 47.919871648148401 ], [ 12.666850517835845, 47.901024880700682 ], [ 12.695417048973734, 47.891213692828138 ], [ 12.709810186137606, 47.870509584513115 ], [ 12.7296089903209, 47.826543932161975 ], [ 12.752462215590537, 47.789022751738727 ], [ 12.790126088018647, 47.760904046220723 ], [ 12.85088490349473, 47.745293749888503 ], [ 12.853697607701054, 47.731720187562061 ], [ 12.934387072196364, 47.732667974013623 ], [ 12.982884253251799, 47.729955800453077 ], [ 12.999999999887205, 47.734605505242897 ], [ 13.024964951489084, 47.741386795102976 ], [ 13.052103155935331, 47.719659912047113 ], [ 13.07242934215731, 47.690875986429653 ], [ 13.090382307857732, 47.657403514823699 ], [ 13.087877243398554, 47.640535017571523 ], [ 13.070781272275811, 47.622682034087944 ], [ 13.062782644239924, 47.599999022644369 ], [ 13.047510537011576, 47.600159825959928 ], [ 13.04417044986825, 47.58341896526013 ], [ 13.064408738634626, 47.578578463413336 ], [ 13.056058521674631, 47.56333744856915 ], [ 13.0358641811869, 47.551794018530956 ], [ 13.038105555974209, 47.527425911389415 ], [ 13.048491163128547, 47.500000000208502 ], [ 13.049378348286298, 47.497678837389707 ], [ 13.03157920201029, 47.477698063435405 ], [ 13.004309151829794, 47.46387972345314 ], [ 12.999999999887205, 47.464742942403099 ], [ 12.960756177723905, 47.472603701480672 ], [ 12.910896593742271, 47.498665344142182 ], [ 12.908183861247288, 47.500000000208502 ], [ 12.883209032668859, 47.512404213574008 ], [ 12.867167826521806, 47.535915794495651 ], [ 12.849522499670211, 47.539404589670283 ], [ 12.841448498490411, 47.542324886818847 ], [ 12.833074989113413, 47.54637050282183 ], [ 12.831877172818622, 47.550872189755729 ], [ 12.831877172818622, 47.563688539747709 ], [ 12.815835966671568, 47.572231020628017 ], [ 12.803003001933588, 47.563688539747709 ], [ 12.786961795786535, 47.563688539747709 ], [ 12.764504106821333, 47.565824291231813 ], [ 12.758087624901499, 47.580772100370488 ], [ 12.754879383492424, 47.593581091197848 ], [ 12.774128831048555, 47.610654840131417 ], [ 12.748462900674276, 47.617056050538267 ], [ 12.73883817734537, 47.631989142164578 ], [ 12.742046418754445, 47.646917942486731 ], [ 12.671465111348082, 47.661842450526834 ], [ 12.655423905201026, 47.651182525209812 ], [ 12.626549734315992, 47.657578743631511 ], [ 12.594599167756135, 47.651051088373087 ], [ 12.581634357283903, 47.638387724798491 ], [ 12.573328088602553, 47.609105570002633 ], [ 12.572834040349115, 47.608413234341846 ], [ 12.57119658585933, 47.608930178193866 ], [ 12.551529628308602, 47.613972460435718 ], [ 12.528852197051862, 47.609207882073399 ], [ 12.513492192367908, 47.599531227304062 ], [ 12.499999999856989, 47.600581674301395 ], [ 12.490397250218249, 47.601329291979525 ], [ 12.465126857046725, 47.662017663739235 ], [ 12.443767881335853, 47.66664600230763 ], [ 12.390216622185106, 47.66124380076883 ], [ 12.350245452102563, 47.671814069400362 ], [ 12.306362865457679, 47.670923563507522 ], [ 12.282652643813732, 47.660937172534254 ], [ 12.257645942110706, 47.662806116783557 ], [ 12.242395809470837, 47.677653073382437 ], [ 12.246636840368804, 47.694947264187718 ], [ 12.285794962355679, 47.709989246650331 ], [ 12.299484923467972, 47.727870537491299 ], [ 12.289091101220359, 47.737435805343836 ], [ 12.258480963896538, 47.738266850406198 ], [ 12.239143619783119, 47.728730901042887 ], [ 12.206160262836054, 47.69986447393115 ], [ 12.175000768885068, 47.700812843530045 ], [ 12.152301363938161, 47.687607059241785 ], [ 12.161904113576902, 47.66901111389766 ], [ 12.207193052324946, 47.626875553042488 ], [ 12.215059835524903, 47.59939965912541 ], [ 12.158432180699327, 47.589384885522414 ], [ 12.133381529819344, 47.595393980966477 ], [ 12.101430963259485, 47.592221381946686 ], [ 12.079258940351263, 47.603024970443322 ], [ 12.043528802065001, 47.60033524735735 ], [ 12.004678318926954, 47.609134802216971 ], [ 11.999999999826779, 47.608393078901585 ], [ 11.969277794078003, 47.603521969116478 ], [ 11.92932859858394, 47.605217576074033 ], [ 11.890302321432998, 47.592791586810293 ], [ 11.848375443518442, 47.589750421971786 ], [ 11.845233124976493, 47.572582051832271 ], [ 11.794516544620549, 47.58334584915643 ], [ 11.684579346625931, 47.571967746431149 ], [ 11.668010758440191, 47.578256722225149 ], [ 11.643091953294457, 47.578183599475381 ], [ 11.614877010182358, 47.56841340744711 ], [ 11.601934174298608, 47.549804018317346 ], [ 11.601472714228731, 47.525991277553558 ], [ 11.579256743041865, 47.516167364828618 ], [ 11.548382914249546, 47.518905362550981 ], [ 11.515882991062519, 47.51115953210811 ], [ 11.499999999796566, 47.516624241578747 ], [ 11.487624099671775, 47.520881902600394 ], [ 11.46547405045372, 47.520325550922038 ], [ 11.445059967674451, 47.51932995874656 ], [ 11.426559148228334, 47.500000000208502 ], [ 11.424516742191621, 47.497885976729627 ], [ 11.415124393263781, 47.500000000208502 ], [ 11.402298067974066, 47.502914596420823 ], [ 11.351449641883869, 47.506195153037453 ], [ 11.335650152616834, 47.512741004880276 ], [ 11.318466284936804, 47.526240145430677 ], [ 11.28851537538592, 47.532593194932026 ], [ 11.246346779693027, 47.530573184321639 ], [ 11.191960498756449, 47.524644442154731 ], [ 11.129026233156814, 47.514205288858101 ], [ 11.111029318279433, 47.517411927400218 ], [ 11.092658840787779, 47.5264158160508 ], [ 11.06444389767568, 47.523985651133891 ], [ 10.999999999766354, 47.510486211740393 ], [ 10.984062072927516, 47.507147061711734 ], [ 10.963076659830916, 47.508201463727239 ], [ 10.938575338628636, 47.513297433824597 ], [ 10.937762317482431, 47.525156829280711 ], [ 10.903768145634954, 47.534452120137757 ], [ 10.857644184202764, 47.529563149964595 ], [ 10.798247772551198, 47.517031240939971 ], [ 10.774120040912649, 47.533705630551772 ], [ 10.713602943214902, 47.532476095128636 ], [ 10.702527918605874, 47.54387746304409 ], [ 10.69521049113477, 47.544418929104303 ], [ 10.713031611999257, 47.557719673209704 ], [ 10.734786124912878, 47.577042863251272 ], [ 10.747311449903711, 47.604662124806985 ], [ 10.77350476141836, 47.645209089989621 ], [ 10.817607091253096, 47.705919150575781 ], [ 10.83367027198863, 47.732667974013623 ], [ 10.846437313859486, 47.753252528799869 ], [ 10.853293281260715, 47.759898482889767 ], [ 10.842679716721561, 47.769967807709847 ], [ 10.827077995157589, 47.772022233330524 ], [ 10.813717648380921, 47.786065908421442 ], [ 10.790271118205473, 47.790595782286985 ], [ 10.785634551003072, 47.80361513584289 ], [ 10.820727436104878, 47.827882949673125 ], [ 10.854238174192314, 47.85823440047308 ], [ 10.872960239709757, 47.900254588879335 ], [ 10.874872000161441, 47.922748187561496 ], [ 10.864346332179577, 47.928282894322216 ], [ 10.850810190491702, 47.945885401467613 ], [ 10.843251047038892, 47.975920635486361 ], [ 10.84615164870082, 47.997322171799532 ], [ 10.835595590712895, 48.000000000254126 ], [ 10.811212583023428, 48.006245468899415 ], [ 10.800407742905774, 48.000000000254126 ], [ 10.799961764401505, 47.999744698693355 ], [ 10.797127193404535, 48.000000000254126 ], [ 10.78675523794757, 48.00094331394267 ], [ 10.774647422951336, 48.010214403293631 ], [ 10.76930767879904, 48.024461955725528 ], [ 10.737862520587701, 48.030098383263628 ], [ 10.781745107232583, 48.055579003935165 ], [ 10.744476771108909, 48.103417841207708 ], [ 10.733225952486984, 48.131959407428219 ], [ 10.825781514200196, 48.132967496346417 ], [ 10.851359547118866, 48.179201309385121 ], [ 10.870059638047829, 48.205672676222427 ], [ 10.856018088909746, 48.214162779927904 ], [ 10.861885215100731, 48.221265953829999 ], [ 10.878893288767864, 48.226822365612939 ], [ 10.874674231560066, 48.268701966377947 ], [ 10.880240322417869, 48.286493925745155 ], [ 10.881442302404002, 48.290335225436742 ], [ 10.921523343632316, 48.295068548311328 ], [ 10.915194758269774, 48.319485478142362 ], [ 10.898889860654219, 48.354423311056379 ], [ 10.874392472276254, 48.362384148331252 ], [ 10.873289854045382, 48.375089459969082 ], [ 10.875641099080145, 48.405920286708053 ], [ 10.889836467642644, 48.433435564261472 ], [ 10.905592008631031, 48.457684231566574 ], [ 10.911327289087764, 48.480789483802447 ], [ 10.910713533136194, 48.500000000192749 ], [ 10.910470292713452, 48.507687278018857 ], [ 10.898208658292802, 48.536533403551473 ], [ 10.891023077454264, 48.568523011889255 ], [ 10.893835781660588, 48.578908672824859 ], [ 10.852128646037572, 48.576436787774767 ], [ 10.823430269165431, 48.56783543454582 ], [ 10.790271118205473, 48.571682820270638 ], [ 10.785744422148843, 48.585387653043782 ], [ 10.814157133862317, 48.582287206955996 ], [ 10.850085040749955, 48.592757756458852 ], [ 10.849623580680079, 48.607494720850568 ], [ 10.801543932077129, 48.609278099797223 ] ], [ [ 12.444962190607775, 49.039300530813094 ], [ 12.44359208732296, 49.039133391708113 ], [ 12.425265559008269, 49.070143374554327 ], [ 12.390748399680474, 49.10213838984096 ], [ 12.368418160992839, 49.122825928390384 ], [ 12.350267426691042, 49.115226034478248 ], [ 12.340928368520801, 49.117228428219427 ], [ 12.341688730425052, 49.118779990666432 ], [ 12.349981761532378, 49.13569922891574 ], [ 12.322777633320689, 49.150292696114882 ], [ 12.309043723929753, 49.133799861744443 ], [ 12.289926122107875, 49.131725083904307 ], [ 12.260063110012593, 49.139950625270174 ], [ 12.259469805106784, 49.161304322400674 ], [ 12.278455561194411, 49.171948500927002 ], [ 12.261513411292714, 49.183218016724304 ], [ 12.229409024410126, 49.193901235843278 ], [ 12.140830803024697, 49.204421647360689 ], [ 12.156915957450396, 49.213058082857877 ], [ 12.14795046099611, 49.225980725344186 ], [ 12.154366943814258, 49.239031185336231 ], [ 12.175967636405147, 49.246058041409796 ], [ 12.205654854487534, 49.246611983389769 ], [ 12.222553057008898, 49.226870308105411 ], [ 12.255756156247504, 49.230472224807698 ], [ 12.272061052964744, 49.245547826486849 ], [ 12.26096405466555, 49.26845854137666 ], [ 12.239187568061762, 49.27514610320037 ], [ 12.227848851984236, 49.284469285647667 ], [ 12.242241989148109, 49.298450736139856 ], [ 12.264457961233289, 49.303780114282389 ], [ 12.266128004804951, 49.321686071677952 ], [ 12.227936749439841, 49.326168815149714 ], [ 12.21185159501414, 49.372354994450312 ], [ 12.175110640030837, 49.391587577548862 ], [ 12.122811913558834, 49.386398578890777 ], [ 12.091608471329204, 49.405305972174673 ], [ 12.075237651744839, 49.404390563569152 ], [ 12.07222717893714, 49.382459222422675 ], [ 12.026300986106325, 49.373227384144094 ], [ 11.999999999826779, 49.367926165632504 ], [ 11.952357617866472, 49.358321918099904 ], [ 11.934580445280631, 49.372471313741201 ], [ 11.917638295378936, 49.379653509781562 ], [ 11.920648768186634, 49.363295759114209 ], [ 11.903816488532394, 49.336471747297068 ], [ 11.90212392958645, 49.337520915527378 ], [ 11.877667125296393, 49.352678467735004 ], [ 11.83396033176609, 49.388389940389793 ], [ 11.839102307317011, 49.402922968372579 ], [ 11.808602042037275, 49.401687829417654 ], [ 11.806382641838448, 49.416304061937176 ], [ 11.784474309500411, 49.427982278129157 ], [ 11.755248550589585, 49.427168960635441 ], [ 11.752633614086324, 49.393840332758202 ], [ 11.766521343799988, 49.349100066775669 ], [ 11.752721511541928, 49.345434116204572 ], [ 11.738855756416742, 49.341767890917815 ], [ 11.727560989516173, 49.325426571083497 ], [ 11.700159093601425, 49.313665594155985 ], [ 11.681744667831129, 49.30037287354147 ], [ 11.694291967410443, 49.291780916465996 ], [ 11.727055582065969, 49.281322909630042 ], [ 11.717013346945832, 49.269026800771236 ], [ 11.638477359782222, 49.258724251776684 ], [ 11.621403364146275, 49.23766068582696 ], [ 11.569588070536, 49.229757695222595 ], [ 11.542977248128437, 49.226389060125513 ], [ 11.547416047627777, 49.187976130172892 ], [ 11.556733131209539, 49.151767870910824 ], [ 11.572356826463679, 49.12554406766256 ], [ 11.573631333730905, 49.11282890199795 ], [ 11.559633732871466, 49.09683529328651 ], [ 11.545218622017432, 49.082386884393465 ], [ 11.556864976943791, 49.050008857213221 ], [ 11.585057946365723, 49.051165057665543 ], [ 11.613009198009323, 49.035019705583224 ], [ 11.609888854055853, 49.017477802097147 ], [ 11.63599426901321, 49.024199516608917 ], [ 11.647003370755112, 49.014490079752022 ], [ 11.632126799831198, 49.002639936318594 ], [ 11.644736665273422, 49.000000000276607 ], [ 11.651090582228662, 48.998683088521609 ], [ 11.67932749992924, 48.977358171228587 ], [ 11.72518776989293, 48.962686522565427 ], [ 11.771443577059371, 48.96535705674701 ], [ 11.846925142238321, 48.979984388049047 ], [ 11.913573057595549, 48.989806075084466 ], [ 11.937197374247193, 49.000000000276607 ], [ 11.951456673213517, 49.006214320153127 ], [ 11.999999999826779, 49.020184542812821 ], [ 12.004436602046933, 49.021461150740947 ], [ 12.026213088650721, 49.028870497517147 ], [ 12.056735328518936, 49.03648369037947 ], [ 12.097783237267331, 49.040465509008492 ], [ 12.09767422131771, 49.034624247351033 ], [ 12.097629416944601, 49.032223374611512 ], [ 12.066623743316342, 49.027215937187144 ], [ 12.064206575414454, 49.015588528250092 ], [ 12.071304259695705, 49.002903628916464 ], [ 12.078057585592569, 49.000000000276607 ], [ 12.091168986746123, 48.994418839520755 ], [ 12.142940331179439, 48.994534878213827 ], [ 12.15287058411289, 49.000000000276607 ], [ 12.166211067341992, 49.0074154896542 ], [ 12.1743287616789, 49.015978033236607 ], [ 12.247845423870588, 49.024082370616377 ], [ 12.259865341411219, 49.01728741311998 ], [ 12.259315985682369, 49.007884230966432 ], [ 12.336973002781502, 49.006844205585551 ], [ 12.349520302360816, 49.001746300040793 ], [ 12.34968104240618, 49.000000000276607 ], [ 12.350487168982582, 48.991329205054562 ], [ 12.342356695212443, 48.987296434455274 ], [ 12.355519273387733, 48.973933723774678 ], [ 12.384437393449728, 48.982102671160803 ], [ 12.425858863914078, 48.978257774603172 ], [ 12.459809087482906, 48.967751707437799 ], [ 12.487101112251885, 48.963600906851717 ], [ 12.499999999856989, 48.96514545347712 ], [ 12.502373219480234, 48.965429623654686 ], [ 12.521249104422091, 48.960886733643825 ], [ 12.523995886659606, 48.950754444924186 ], [ 12.506350559808011, 48.943132089922436 ], [ 12.513799832115053, 48.934070853055296 ], [ 12.564933923363913, 48.935377864602827 ], [ 12.580008261990885, 48.950493126479877 ], [ 12.569372722863253, 48.952293292612808 ], [ 12.569856156623294, 48.961147997331352 ], [ 12.555726710927923, 48.967983909479443 ], [ 12.534785245211651, 48.993969185982984 ], [ 12.537838860509186, 49.000000000276607 ], [ 12.540388680832448, 49.005086366148795 ], [ 12.512019917397621, 49.018400444041553 ], [ 12.499999999856989, 49.027174719990704 ], [ 12.492902315575742, 49.032355142886431 ], [ 12.467104540365533, 49.033145742211325 ], [ 12.458952092006912, 49.041007128806278 ], [ 12.444962190607775, 49.039300530813094 ] ], [ [ 11.624018299751224, 48.160163779106455 ], [ 11.61685469260285, 48.14725392486509 ], [ 11.610482158961663, 48.122841869757409 ], [ 11.605142414809364, 48.116777221266069 ], [ 11.587716831147631, 48.094573003682932 ], [ 11.623051433129458, 48.085712012255463 ], [ 11.665483719392533, 48.084673742505174 ], [ 11.656847837273874, 48.105332803023011 ], [ 11.686842695103403, 48.146567449877331 ], [ 11.710794632729057, 48.174851334586556 ], [ 11.72531961562718, 48.20240462975417 ], [ 11.753204945301968, 48.242890252004322 ], [ 11.762236363725064, 48.274005516525037 ], [ 11.746129234710885, 48.278041089308822 ], [ 11.740196186551094, 48.309717204336536 ], [ 11.785660919312033, 48.362626789339124 ], [ 11.802009765206231, 48.396590166460754 ], [ 11.794384698886297, 48.411485566387469 ], [ 11.754171811923735, 48.43003691633357 ], [ 11.7246164395756, 48.431155300191996 ], [ 11.729077212765105, 48.40135717188425 ], [ 11.747469664845237, 48.384350857263136 ], [ 11.717892317010307, 48.363164914285456 ], [ 11.685963725038928, 48.321887224459523 ], [ 11.665198054233867, 48.26345615173701 ], [ 11.655023974277796, 48.226049462932771 ], [ 11.644871868011888, 48.201616765723841 ], [ 11.63577452672167, 48.182937903837853 ], [ 11.624018299751224, 48.160163779106455 ] ] ], [ [ [ 10.341346173940281, 48.065948245153756 ], [ 10.345622069352739, 48.088870561477123 ], [ 10.370431003352703, 48.099470747633269 ], [ 10.354719410642957, 48.105581303760921 ], [ 10.378297786552656, 48.143894490849185 ], [ 10.403348436534328, 48.142068618193569 ], [ 10.420795995682857, 48.173449921720952 ], [ 10.440375056676297, 48.144581001801605 ], [ 10.486608889254256, 48.116134179973677 ], [ 10.49999999973614, 48.099841533382303 ], [ 10.500364772335356, 48.099397650176279 ], [ 10.505243057316093, 48.072622424957316 ], [ 10.501683227881228, 48.05237449943958 ], [ 10.514494218929045, 48.045511210499534 ], [ 10.53662229355862, 48.042437797150811 ], [ 10.538039672481894, 48.041081989154563 ], [ 10.603634933904354, 48.093784445112867 ], [ 10.603634933904354, 48.119014354519237 ], [ 10.646303773531198, 48.136352690870581 ], [ 10.68897261315804, 48.126896146185928 ], [ 10.667638193793778, 48.089052450012183 ], [ 10.636821808670614, 48.073275969273297 ], [ 10.62971033614807, 48.005381631871238 ], [ 10.587041495622911, 48.006961592310745 ], [ 10.577559531660642, 48.021179045907616 ], [ 10.546135960863898, 48.019683448897794 ], [ 10.545654555499768, 48.018128024349934 ], [ 10.54510435535455, 48.016350268745093 ], [ 10.520647010278692, 48.012967579405355 ], [ 10.517987008890886, 48.000000000254126 ], [ 10.514494218929045, 47.983132862626576 ], [ 10.49999999973614, 47.966859365384472 ], [ 10.499771467429548, 47.966602737529342 ], [ 10.492827603471028, 47.94954457162374 ], [ 10.47720390821689, 47.948978288541291 ], [ 10.471996009798843, 47.968213896651761 ], [ 10.454504502371668, 47.969157344872329 ], [ 10.420817969373021, 47.968155837779818 ], [ 10.404237875565125, 48.000000000254126 ], [ 10.400865345765315, 48.006538390090995 ], [ 10.358366025419105, 48.028113721930424 ], [ 10.354455720072774, 48.030098383263628 ], [ 10.340765758960481, 48.062835952791524 ], [ 10.341346173940281, 48.065948245153756 ] ] ], [ [ [ 9.701825242855481, 48.65420625746885 ], [ 9.70428267414672, 48.652935679146069 ], [ 9.697788455615459, 48.624214765750658 ], [ 9.671460541436955, 48.560607990056077 ], [ 9.671131565803499, 48.559832805563538 ], [ 9.657484806469851, 48.533093236334302 ], [ 9.637365892126638, 48.523283808917846 ], [ 9.62393678739981, 48.500000000192749 ], [ 9.620801245748364, 48.49461564264459 ], [ 9.573125781531088, 48.491337169620898 ], [ 9.571620790816469, 48.500000000192749 ], [ 9.565512626871822, 48.535494058426252 ], [ 9.545635051217895, 48.56792321106542 ], [ 9.566763202121564, 48.577475286564486 ], [ 9.568364817424774, 48.60359160089169 ], [ 9.620164987897242, 48.632251266678367 ], [ 9.645395906400239, 48.651372960547498 ], [ 9.701825242855481, 48.65420625746885 ] ] ], [ [ [ 11.93143812673868, 49.241961594146709 ], [ 11.93341581005749, 49.24180122795962 ], [ 11.943194353709126, 49.197651488052422 ], [ 11.911331683706559, 49.183831050584629 ], [ 11.886676570029323, 49.206347470419132 ], [ 11.840574583185612, 49.204173619005687 ], [ 11.814776807077088, 49.243929681111666 ], [ 11.820973547603696, 49.270818961082497 ], [ 11.828114009658773, 49.272919704821966 ], [ 11.837761878080975, 49.275757990926387 ], [ 11.856044458117022, 49.262061524027622 ], [ 11.888786098184065, 49.263445914900601 ], [ 11.910452713642082, 49.243638117737333 ], [ 11.93143812673868, 49.241961594146709 ] ] ], [ [ [ 10.077953669257967, 48.2052787710141 ], [ 10.104059084215324, 48.207948512777961 ], [ 10.11302458066961, 48.218626080504926 ], [ 10.120891363869564, 48.222534794377438 ], [ 10.159522103817755, 48.193401828772714 ], [ 10.161851375162353, 48.15889338404201 ], [ 10.101927581472101, 48.153840695636845 ], [ 10.077953669257967, 48.2052787710141 ] ] ], [ [ [ 10.461950075416365, 48.562049318428556 ], [ 10.453757378041441, 48.57710962064256 ], [ 10.459185018751027, 48.593225663019062 ], [ 10.478126826560011, 48.601661856066038 ], [ 10.482455754913582, 48.610213568572739 ], [ 10.497178505514764, 48.612464546684478 ], [ 10.499244085390862, 48.603460029195112 ], [ 10.49999999973614, 48.603352266225173 ], [ 10.506319795981945, 48.602451305769939 ], [ 10.507374560059317, 48.588312426448503 ], [ 10.527788642838585, 48.590608254603609 ], [ 10.53156821456499, 48.582009327373342 ], [ 10.512049514968751, 48.572454183216138 ], [ 10.49999999973614, 48.566554581770554 ], [ 10.499090265966448, 48.566109135625176 ], [ 10.461950075416365, 48.562049318428556 ] ] ], [ [ [ 11.379291022381699, 49.565077572723112 ], [ 11.368150075803857, 49.577162215681916 ], [ 11.370137333366964, 49.578487143902109 ], [ 11.382631109525022, 49.586816063503498 ], [ 11.397090169556019, 49.583188782420912 ], [ 11.404319698673202, 49.572319941980822 ], [ 11.379291022381699, 49.565077572723112 ] ] ] ] } }
]
}
