{
"type": "FeatureCollection",
"name": "Beni Abbes",
"crs": { "type": "name", "properties": { "name": "urn:ogc:def:crs:OGC:1.3:CRS84" } },
"features": [
{ "type": "Feature", "properties": { "OBJECTID": 112.0, "YEAR": 1700.0, "OWNER_ID": 15183.0, "SHORT_NAME": "Lesser Kabylia", "LONG_NAME": "Kalaat of the Beni Abbes", "VARIANTS": "Kingdom of Ath Abbas, Kingdom of Labbes", "SHAPE_LENG": 454978.3, "Shape__Are": 11944732062.981567, "Shape__Len": 455747.21751499909 }, "geometry": { "type": "MultiPolygon", "coordinates": [ [ [ [ 4.547242021974706, 36.23461447663442 ], [ 4.578728462264916, 36.246908354120173 ], [ 4.624473232239256, 36.223186500869609 ], [ 4.657891961282048, 36.234230936037925 ], [ 4.695353456751385, 36.264295129295718 ], [ 4.738000237348101, 36.304565285821994 ], [ 4.731980031944498, 36.352021332896648 ], [ 4.689552966689845, 36.375703701622911 ], [ 4.686103433303872, 36.443082240618217 ], [ 4.725146879954865, 36.467100753302866 ], [ 4.753062744264458, 36.499999999919694 ], [ 4.756478311451224, 36.504050625414607 ], [ 4.870137146124608, 36.514376833079048 ], [ 4.949805991506516, 36.509179016589243 ], [ 5.000000000302123, 36.505541827670719 ], [ 5.042903530186824, 36.502428307392812 ], [ 5.148522346049297, 36.518144157302501 ], [ 5.197185107272854, 36.513277994880625 ], [ 5.250809151521191, 36.499999999919694 ], [ 5.268336295115699, 36.495687738912459 ], [ 5.365194654987485, 36.499999999919694 ], [ 5.365661817562803, 36.500020933870509 ], [ 5.404736830114529, 36.507016063292099 ], [ 5.47626727948378, 36.499999999919694 ], [ 5.480144365130888, 36.499622166654703 ], [ 5.500000000332335, 36.498999798048388 ], [ 5.52106233167512, 36.498339600464661 ], [ 5.571962965154682, 36.477451545206186 ], [ 5.672667237336642, 36.36794349174906 ], [ 5.728087496233234, 36.328939657486941 ], [ 5.794368020402186, 36.289985634680967 ], [ 5.810186708463481, 36.222699465750743 ], [ 5.792393426389632, 36.122305075774896 ], [ 5.778734969194345, 35.999999999757982 ], [ 5.763761820394263, 35.866559264853812 ], [ 5.767228329244126, 35.842734571256713 ], [ 5.741756072051854, 35.818607318117948 ], [ 5.665295421366651, 35.80842614142464 ], [ 5.540786326856507, 35.824409651711242 ], [ 5.500000000332335, 35.821067894501567 ], [ 5.437317624135006, 35.815931845872825 ], [ 5.378935475117911, 35.805107419344907 ], [ 5.280600715212017, 35.80926014457949 ], [ 5.24457535279416, 35.847927303346147 ], [ 5.138386098641433, 35.854456806070857 ], [ 5.054421992864516, 35.881784529921305 ], [ 5.000000000302123, 35.878922951011198 ], [ 4.915310655850219, 35.874476076751669 ], [ 4.80857285984229, 35.845027057062097 ], [ 4.707393866660276, 35.829395146895628 ], [ 4.632075388824527, 35.85006334353087 ], [ 4.592548567702328, 35.843029819435188 ], [ 4.583144744593362, 35.841345153609232 ], [ 4.500000000271902, 35.902330786144489 ], [ 4.494006160421905, 35.906725362368775 ], [ 4.500000000271902, 35.939165837100155 ], [ 4.506200371788879, 35.97270999977161 ], [ 4.500000000271902, 35.979498231726652 ], [ 4.481270414957216, 35.999999999757982 ], [ 4.460543488490369, 36.022827351295987 ], [ 4.436726326903414, 36.131779157535014 ], [ 4.464718082684866, 36.184979761355137 ], [ 4.500000000271902, 36.207599548275283 ], [ 4.53417015657512, 36.229500283668351 ], [ 4.547242021974706, 36.23461447663442 ] ] ] ] } }
]
}
