{
"type": "FeatureCollection",
"name": "Biberach",
"crs": { "type": "name", "properties": { "name": "urn:ogc:def:crs:OGC:1.3:CRS84" } },
"features": [
{ "type": "Feature", "properties": { "OBJECTID": 47.0, "YEAR": 1700.0, "OWNER_ID": 9641.0, "SHORT_NAME": "Biberach", "LONG_NAME": "Imperial City of Biberach", "VARIANTS": null, "SHAPE_LENG": 63031.3, "Shape__Are": 126942664.4638672, "Shape__Len": 63109.042810434323 }, "geometry": { "type": "MultiPolygon", "coordinates": [ [ [ [ 9.815311649503359, 48.099888450195863 ], [ 9.845894587637007, 48.06271425691989 ], [ 9.83637955309587, 48.047484477211896 ], [ 9.81164046400756, 48.039867888212939 ], [ 9.784998367651696, 48.048753798761055 ], [ 9.764065292200181, 48.053830769643113 ], [ 9.72029613492791, 48.051292347445369 ], [ 9.710781100386768, 48.036059168233663 ], [ 9.687945017667699, 48.02082145750294 ], [ 9.672720963120529, 48.02336139100224 ], [ 9.653690894936565, 48.043676324336722 ], [ 9.667011942216183, 48.050023088838842 ], [ 9.691751032202806, 48.046215124793491 ], [ 9.678429984024875, 48.070327447701246 ], [ 9.686042011298461, 48.086818807576599 ], [ 9.769774313104525, 48.077939505013198 ], [ 9.798319415829628, 48.09062375061842 ], [ 9.815311649503359, 48.099888450195863 ] ] ] ] } }
]
}
