{
"type": "FeatureCollection",
"name": "Bicoque",
"crs": { "type": "name", "properties": { "name": "urn:ogc:def:crs:OGC:1.3:CRS84" } },
"features": [
{ "type": "Feature", "properties": { "id": 1, "Name": "Fort Barraux" }, "geometry": { "type": "Point", "coordinates": [ 5.978321327151442, 45.434859558488959 ] } },
{ "type": "Feature", "properties": { "id": 2, "Name": "Chateau Queyras" }, "geometry": { "type": "Point", "coordinates": [ 6.792600784810978, 44.757279165729457 ] } },
{ "type": "Feature", "properties": { "id": 4, "Name": "Saint Vincent les Forts" }, "geometry": { "type": "Point", "coordinates": [ 6.370614629919893, 44.444273733082568 ] } },
{ "type": "Feature", "properties": { "id": 5, "Name": "Seyne" }, "geometry": { "type": "Point", "coordinates": [ 6.357001198467926, 44.348022161533571 ] } },
{ "type": "Feature", "properties": { "id": 6, "Name": "Colmars" }, "geometry": { "type": "Point", "coordinates": [ 6.626547511724328, 44.180570279935445 ] } },
{ "type": "Feature", "properties": { "id": 9, "Name": "Fort Sainte-Marguerite" }, "geometry": { "type": "Point", "coordinates": [ 7.082019653014883, 43.874111935457051 ] } },
{ "type": "Feature", "properties": { "id": 10, "Name": null }, "geometry": { "type": "Point", "coordinates": [ 3.677149799333077, 43.405593083851272 ] } },
{ "type": "Feature", "properties": { "id": 11, "Name": "Mirepeysset" }, "geometry": { "type": "Point", "coordinates": [ 2.898456367650196, 43.284429327744235 ] } },
{ "type": "Feature", "properties": { "id": 3, "Name": "Salses" }, "geometry": { "type": "Point", "coordinates": [ 2.922149011829214, 42.834347419935639 ] } },
{ "type": "Feature", "properties": { "id": 12, "Name": "Port-Vendres" }, "geometry": { "type": "Point", "coordinates": [ 3.103414833543028, 42.517859595964801 ] } },
{ "type": "Feature", "properties": { "id": 7, "Name": "Villefranche-de-Conflent" }, "geometry": { "type": "Point", "coordinates": [ 2.368347344483951, 42.586482656944227 ] } },
{ "type": "Feature", "properties": { "id": 15, "Name": "Navarrenx" }, "geometry": { "type": "Point", "coordinates": [ -0.75976355095293, 43.324382927023862 ] } },
{ "type": "Feature", "properties": { "id": 18, "Name": null }, "geometry": { "type": "Point", "coordinates": [ -0.570706113033867, 44.840507635715852 ] } },
{ "type": "Feature", "properties": { "id": 8, "Name": "Redoubt of Sablanceaux" }, "geometry": { "type": "Point", "coordinates": [ -1.266595504503674, 46.158620828526729 ] } },
{ "type": "Feature", "properties": { "id": 16, "Name": "Fort de la Pree" }, "geometry": { "type": "Point", "coordinates": [ -1.328326295983769, 46.186959931877169 ] } },
{ "type": "Feature", "properties": { "id": 30, "Name": "La Rade" }, "geometry": { "type": "Point", "coordinates": [ -1.176575097247198, 46.009586696733045 ] } },
{ "type": "Feature", "properties": { "id": 32, "Name": "Fort Cezon" }, "geometry": { "type": "Point", "coordinates": [ -4.5093729007798, 48.632681917837004 ] } },
{ "type": "Feature", "properties": { "id": 33, "Name": "Fort de la Latte" }, "geometry": { "type": "Point", "coordinates": [ -2.318085648126758, 48.685291551711408 ] } },
{ "type": "Feature", "properties": { "id": 35, "Name": null }, "geometry": { "type": "Point", "coordinates": [ -1.652498241872086, 49.651383883800406 ] } },
{ "type": "Feature", "properties": { "id": 40, "Name": "Montreuil-sur-Mer" }, "geometry": { "type": "Point", "coordinates": [ 1.765164504303672, 50.465194652818333 ] } },
{ "type": "Feature", "properties": { "id": 45, "Name": "Ambleteuse" }, "geometry": { "type": "Point", "coordinates": [ 1.61536694501948, 50.811693386405736 ] } },
{ "type": "Feature", "properties": { "id": 48, "Name": "Montmedy" }, "geometry": { "type": "Point", "coordinates": [ 5.367271547452607, 49.521241945411113 ] } },
{ "type": "Feature", "properties": { "id": 47, "Name": "Fort Crevecoeur" }, "geometry": { "type": "Point", "coordinates": [ 5.263821648147641, 51.734769594655425 ] } },
{ "type": "Feature", "properties": { "id": 49, "Name": "Kuinre" }, "geometry": { "type": "Point", "coordinates": [ 5.841693957724296, 52.784708763446105 ] } },
{ "type": "Feature", "properties": { "id": 13, "Name": "Zwartsluis" }, "geometry": { "type": "Point", "coordinates": [ 6.070644561434373, 52.642728027799109 ] } },
{ "type": "Feature", "properties": { "id": 161, "Name": "Muiden" }, "geometry": { "type": "Point", "coordinates": [ 5.070173289985866, 52.327272687072842 ] } },
{ "type": "Feature", "properties": { "id": 163, "Name": "Weesp" }, "geometry": { "type": "Point", "coordinates": [ 5.156849175802454, 52.268492239689245 ] } },
{ "type": "Feature", "properties": { "id": 100, "Name": "Nieuwegen" }, "geometry": { "type": "Point", "coordinates": [ 5.081950528041525, 52.030553488962092 ] } },
{ "type": "Feature", "properties": { "id": 50, "Name": "Diksmuide" }, "geometry": { "type": "Point", "coordinates": [ 2.865019559804955, 51.030803972864653 ] } },
{ "type": "Feature", "properties": { "id": 56, "Name": "Leffinge" }, "geometry": { "type": "Point", "coordinates": [ 2.878613090964025, 51.172731504572518 ] } },
{ "type": "Feature", "properties": { "id": 58, "Name": null }, "geometry": { "type": "Point", "coordinates": [ 3.229287787957055, 51.223188173963131 ] } },
{ "type": "Feature", "properties": { "id": 51, "Name": "Bruges" }, "geometry": { "type": "Point", "coordinates": [ 3.226431435035902, 51.2087150531638 ] } },
{ "type": "Feature", "properties": { "id": 59, "Name": "Hust" }, "geometry": { "type": "Point", "coordinates": [ 4.057224486596323, 51.280187114621441 ] } },
{ "type": "Feature", "properties": { "id": 90, "Name": null }, "geometry": { "type": "Point", "coordinates": [ 3.717, 51.05 ] } },
{ "type": "Feature", "properties": { "id": 93, "Name": "Deinze" }, "geometry": { "type": "Point", "coordinates": [ 3.528181765393279, 50.980560364291136 ] } },
{ "type": "Feature", "properties": { "id": 95, "Name": "Courtrai" }, "geometry": { "type": "Point", "coordinates": [ 3.264319990287439, 50.830172600753933 ] } },
{ "type": "Feature", "properties": { "id": 97, "Name": null }, "geometry": { "type": "Point", "coordinates": [ 3.609375938116022, 50.843843943783789 ] } },
{ "type": "Feature", "properties": { "id": 166, "Name": null }, "geometry": { "type": "Point", "coordinates": [ 4.333372851156062, 50.832768306442603 ] } },
{ "type": "Feature", "properties": { "id": 165, "Name": null }, "geometry": { "type": "Point", "coordinates": [ 4.101689784426293, 51.030554968249334 ] } },
{ "type": "Feature", "properties": { "id": 101, "Name": null }, "geometry": { "type": "Point", "coordinates": [ 4.698829870367197, 50.883402775706607 ] } },
{ "type": "Feature", "properties": { "id": 102, "Name": null }, "geometry": { "type": "Point", "coordinates": [ 5.051531857556485, 50.984641326930472 ] } },
{ "type": "Feature", "properties": { "id": 105, "Name": "Zoutleeuw" }, "geometry": { "type": "Point", "coordinates": [ 5.10237743223636, 50.831883064986336 ] } },
{ "type": "Feature", "properties": { "id": 106, "Name": null }, "geometry": { "type": "Point", "coordinates": [ 5.567667368258101, 50.632360674062987 ] } },
{ "type": "Feature", "properties": { "id": 107, "Name": null }, "geometry": { "type": "Point", "coordinates": [ 5.248387209538333, 50.519203070480998 ] } },
{ "type": "Feature", "properties": { "id": 108, "Name": null }, "geometry": { "type": "Point", "coordinates": [ 5.938879124609746, 50.612210707533976 ] } },
{ "type": "Feature", "properties": { "id": 21, "Name": "Julich" }, "geometry": { "type": "Point", "coordinates": [ 6.361176855543598, 50.92421354392328 ] } },
{ "type": "Feature", "properties": { "id": 109, "Name": null }, "geometry": { "type": "Point", "coordinates": [ 5.780702363811352, 51.038269200346818 ] } },
{ "type": "Feature", "properties": { "id": 110, "Name": null }, "geometry": { "type": "Point", "coordinates": [ 5.995599792401886, 51.186246778728709 ] } },
{ "type": "Feature", "properties": { "id": 112, "Name": null }, "geometry": { "type": "Point", "coordinates": [ 6.159845264587008, 51.370343524596805 ] } },
{ "type": "Feature", "properties": { "id": 113, "Name": null }, "geometry": { "type": "Point", "coordinates": [ 6.30726965499844, 51.518720059846551 ] } },
{ "type": "Feature", "properties": { "id": 111, "Name": null }, "geometry": { "type": "Point", "coordinates": [ 6.587920205140597, 51.54480806600219 ] } },
{ "type": "Feature", "properties": { "id": 115, "Name": null }, "geometry": { "type": "Point", "coordinates": [ 4.457580249113525, 51.263506385614278 ] } },
{ "type": "Feature", "properties": { "id": 119, "Name": "Oorderen" }, "geometry": { "type": "Point", "coordinates": [ 4.364710040346021, 51.287203602612969 ] } },
{ "type": "Feature", "properties": { "id": 118, "Name": "Fort Liefkenshoek" }, "geometry": { "type": "Point", "coordinates": [ 4.285468582684934, 51.29435370268633 ] } },
{ "type": "Feature", "properties": { "id": 116, "Name": "Fort Lillo" }, "geometry": { "type": "Point", "coordinates": [ 4.290133945766164, 51.304597561503883 ] } },
{ "type": "Feature", "properties": { "id": 126, "Name": "Frederik-Hendrik Berendrecht" }, "geometry": { "type": "Point", "coordinates": [ 4.31893193637665, 51.345050123180776 ] } },
{ "type": "Feature", "properties": { "id": 130, "Name": "Marchiennes" }, "geometry": { "type": "Point", "coordinates": [ 3.280511274439308, 50.40436930407099 ] } },
{ "type": "Feature", "properties": { "id": 131, "Name": "Le Cateau" }, "geometry": { "type": "Point", "coordinates": [ 3.539520731624515, 50.107560740552572 ] } },
{ "type": "Feature", "properties": { "id": 117, "Name": null }, "geometry": { "type": "Point", "coordinates": [ 6.633, 49.75 ] } },
{ "type": "Feature", "properties": { "id": 159, "Name": null }, "geometry": { "type": "Point", "coordinates": [ 7.125655027867563, 49.956959867845868 ] } },
{ "type": "Feature", "properties": { "id": 158, "Name": null }, "geometry": { "type": "Point", "coordinates": [ 7.100655114613116, 50.730873389234674 ] } },
{ "type": "Feature", "properties": { "id": 157, "Name": null }, "geometry": { "type": "Point", "coordinates": [ 9.472022840600037, 53.599796062729865 ] } },
{ "type": "Feature", "properties": { "id": 176, "Name": null }, "geometry": { "type": "Point", "coordinates": [ 18.600669603722732, 53.031820253128949 ] } },
{ "type": "Feature", "properties": { "id": 120, "Name": "Daugavgriva Fortress" }, "geometry": { "type": "Point", "coordinates": [ 24.035475333058383, 57.028499252062666 ] } },
{ "type": "Feature", "properties": { "id": 121, "Name": null }, "geometry": { "type": "Point", "coordinates": [ 26.72418085073469, 58.372880146165656 ] } },
{ "type": "Feature", "properties": { "id": 122, "Name": null }, "geometry": { "type": "Point", "coordinates": [ 24.755276591318005, 59.43252263253644 ] } },
{ "type": "Feature", "properties": { "id": 190, "Name": null }, "geometry": { "type": "Point", "coordinates": [ 30.352695519098638, 59.952597121671594 ] } },
{ "type": "Feature", "properties": { "id": 123, "Name": "Fort of St. Nikola" }, "geometry": { "type": "Point", "coordinates": [ 15.909100827221085, 43.690020541615219 ] } },
{ "type": "Feature", "properties": { "id": 124, "Name": null }, "geometry": { "type": "Point", "coordinates": [ 10.997428426570938, 45.443456542987619 ] } },
{ "type": "Feature", "properties": { "id": 133, "Name": "Verrua Savoia" }, "geometry": { "type": "Point", "coordinates": [ 8.098352303828744, 45.175502936863332 ] } },
{ "type": "Feature", "properties": { "id": 128, "Name": null }, "geometry": { "type": "Point", "coordinates": [ 8.631622917910754, 45.462843490510608 ] } },
{ "type": "Feature", "properties": { "id": 127, "Name": null }, "geometry": { "type": "Point", "coordinates": [ 9.153743586595018, 45.18477460798978 ] } },
{ "type": "Feature", "properties": { "id": 125, "Name": null }, "geometry": { "type": "Point", "coordinates": [ 9.500168998889816, 45.316803087346969 ] } },
{ "type": "Feature", "properties": { "id": 197, "Name": null }, "geometry": { "type": "Point", "coordinates": [ 10.250121879071694, 45.549842135020512 ] } },
{ "type": "Feature", "properties": { "id": 138, "Name": null }, "geometry": { "type": "Point", "coordinates": [ 9.683120548555896, 45.367015341363377 ] } },
{ "type": "Feature", "properties": { "id": 187, "Name": null }, "geometry": { "type": "Point", "coordinates": [ 9.695154677098877, 45.052157489432375 ] } },
{ "type": "Feature", "properties": { "id": 192, "Name": null }, "geometry": { "type": "Point", "coordinates": [ 10.333197164989345, 44.799870002642407 ] } },
{ "type": "Feature", "properties": { "id": 191, "Name": "Priamar Fortress" }, "geometry": { "type": "Point", "coordinates": [ 8.458569353970397, 44.310101797135708 ] } },
{ "type": "Feature", "properties": { "id": 198, "Name": "Finale Ligure" }, "geometry": { "type": "Point", "coordinates": [ 8.336235728030756, 44.169591158840348 ] } },
{ "type": "Feature", "properties": { "id": 199, "Name": null }, "geometry": { "type": "Point", "coordinates": [ 11.249898012142026, 43.766579492870974 ] } },
{ "type": "Feature", "properties": { "id": 193, "Name": null }, "geometry": { "type": "Point", "coordinates": [ 12.245612108526457, 45.666774423005151 ] } },
{ "type": "Feature", "properties": { "id": 188, "Name": null }, "geometry": { "type": "Point", "coordinates": [ 13.242685635837812, 46.061910149641228 ] } },
{ "type": "Feature", "properties": { "id": 200, "Name": null }, "geometry": { "type": "Point", "coordinates": [ 11.583878969799466, 44.832633574711323 ] } },
{ "type": "Feature", "properties": { "id": 201, "Name": null }, "geometry": { "type": "Point", "coordinates": [ 10.317437567288474, 43.549420274986282 ] } },
{ "type": "Feature", "properties": { "id": 203, "Name": "Grosseto" }, "geometry": { "type": "Point", "coordinates": [ 11.114963498842865, 42.76417462804384 ] } },
{ "type": "Feature", "properties": { "id": 202, "Name": "Port Ercole" }, "geometry": { "type": "Point", "coordinates": [ 11.17384774595244, 42.406992233385168 ] } },
{ "type": "Feature", "properties": { "id": 204, "Name": "Porto Santo Stefano" }, "geometry": { "type": "Point", "coordinates": [ 11.080029680915867, 42.446657231253774 ] } },
{ "type": "Feature", "properties": { "id": 206, "Name": "Orbetello" }, "geometry": { "type": "Point", "coordinates": [ 11.175335493546745, 42.448266500519544 ] } },
{ "type": "Feature", "properties": { "id": 205, "Name": "Piombino" }, "geometry": { "type": "Point", "coordinates": [ 10.543642980625689, 42.949312890073578 ] } },
{ "type": "Feature", "properties": { "id": 164, "Name": null }, "geometry": { "type": "Point", "coordinates": [ 11.883334459108534, 43.417116292055923 ] } },
{ "type": "Feature", "properties": { "id": 129, "Name": null }, "geometry": { "type": "Point", "coordinates": [ 12.484408487075791, 41.899941381720687 ] } },
{ "type": "Feature", "properties": { "id": 162, "Name": "Civitavecchia" }, "geometry": { "type": "Point", "coordinates": [ 11.792793461596801, 42.094133334986253 ] } },
{ "type": "Feature", "properties": { "id": 210, "Name": null }, "geometry": { "type": "Point", "coordinates": [ 11.337620367623513, 44.477150119507563 ] } },
{ "type": "Feature", "properties": { "id": 211, "Name": null }, "geometry": { "type": "Point", "coordinates": [ 13.52443307981388, 43.626125265622242 ] } },
{ "type": "Feature", "properties": { "id": 214, "Name": null }, "geometry": { "type": "Point", "coordinates": [ 12.367415903938227, 43.13301192176263 ] } },
{ "type": "Feature", "properties": { "id": 209, "Name": "Fano" }, "geometry": { "type": "Point", "coordinates": [ 13.016164582944503, 43.840717634628817 ] } },
{ "type": "Feature", "properties": { "id": 167, "Name": "Alghero" }, "geometry": { "type": "Point", "coordinates": [ 8.311306285713751, 40.590933681636137 ] } },
{ "type": "Feature", "properties": { "id": 212, "Name": null }, "geometry": { "type": "Point", "coordinates": [ 8.560251963208618, 40.727540937314686 ] } },
{ "type": "Feature", "properties": { "id": 208, "Name": null }, "geometry": { "type": "Point", "coordinates": [ 14.26088188913106, 40.885387031021708 ] } },
{ "type": "Feature", "properties": { "id": 99, "Name": "Capua" }, "geometry": { "type": "Point", "coordinates": [ 14.227444957675853, 41.100806153779281 ] } },
{ "type": "Feature", "properties": { "id": 132, "Name": null }, "geometry": { "type": "Point", "coordinates": [ 13.551411763540935, 41.231798853262021 ] } },
{ "type": "Feature", "properties": { "id": 135, "Name": "Pescara" }, "geometry": { "type": "Point", "coordinates": [ 14.206239113818469, 42.461766814974858 ] } },
{ "type": "Feature", "properties": { "id": 78, "Name": "Brindisi" }, "geometry": { "type": "Point", "coordinates": [ 17.938726316998071, 40.639854694158586 ] } },
{ "type": "Feature", "properties": { "id": 77, "Name": null }, "geometry": { "type": "Point", "coordinates": [ 18.47843669349616, 40.146178933135161 ] } },
{ "type": "Feature", "properties": { "id": 79, "Name": "Reggio Calabria" }, "geometry": { "type": "Point", "coordinates": [ 15.686243500932179, 38.093348887947826 ] } },
{ "type": "Feature", "properties": { "id": 88, "Name": "Siracusa" }, "geometry": { "type": "Point", "coordinates": [ 15.303425994915068, 37.066686889209009 ] } },
{ "type": "Feature", "properties": { "id": 31, "Name": "105" }, "geometry": { "type": "Point", "coordinates": [ 12.536434902104114, 38.013900860651319 ] } },
{ "type": "Feature", "properties": { "id": 34, "Name": null }, "geometry": { "type": "Point", "coordinates": [ 15.28381526277354, 38.179830897974661 ] } },
{ "type": "Feature", "properties": { "id": 36, "Name": null }, "geometry": { "type": "Point", "coordinates": [ 15.273443818164125, 37.234983413166646 ] } },
{ "type": "Feature", "properties": { "id": 37, "Name": "Stein Castle" }, "geometry": { "type": "Point", "coordinates": [ 8.30253333746905, 47.473073814885232 ] } },
{ "type": "Feature", "properties": { "id": 103, "Name": "Aarburg" }, "geometry": { "type": "Point", "coordinates": [ 7.901707934369594, 47.32172425047694 ] } },
{ "type": "Feature", "properties": { "id": 38, "Name": "Solothurn" }, "geometry": { "type": "Point", "coordinates": [ 7.540951082816599, 47.20523295640043 ] } },
{ "type": "Feature", "properties": { "id": 39, "Name": null }, "geometry": { "type": "Point", "coordinates": [ 7.590234813460791, 47.557083032911329 ] } },
{ "type": "Feature", "properties": { "id": 41, "Name": "St. Luzisteig Fortress" }, "geometry": { "type": "Point", "coordinates": [ 9.528368240537532, 47.029037376232615 ] } },
{ "type": "Feature", "properties": { "id": 42, "Name": "Nyborg" }, "geometry": { "type": "Point", "coordinates": [ 10.78600970075413, 55.308744486035614 ] } },
{ "type": "Feature", "properties": { "id": 43, "Name": "Vardo" }, "geometry": { "type": "Point", "coordinates": [ 31.103953639662109, 70.369942253759007 ] } },
{ "type": "Feature", "properties": { "id": 44, "Name": null }, "geometry": { "type": "Point", "coordinates": [ 8.683698586912008, 50.11679961531987 ] } },
{ "type": "Feature", "properties": { "id": 215, "Name": null }, "geometry": { "type": "Point", "coordinates": [ 10.002513254381418, 53.550258326465027 ] } },
{ "type": "Feature", "properties": { "id": 216, "Name": null }, "geometry": { "type": "Point", "coordinates": [ 10.700344481028727, 53.867117766738538 ] } },
{ "type": "Feature", "properties": { "id": 217, "Name": null }, "geometry": { "type": "Point", "coordinates": [ 12.133629445264813, 54.082161508289815 ] } },
{ "type": "Feature", "properties": { "id": 218, "Name": "Vechta" }, "geometry": { "type": "Point", "coordinates": [ 8.283010447170813, 52.726637161998248 ] } },
{ "type": "Feature", "properties": { "id": 219, "Name": null }, "geometry": { "type": "Point", "coordinates": [ 8.801530703566762, 53.082624766408493 ] } },
{ "type": "Feature", "properties": { "id": 220, "Name": null }, "geometry": { "type": "Point", "coordinates": [ 7.633179059661827, 51.966897168365122 ] } },
{ "type": "Feature", "properties": { "id": 221, "Name": null }, "geometry": { "type": "Point", "coordinates": [ 6.950246328458793, 50.933190408364936 ] } },
{ "type": "Feature", "properties": { "id": 222, "Name": "Demmin" }, "geometry": { "type": "Point", "coordinates": [ 13.041721248306086, 53.903776095972212 ] } },
{ "type": "Feature", "properties": { "id": 223, "Name": "Dömitz" }, "geometry": { "type": "Point", "coordinates": [ 11.245831367699196, 53.142357621112048 ] } },
{ "type": "Feature", "properties": { "id": 224, "Name": "Hamein" }, "geometry": { "type": "Point", "coordinates": [ 9.356424409297404, 52.102643552067867 ] } },
{ "type": "Feature", "properties": { "id": 225, "Name": "Glückstadt" }, "geometry": { "type": "Point", "coordinates": [ 9.443120475962118, 53.789678644907767 ] } },
{ "type": "Feature", "properties": { "id": 226, "Name": null }, "geometry": { "type": "Point", "coordinates": [ 9.051877099129189, 54.48166612468858 ] } },
{ "type": "Feature", "properties": { "id": 227, "Name": "Wittenberg" }, "geometry": { "type": "Point", "coordinates": [ 12.649593438893595, 51.861053248249853 ] } },
{ "type": "Feature", "properties": { "id": 228, "Name": "Torgau" }, "geometry": { "type": "Point", "coordinates": [ 13.008293689214936, 51.558914187372174 ] } },
{ "type": "Feature", "properties": { "id": 229, "Name": null }, "geometry": { "type": "Point", "coordinates": [ 11.66753617065643, 52.166651186625458 ] } },
{ "type": "Feature", "properties": { "id": 230, "Name": "Minden" }, "geometry": { "type": "Point", "coordinates": [ 8.91646520938496, 52.290903426711111 ] } },
{ "type": "Feature", "properties": { "id": 231, "Name": "Lippstadt" }, "geometry": { "type": "Point", "coordinates": [ 8.347164115657154, 51.673412897921537 ] } },
{ "type": "Feature", "properties": { "id": 232, "Name": "Lingen (Ems)" }, "geometry": { "type": "Point", "coordinates": [ 7.32308093529468, 52.518360060499099 ] } },
{ "type": "Feature", "properties": { "id": 233, "Name": null }, "geometry": { "type": "Point", "coordinates": [ 12.374498653311633, 51.339622570490882 ] } },
{ "type": "Feature", "properties": { "id": 234, "Name": null }, "geometry": { "type": "Point", "coordinates": [ 14.43307890841044, 51.182996202038822 ] } },
{ "type": "Feature", "properties": { "id": 235, "Name": "Coburg" }, "geometry": { "type": "Point", "coordinates": [ 10.964986335338571, 50.256460224837554 ] } },
{ "type": "Feature", "properties": { "id": 251, "Name": "Weimar" }, "geometry": { "type": "Point", "coordinates": [ 11.331851619475938, 50.981857405711899 ] } },
{ "type": "Feature", "properties": { "id": 236, "Name": null }, "geometry": { "type": "Point", "coordinates": [ 12.000222029182643, 51.499876541077327 ] } },
{ "type": "Feature", "properties": { "id": 237, "Name": "Rheinfels Castle" }, "geometry": { "type": "Point", "coordinates": [ 7.71235093662586, 50.150139046275171 ] } },
{ "type": "Feature", "properties": { "id": 238, "Name": "Darmstadt" }, "geometry": { "type": "Point", "coordinates": [ 8.650856887315559, 49.875099378122037 ] } },
{ "type": "Feature", "properties": { "id": 239, "Name": "Rothenberg Fortress" }, "geometry": { "type": "Point", "coordinates": [ 11.354598296907731, 49.567300074565296 ] } },
{ "type": "Feature", "properties": { "id": 240, "Name": null }, "geometry": { "type": "Point", "coordinates": [ 10.583221985014964, 49.299985727990553 ] } },
{ "type": "Feature", "properties": { "id": 241, "Name": null }, "geometry": { "type": "Point", "coordinates": [ 11.583137124569488, 49.949959505192467 ] } },
{ "type": "Feature", "properties": { "id": 242, "Name": null }, "geometry": { "type": "Point", "coordinates": [ 8.524902724865015, 50.608663240197984 ] } },
{ "type": "Feature", "properties": { "id": 243, "Name": "Fortress of Donauwörth" }, "geometry": { "type": "Point", "coordinates": [ 10.785439024384592, 48.716827167453665 ] } },
{ "type": "Feature", "properties": { "id": 244, "Name": null }, "geometry": { "type": "Point", "coordinates": [ 10.883276514938338, 48.366796209858684 ] } },
{ "type": "Feature", "properties": { "id": 245, "Name": null }, "geometry": { "type": "Point", "coordinates": [ 11.583527838141153, 48.149865112215458 ] } },
{ "type": "Feature", "properties": { "id": 246, "Name": "Rayn" }, "geometry": { "type": "Point", "coordinates": [ 10.913485633908634, 48.68945932768699 ] } },
{ "type": "Feature", "properties": { "id": 247, "Name": "Kurfstein" }, "geometry": { "type": "Point", "coordinates": [ 12.169147391533022, 47.581248745391015 ] } },
{ "type": "Feature", "properties": { "id": 248, "Name": "Rosenberg Fortress" }, "geometry": { "type": "Point", "coordinates": [ 11.327663157885709, 50.24586430095313 ] } },
{ "type": "Feature", "properties": { "id": 249, "Name": null }, "geometry": { "type": "Point", "coordinates": [ 7.850395077359491, 47.999966642212293 ] } },
{ "type": "Feature", "properties": { "id": 250, "Name": "Konstanz" }, "geometry": { "type": "Point", "coordinates": [ 9.184655775094976, 47.635235135550765 ] } },
{ "type": "Feature", "properties": { "id": 252, "Name": "Rottweil" }, "geometry": { "type": "Point", "coordinates": [ 8.627393064838412, 48.165836589131651 ] } },
{ "type": "Feature", "properties": { "id": 253, "Name": "Rheinfelden" }, "geometry": { "type": "Point", "coordinates": [ 7.790056416441101, 47.560099269969278 ] } },
{ "type": "Feature", "properties": { "id": 254, "Name": null }, "geometry": { "type": "Point", "coordinates": [ 11.400116523923625, 47.266926779347386 ] } },
{ "type": "Feature", "properties": { "id": 255, "Name": null }, "geometry": { "type": "Point", "coordinates": [ 13.033417205161978, 47.799844513542276 ] } },
{ "type": "Feature", "properties": { "id": 257, "Name": null }, "geometry": { "type": "Point", "coordinates": [ 9.992891761741493, 48.393888425976904 ] } },
{ "type": "Feature", "properties": { "id": 256, "Name": null }, "geometry": { "type": "Point", "coordinates": [ 9.183177215765951, 48.766899440685755 ] } },
{ "type": "Feature", "properties": { "id": 258, "Name": "Memmingen" }, "geometry": { "type": "Point", "coordinates": [ 10.182037595577041, 47.984763876258441 ] } },
{ "type": "Feature", "properties": { "id": 259, "Name": "Eichstätt" }, "geometry": { "type": "Point", "coordinates": [ 11.186756432108727, 48.894621982238654 ] } },
{ "type": "Feature", "properties": { "id": 260, "Name": "Fort Rhine" }, "geometry": { "type": "Point", "coordinates": [ 7.796259765346416, 48.565073005668843 ] } },
{ "type": "Feature", "properties": { "id": 261, "Name": "Germersheim" }, "geometry": { "type": "Point", "coordinates": [ 8.371436042457567, 49.219328732244676 ] } },
{ "type": "Feature", "properties": { "id": 262, "Name": "Mosty u Jablunkova" }, "geometry": { "type": "Point", "coordinates": [ 18.754955700572985, 49.525730862201748 ] } },
{ "type": "Feature", "properties": { "id": 263, "Name": null }, "geometry": { "type": "Point", "coordinates": [ 16.634344073929554, 49.200096958702453 ] } },
{ "type": "Feature", "properties": { "id": 264, "Name": null }, "geometry": { "type": "Point", "coordinates": [ 13.366980179337851, 49.74994121848308 ] } },
{ "type": "Feature", "properties": { "id": 265, "Name": "Komarom" }, "geometry": { "type": "Point", "coordinates": [ 18.120431528090421, 47.745302292131264 ] } },
{ "type": "Feature", "properties": { "id": 266, "Name": "Glatz" }, "geometry": { "type": "Point", "coordinates": [ 16.655271876567639, 50.440467670098919 ] } },
{ "type": "Feature", "properties": { "id": 267, "Name": null }, "geometry": { "type": "Point", "coordinates": [ 16.125734095798546, 51.215872658373421 ] } },
{ "type": "Feature", "properties": { "id": 268, "Name": "Bielitz" }, "geometry": { "type": "Point", "coordinates": [ 19.036061205205193, 49.833599985642721 ] } },
{ "type": "Feature", "properties": { "id": 269, "Name": "Krems an der Donau" }, "geometry": { "type": "Point", "coordinates": [ 15.599956609554615, 48.409460801138252 ] } },
{ "type": "Feature", "properties": { "id": 270, "Name": "Tulln an der Donau" }, "geometry": { "type": "Point", "coordinates": [ 16.058864393043066, 48.329827858049967 ] } },
{ "type": "Feature", "properties": { "id": 271, "Name": "Radkersburg" }, "geometry": { "type": "Point", "coordinates": [ 15.988024449888924, 46.687109471840216 ] } },
{ "type": "Feature", "properties": { "id": 272, "Name": "Pettau/Ptuj" }, "geometry": { "type": "Point", "coordinates": [ 15.871934421150105, 46.41868729561682 ] } },
{ "type": "Feature", "properties": { "id": 273, "Name": "Marburg/Maribor" }, "geometry": { "type": "Point", "coordinates": [ 15.648416455439451, 46.553589367124317 ] } },
{ "type": "Feature", "properties": { "id": 274, "Name": null }, "geometry": { "type": "Point", "coordinates": [ 13.780148650646861, 45.649120661973939 ] } },
{ "type": "Feature", "properties": { "id": 275, "Name": "Carlstadt/Karlovac" }, "geometry": { "type": "Point", "coordinates": [ 15.547205548110144, 45.486264897374724 ] } },
{ "type": "Feature", "properties": { "id": 276, "Name": "Osijek" }, "geometry": { "type": "Point", "coordinates": [ 18.705381141370726, 45.565307704625255 ] } },
{ "type": "Feature", "properties": { "id": 277, "Name": "Čakovec" }, "geometry": { "type": "Point", "coordinates": [ 16.437796701703544, 46.386276906551629 ] } },
{ "type": "Feature", "properties": { "id": 278, "Name": "Knin" }, "geometry": { "type": "Point", "coordinates": [ 16.190449919384925, 44.037790359865305 ] } },
{ "type": "Feature", "properties": { "id": 279, "Name": "Pula" }, "geometry": { "type": "Point", "coordinates": [ 13.88929939134519, 44.863869359392716 ] } },
{ "type": "Feature", "properties": { "id": 280, "Name": "Senj" }, "geometry": { "type": "Point", "coordinates": [ 14.960746407164836, 44.984314709179678 ] } },
{ "type": "Feature", "properties": { "id": 281, "Name": "Šibenik" }, "geometry": { "type": "Point", "coordinates": [ 15.929407809514275, 43.715732133526544 ] } },
{ "type": "Feature", "properties": { "id": 282, "Name": "Nové Zámky" }, "geometry": { "type": "Point", "coordinates": [ 18.16383043274055, 47.988389944306142 ] } },
{ "type": "Feature", "properties": { "id": 283, "Name": "Leopoldov" }, "geometry": { "type": "Point", "coordinates": [ 17.759042831557529, 48.440495595940597 ] } },
{ "type": "Feature", "properties": { "id": 284, "Name": "Holíč" }, "geometry": { "type": "Point", "coordinates": [ 17.163172417765502, 48.809494585509377 ] } },
{ "type": "Feature", "properties": { "id": 285, "Name": "Ada Kaleh" }, "geometry": { "type": "Point", "coordinates": [ 22.360595703125, 44.69232819218162 ] } },
{ "type": "Feature", "properties": { "id": 286, "Name": "Alba Iulia" }, "geometry": { "type": "Point", "coordinates": [ 23.569521794591537, 46.061420794016087 ] } },
{ "type": "Feature", "properties": { "id": 288, "Name": "Oradea" }, "geometry": { "type": "Point", "coordinates": [ 21.908499644901116, 47.066186172971896 ] } },
{ "type": "Feature", "properties": { "id": 287, "Name": "Miercurea Ciuc" }, "geometry": { "type": "Point", "coordinates": [ 25.785014058933498, 46.355088087948232 ] } },
{ "type": "Feature", "properties": { "id": 289, "Name": null }, "geometry": { "type": "Point", "coordinates": [ 19.033, 47.5 ] } },
{ "type": "Feature", "properties": { "id": 290, "Name": "Trenčín" }, "geometry": { "type": "Point", "coordinates": [ 18.039496794527725, 48.890288026937142 ] } },
{ "type": "Feature", "properties": { "id": 291, "Name": null }, "geometry": { "type": "Point", "coordinates": [ 17.633, 47.683 ] } },
{ "type": "Feature", "properties": { "id": 292, "Name": "Esztergom" }, "geometry": { "type": "Point", "coordinates": [ 18.740279626636994, 47.787311653631001 ] } },
{ "type": "Feature", "properties": { "id": 293, "Name": "Košice" }, "geometry": { "type": "Point", "coordinates": [ 21.261361649483987, 48.709473294642244 ] } },
{ "type": "Feature", "properties": { "id": 294, "Name": "Veszprém" }, "geometry": { "type": "Point", "coordinates": [ 17.904690441530398, 47.087155663131405 ] } },
{ "type": "Feature", "properties": { "id": 295, "Name": "Kanizsa/Nagykanizsa" }, "geometry": { "type": "Point", "coordinates": [ 16.989799745171673, 46.453803689263545 ] } },
{ "type": "Feature", "properties": { "id": 296, "Name": "Szigetvár" }, "geometry": { "type": "Point", "coordinates": [ 17.799064535106954, 46.044502729640499 ] } },
{ "type": "Feature", "properties": { "id": 297, "Name": "Pécs/Fünfkirchen" }, "geometry": { "type": "Point", "coordinates": [ 18.228921827666575, 46.070932204202585 ] } },
{ "type": "Feature", "properties": { "id": 298, "Name": "Gyula" }, "geometry": { "type": "Point", "coordinates": [ 21.275022757326074, 46.647173180853699 ] } },
{ "type": "Feature", "properties": { "id": 299, "Name": null }, "geometry": { "type": "Point", "coordinates": [ 22.883, 47.8 ] } },
{ "type": "Feature", "properties": { "id": 300, "Name": null }, "geometry": { "type": "Point", "coordinates": [ 24.15, 45.8 ] } },
{ "type": "Feature", "properties": { "id": 301, "Name": null }, "geometry": { "type": "Point", "coordinates": [ 20.5, 44.833 ] } },
{ "type": "Feature", "properties": { "id": 302, "Name": "Šabac" }, "geometry": { "type": "Point", "coordinates": [ 19.706501195616298, 44.759349928768664 ] } },
{ "type": "Feature", "properties": { "id": 303, "Name": "Bihać" }, "geometry": { "type": "Point", "coordinates": [ 15.868151209162649, 44.81472474728649 ] } },
{ "type": "Feature", "properties": { "id": 304, "Name": null }, "geometry": { "type": "Point", "coordinates": [ 21.9, 43.317 ] } },
{ "type": "Feature", "properties": { "id": 305, "Name": "Vidin" }, "geometry": { "type": "Point", "coordinates": [ 22.475863330533269, 44.507255446526322 ] } },
{ "type": "Feature", "properties": { "id": 306, "Name": null }, "geometry": { "type": "Point", "coordinates": [ 23.317, 42.683 ] } },
{ "type": "Feature", "properties": { "id": 307, "Name": null }, "geometry": { "type": "Point", "coordinates": [ 24.9, 43.7 ] } },
{ "type": "Feature", "properties": { "id": 308, "Name": null }, "geometry": { "type": "Point", "coordinates": [ 25.95, 43.833 ] } },
{ "type": "Feature", "properties": { "id": 309, "Name": null }, "geometry": { "type": "Point", "coordinates": [ 27.267, 44.117 ] } },
{ "type": "Feature", "properties": { "id": 310, "Name": null }, "geometry": { "type": "Point", "coordinates": [ 27.917, 43.217 ] } },
{ "type": "Feature", "properties": { "id": 311, "Name": null }, "geometry": { "type": "Point", "coordinates": [ 26.917, 43.267 ] } },
{ "type": "Feature", "properties": { "id": 312, "Name": "Giurgiu" }, "geometry": { "type": "Point", "coordinates": [ 25.941487131908783, 43.88837258081562 ] } },
{ "type": "Feature", "properties": { "id": 313, "Name": null }, "geometry": { "type": "Point", "coordinates": [ 27.983, 45.267 ] } },
{ "type": "Feature", "properties": { "id": 314, "Name": "Turnu" }, "geometry": { "type": "Point", "coordinates": [ 24.872786173252731, 43.75188441246506 ] } },
{ "type": "Feature", "properties": { "id": 315, "Name": null }, "geometry": { "type": "Point", "coordinates": [ 29.481438404090234, 46.886296909703994 ] } },
{ "type": "Feature", "properties": { "id": 316, "Name": "Palamidi" }, "geometry": { "type": "Point", "coordinates": [ 22.900825439024938, 37.545125778102609 ] } },
{ "type": "Feature", "properties": { "id": 317, "Name": "Preveza" }, "geometry": { "type": "Point", "coordinates": [ 20.800385634456831, 38.952539718934631 ] } },
{ "type": "Feature", "properties": { "id": 318, "Name": "Spinalonga (Kalydon)" }, "geometry": { "type": "Point", "coordinates": [ 25.799630302574407, 35.29922200900085 ] } },
{ "type": "Feature", "properties": { "id": 319, "Name": "Souda Bay" }, "geometry": { "type": "Point", "coordinates": [ 24.11298406816535, 35.495098286782905 ] } },
{ "type": "Feature", "properties": { "id": 320, "Name": "Imeri Gramvousa" }, "geometry": { "type": "Point", "coordinates": [ 23.581072129039146, 35.635897135313343 ] } },
{ "type": "Feature", "properties": { "id": 321, "Name": "Naxos" }, "geometry": { "type": "Point", "coordinates": [ 25.408616273102634, 37.087941893359378 ] } },
{ "type": "Feature", "properties": { "id": 322, "Name": null }, "geometry": { "type": "Point", "coordinates": [ 20.117, 40.083 ] } },
{ "type": "Feature", "properties": { "id": 323, "Name": "Vlorë" }, "geometry": { "type": "Point", "coordinates": [ 19.508768271837635, 40.470543980467049 ] } },
{ "type": "Feature", "properties": { "id": 324, "Name": "Arabat Fortress" }, "geometry": { "type": "Point", "coordinates": [ 35.486449433872075, 45.25701746843805 ] } },
{ "type": "Feature", "properties": { "id": 325, "Name": "Nizhyn" }, "geometry": { "type": "Point", "coordinates": [ 31.909825790564952, 51.03363466401786 ] } },
{ "type": "Feature", "properties": { "id": 326, "Name": null }, "geometry": { "type": "Point", "coordinates": [ 30.530634654780044, 50.413371497274881 ] } },
{ "type": "Feature", "properties": { "id": 327, "Name": "Uzhhorod" }, "geometry": { "type": "Point", "coordinates": [ 22.303485481749554, 48.618820011019125 ] } },
{ "type": "Feature", "properties": { "id": 328, "Name": "Zolochiv" }, "geometry": { "type": "Point", "coordinates": [ 24.896976681804436, 49.802945158753694 ] } },
{ "type": "Feature", "properties": { "id": 329, "Name": null }, "geometry": { "type": "Point", "coordinates": [ 19.917, 50.083 ] } },
{ "type": "Feature", "properties": { "id": 330, "Name": null }, "geometry": { "type": "Point", "coordinates": [ 21.0, 52.25 ] } },
{ "type": "Feature", "properties": { "id": 331, "Name": "Wisłoujście Fortress" }, "geometry": { "type": "Point", "coordinates": [ 18.708812776315941, 54.390417559937198 ] } },
{ "type": "Feature", "properties": { "id": 332, "Name": null }, "geometry": { "type": "Point", "coordinates": [ 18.667, 54.35 ] } },
{ "type": "Feature", "properties": { "id": 333, "Name": null }, "geometry": { "type": "Point", "coordinates": [ 24.78311445905366, 56.209812525520547 ] } },
{ "type": "Feature", "properties": { "id": 334, "Name": null }, "geometry": { "type": "Point", "coordinates": [ 23.907699422664582, 54.894402420338615 ] } },
{ "type": "Feature", "properties": { "id": 445, "Name": null }, "geometry": { "type": "Point", "coordinates": [ 18.111232583423391, 51.741182443315111 ] } },
{ "type": "Feature", "properties": { "id": 335, "Name": null }, "geometry": { "type": "Point", "coordinates": [ 27.53844383633421, 53.88633826380768 ] } },
{ "type": "Feature", "properties": { "id": 336, "Name": null }, "geometry": { "type": "Point", "coordinates": [ 23.658750523840745, 52.083282895769145 ] } },
{ "type": "Feature", "properties": { "id": 337, "Name": "Borgholm" }, "geometry": { "type": "Point", "coordinates": [ 16.702142406729969, 56.852111940203898 ] } },
{ "type": "Feature", "properties": { "id": 338, "Name": "Eda Skans" }, "geometry": { "type": "Point", "coordinates": [ 12.324530745341137, 59.820319599665581 ] } },
{ "type": "Feature", "properties": { "id": 339, "Name": "Kristianstad" }, "geometry": { "type": "Point", "coordinates": [ 14.154471433239296, 56.026058568884537 ] } },
{ "type": "Feature", "properties": { "id": 340, "Name": null }, "geometry": { "type": "Point", "coordinates": [ 13.009519242862904, 55.612875674212596 ] } },
{ "type": "Feature", "properties": { "id": 341, "Name": "Varberg" }, "geometry": { "type": "Point", "coordinates": [ 12.305053117961354, 57.120752437750845 ] } },
{ "type": "Feature", "properties": { "id": 341, "Name": "Vaxholm" }, "geometry": { "type": "Point", "coordinates": [ 18.340571177803813, 59.394993911386905 ] } },
{ "type": "Feature", "properties": { "id": 343, "Name": null }, "geometry": { "type": "Point", "coordinates": [ 11.967, 57.717 ] } },
{ "type": "Feature", "properties": { "id": 344, "Name": "Kalmar" }, "geometry": { "type": "Point", "coordinates": [ 16.35041258586341, 56.641081409357412 ] } },
{ "type": "Feature", "properties": { "id": 345, "Name": "Grimskär" }, "geometry": { "type": "Point", "coordinates": [ 16.356813878753314, 56.628094382911605 ] } },
{ "type": "Feature", "properties": { "id": 346, "Name": null }, "geometry": { "type": "Point", "coordinates": [ 12.892441399693976, 56.685132254901603 ] } },
{ "type": "Feature", "properties": { "id": 347, "Name": "Kexholm" }, "geometry": { "type": "Point", "coordinates": [ 30.121968641318176, 61.035941429765288 ] } },
{ "type": "Feature", "properties": { "id": 348, "Name": null }, "geometry": { "type": "Point", "coordinates": [ 27.049231739270976, 57.42175121346186 ] } },
{ "type": "Feature", "properties": { "id": 349, "Name": "Kongsvinger" }, "geometry": { "type": "Point", "coordinates": [ 11.989811449371139, 60.187591645378575 ] } },
{ "type": "Feature", "properties": { "id": 350, "Name": "Basmo Fortress" }, "geometry": { "type": "Point", "coordinates": [ 11.535700270204384, 59.616751298829506 ] } },
{ "type": "Feature", "properties": { "id": 351, "Name": null }, "geometry": { "type": "Point", "coordinates": [ 10.75, 59.917 ] } },
{ "type": "Feature", "properties": { "id": 352, "Name": "Rostov" }, "geometry": { "type": "Point", "coordinates": [ 39.406418775709369, 57.191527850544013 ] } },
{ "type": "Feature", "properties": { "id": 353, "Name": "Arkhangelsk" }, "geometry": { "type": "Point", "coordinates": [ 40.563356358648456, 64.556212773514318 ] } },
{ "type": "Feature", "properties": { "id": 354, "Name": null }, "geometry": { "type": "Point", "coordinates": [ 32.056842968509791, 54.777667073364512 ] } },
{ "type": "Feature", "properties": { "id": 355, "Name": "Yam Fortress" }, "geometry": { "type": "Point", "coordinates": [ 28.594045017040671, 59.376721012129551 ] } },
{ "type": "Feature", "properties": { "id": 356, "Name": null }, "geometry": { "type": "Point", "coordinates": [ 9.45, 42.703 ] } },
{ "type": "Feature", "properties": { "id": 357, "Name": "Ajaccio" }, "geometry": { "type": "Point", "coordinates": [ 8.724457457250269, 41.928557641090308 ] } },
{ "type": "Feature", "properties": { "id": 358, "Name": "Tarragona" }, "geometry": { "type": "Point", "coordinates": [ 1.246273767587622, 41.120930165976851 ] } },
{ "type": "Feature", "properties": { "id": 359, "Name": null }, "geometry": { "type": "Point", "coordinates": [ -0.883, 41.633 ] } },
{ "type": "Feature", "properties": { "id": 360, "Name": null }, "geometry": { "type": "Point", "coordinates": [ -3.7, 42.35 ] } },
{ "type": "Feature", "properties": { "id": 361, "Name": "Denia" }, "geometry": { "type": "Point", "coordinates": [ 0.134746462518153, 38.845711401861557 ] } },
{ "type": "Feature", "properties": { "id": 362, "Name": null }, "geometry": { "type": "Point", "coordinates": [ -0.50734857600441, 38.39071302903448 ] } },
{ "type": "Feature", "properties": { "id": 363, "Name": "Alcantara" }, "geometry": { "type": "Point", "coordinates": [ -6.889410788252608, 39.717488019230366 ] } },
{ "type": "Feature", "properties": { "id": 364, "Name": null }, "geometry": { "type": "Point", "coordinates": [ -6.533, 40.6 ] } },
{ "type": "Feature", "properties": { "id": 365, "Name": null }, "geometry": { "type": "Point", "coordinates": [ -8.412068108657406, 43.363587448740532 ] } },
{ "type": "Feature", "properties": { "id": 366, "Name": null }, "geometry": { "type": "Point", "coordinates": [ -8.233, 43.483 ] } },
{ "type": "Feature", "properties": { "id": 367, "Name": "Jaca" }, "geometry": { "type": "Point", "coordinates": [ -0.549839819808581, 42.567668773816301 ] } },
{ "type": "Feature", "properties": { "id": 368, "Name": "Roses" }, "geometry": { "type": "Point", "coordinates": [ 3.162053829886035, 42.277447121309152 ] } },
{ "type": "Feature", "properties": { "id": 369, "Name": null }, "geometry": { "type": "Point", "coordinates": [ -5.65, 40.967 ] } },
{ "type": "Feature", "properties": { "id": 370, "Name": null }, "geometry": { "type": "Point", "coordinates": [ 2.65, 39.567 ] } },
{ "type": "Feature", "properties": { "id": 371, "Name": "Estremoz" }, "geometry": { "type": "Point", "coordinates": [ -7.58831426444907, 38.840057090781457 ] } },
{ "type": "Feature", "properties": { "id": 372, "Name": null }, "geometry": { "type": "Point", "coordinates": [ -7.9, 38.567 ] } },
{ "type": "Feature", "properties": { "id": 373, "Name": "Forte de São Bruno" }, "geometry": { "type": "Point", "coordinates": [ -9.3326049515184, 38.651090542981983 ] } },
{ "type": "Feature", "properties": { "id": 374, "Name": "Monção" }, "geometry": { "type": "Point", "coordinates": [ -8.483121181230956, 42.077339709781846 ] } },
{ "type": "Feature", "properties": { "id": 375, "Name": "Peniche" }, "geometry": { "type": "Point", "coordinates": [ -9.428520140898188, 39.310958020734539 ] } },
{ "type": "Feature", "properties": { "id": 376, "Name": "Valenca" }, "geometry": { "type": "Point", "coordinates": [ -8.648452764889512, 42.030358833824614 ] } },
{ "type": "Feature", "properties": { "id": 377, "Name": null }, "geometry": { "type": "Point", "coordinates": [ -9.154547003931695, 38.716934668425026 ] } },
{ "type": "Feature", "properties": { "id": 378, "Name": null }, "geometry": { "type": "Point", "coordinates": [ -8.9, 38.53 ] } },
{ "type": "Feature", "properties": { "id": 379, "Name": null }, "geometry": { "type": "Point", "coordinates": [ -1.633, 42.817 ] } },
{ "type": "Feature", "properties": { "id": 380, "Name": null }, "geometry": { "type": "Point", "coordinates": [ -1.983, 43.317 ] } },
{ "type": "Feature", "properties": { "id": 381, "Name": "Duncannon" }, "geometry": { "type": "Point", "coordinates": [ -6.962909089068539, 52.205735178290865 ] } },
{ "type": "Feature", "properties": { "id": 382, "Name": null }, "geometry": { "type": "Point", "coordinates": [ -8.496, 51.899 ] } },
{ "type": "Feature", "properties": { "id": 383, "Name": "Spike Fort" }, "geometry": { "type": "Point", "coordinates": [ -8.285970398482686, 51.832239663401836 ] } },
{ "type": "Feature", "properties": { "id": 384, "Name": "Forte Real de São Filipe" }, "geometry": { "type": "Point", "coordinates": [ -23.603565144825488, 14.913754364762823 ] } },
{ "type": "Feature", "properties": { "id": 385, "Name": "Deal" }, "geometry": { "type": "Point", "coordinates": [ 1.418640963315621, 51.225108911888249 ] } },
{ "type": "Feature", "properties": { "id": 386, "Name": null }, "geometry": { "type": "Point", "coordinates": [ -7.333, 55.0 ] } },
{ "type": "Feature", "properties": { "id": 387, "Name": "Berwick" }, "geometry": { "type": "Point", "coordinates": [ -2.007920014262726, 55.774013731178499 ] } },
{ "type": "Feature", "properties": { "id": 388, "Name": "Hilsea" }, "geometry": { "type": "Point", "coordinates": [ -1.130194484974897, 50.806363664751295 ] } },
{ "type": "Feature", "properties": { "id": 389, "Name": "Pendennis Castle" }, "geometry": { "type": "Point", "coordinates": [ -5.078549744838183, 50.108104662363381 ] } },
{ "type": "Feature", "properties": { "id": 390, "Name": "Star Castle" }, "geometry": { "type": "Point", "coordinates": [ -6.315662019150119, 49.914907207682191 ] } },
{ "type": "Feature", "properties": { "id": 391, "Name": null }, "geometry": { "type": "Point", "coordinates": [ 1.346555102087232, 51.111119970623442 ] } }
]
}
