{
"type": "FeatureCollection",
"name": "Brandenburg-Bayreuth",
"crs": { "type": "name", "properties": { "name": "urn:ogc:def:crs:OGC:1.3:CRS84" } },
"features": [
{ "type": "Feature", "properties": { "OBJECTID": 28.0, "YEAR": 1700.0, "OWNER_ID": 3635.0, "SHORT_NAME": "Brandenburg-Bayreuth", "LONG_NAME": "Margravate of Brandenburg-Bayreuth", "VARIANTS": null, "SHAPE_LENG": 1057100.0, "Shape__Are": 9257429321.0771484, "Shape__Len": 1058558.3740118747 }, "geometry": { "type": "MultiPolygon", "coordinates": [ [ [ [ 11.728264258992544, 49.911246324634376 ], [ 11.74186622922444, 49.911972691540818 ], [ 11.81413955389263, 49.915851330575791 ], [ 11.835059045020422, 49.913004120688385 ], [ 11.818666250847576, 49.897167062516438 ], [ 11.836223680243561, 49.884813434782593 ], [ 11.87111879764231, 49.872311234206244 ], [ 11.871294591655206, 49.855020853313569 ], [ 11.885072449324788, 49.83293712504944 ], [ 11.861713815706628, 49.82992492170785 ], [ 11.827851489593403, 49.833650131380182 ], [ 11.840091149425573, 49.847340707042235 ], [ 11.800889078261736, 49.876600146618181 ], [ 11.756940568749728, 49.886644879042926 ], [ 11.743624170251708, 49.897864584466731 ], [ 11.732724939655574, 49.902499940424086 ], [ 11.72446261925287, 49.89773379958325 ], [ 11.718353777080184, 49.889333777911091 ], [ 11.737075841699308, 49.877763175389241 ], [ 11.71657386236275, 49.872645637741677 ], [ 11.693720637093113, 49.871264390391268 ], [ 11.684293681467267, 49.846540621529925 ], [ 11.724396696385744, 49.845158623539447 ], [ 11.722067425939461, 49.824976931850387 ], [ 11.682447843882709, 49.825500860894699 ], [ 11.658759596827242, 49.819693663251655 ], [ 11.651771784590078, 49.809838744192483 ], [ 11.635269118373149, 49.804932367307522 ], [ 11.615602160822419, 49.799879878190168 ], [ 11.609229626282918, 49.786044702618497 ], [ 11.579212793864906, 49.78131070354533 ], [ 11.555260856239252, 49.779460676030801 ], [ 11.54825106941361, 49.744077984031662 ], [ 11.574971762966941, 49.740637425112283 ], [ 11.576268243924332, 49.724685187947493 ], [ 11.529133467591731, 49.727528979996706 ], [ 11.523639903116706, 49.75700704336947 ], [ 11.505313374802013, 49.756424071376664 ], [ 11.499999999796566, 49.736778467221264 ], [ 11.496581309167565, 49.724134013962271 ], [ 11.478900320097511, 49.730649666855683 ], [ 11.467056196569777, 49.749952608554921 ], [ 11.470286412567331, 49.769641230464423 ], [ 11.494853629687276, 49.780465817875054 ], [ 11.473494653976406, 49.820057542943808 ], [ 11.445411555700241, 49.836109193744612 ], [ 11.414911289522191, 49.85048273352951 ], [ 11.404407596128806, 49.878562741691923 ], [ 11.384432997932617, 49.90562383057123 ], [ 11.33613358547856, 49.930070322498878 ], [ 11.294843960748461, 49.947144967041844 ], [ 11.289745933476185, 49.969509929450382 ], [ 11.288009161248588, 50.000000000210534 ], [ 11.287900095891629, 50.00175354769685 ], [ 11.308907483576709, 50.02495542965238 ], [ 11.341517277909503, 50.028566844211035 ], [ 11.352570328828365, 50.012791451774639 ], [ 11.329101824064438, 50.008833507292572 ], [ 11.327146115334109, 50.002444321524742 ], [ 11.329797103924671, 50.000000000210534 ], [ 11.341539252497983, 49.988180514633022 ], [ 11.366677799935257, 49.995432078836735 ], [ 11.45519009935188, 49.986497994493298 ], [ 11.459381806452539, 50.000000000210534 ], [ 11.459606924262737, 50.00066423020494 ], [ 11.434072840521027, 50.02006896317215 ], [ 11.415109058123566, 50.012114108294178 ], [ 11.372654797272011, 50.045544798745631 ], [ 11.372347158423178, 50.067810083535072 ], [ 11.380279864490257, 50.0875986195839 ], [ 11.361030416934131, 50.094732150127143 ], [ 11.357822175525056, 50.125892353739481 ], [ 11.365886727326385, 50.142358863567281 ], [ 11.357514535777911, 50.160540911916264 ], [ 11.367666642043819, 50.208247292625579 ], [ 11.385509736598468, 50.21482053143346 ], [ 11.389289308324875, 50.222688703722895 ], [ 11.377225442505599, 50.22727676714166 ], [ 11.356899257181936, 50.231904046914529 ], [ 11.363557455981788, 50.241302644847501 ], [ 11.37269874644897, 50.247303025357866 ], [ 11.389552999793374, 50.248029892274069 ], [ 11.399639182293843, 50.23548657320255 ], [ 11.426931207062818, 50.24689333185151 ], [ 11.436951467594476, 50.24216177651649 ], [ 11.428579276944316, 50.230489469261201 ], [ 11.417592148892579, 50.226602468283126 ], [ 11.415350775003585, 50.217663803392668 ], [ 11.446004860606051, 50.199463919633637 ], [ 11.469890876262895, 50.155151910510931 ], [ 11.467583579506778, 50.138928258552276 ], [ 11.493007792102718, 50.119651342760328 ], [ 11.499999999796566, 50.121156677778693 ], [ 11.516212605398145, 50.124646866789789 ], [ 11.53631904843027, 50.119916370264058 ], [ 11.546515102974823, 50.129893590442272 ], [ 11.546932613867739, 50.140345565543235 ], [ 11.559018454275492, 50.144199896636245 ], [ 11.573081977103739, 50.14135222520548 ], [ 11.577454853735953, 50.128157995759622 ], [ 11.590683355676687, 50.120539179696991 ], [ 11.598088679705077, 50.107047571796407 ], [ 11.585761122417304, 50.099571204244043 ], [ 11.58831013605344, 50.090184316506459 ], [ 11.609800957498562, 50.093194155712474 ], [ 11.627731949508819, 50.083129675241317 ], [ 11.636807316210559, 50.100817347179103 ], [ 11.633599075699802, 50.111090154085581 ], [ 11.616041645405501, 50.112866130682519 ], [ 11.612569713426241, 50.129655115340356 ], [ 11.630324911423603, 50.137192993357679 ], [ 11.632983796205512, 50.146093835612419 ], [ 11.620062934011925, 50.150901186861894 ], [ 11.612481815970636, 50.157919311976279 ], [ 11.609976751511459, 50.166829513972125 ], [ 11.619249886814574, 50.175539508484746 ], [ 11.638719076662241, 50.176068940130541 ], [ 11.669483033410479, 50.174679169983605 ], [ 11.67080148895635, 50.1913537302325 ], [ 11.649266719232585, 50.198326194985718 ], [ 11.638565257237827, 50.2049008077881 ], [ 11.628742765307544, 50.217148059688022 ], [ 11.635642680987418, 50.239544679939883 ], [ 11.628786713586191, 50.266950936458748 ], [ 11.624655553833994, 50.277253913117427 ], [ 11.66974672487898, 50.314774771985235 ], [ 11.700225016468551, 50.325872179104252 ], [ 11.705718580045263, 50.358370869255644 ], [ 11.685700033570429, 50.359030107752538 ], [ 11.656781914406748, 50.344617050107139 ], [ 11.601714431108753, 50.314946333581744 ], [ 11.568445409003022, 50.306657896845415 ], [ 11.555194933372126, 50.320937387527479 ], [ 11.568533306458628, 50.330766877577361 ], [ 11.564687811865101, 50.364791462228219 ], [ 11.538890036654889, 50.383507714641084 ], [ 11.536934327924561, 50.406194506215328 ], [ 11.521859988399273, 50.426118782447503 ], [ 11.523837671718081, 50.440401658214313 ], [ 11.55675510579802, 50.433412146974817 ], [ 11.568818971617294, 50.441336146615612 ], [ 11.601450740538569, 50.435597303343137 ], [ 11.629226198169269, 50.435623630062096 ], [ 11.654628437075047, 50.441309823664653 ], [ 11.648871182928149, 50.445810906603533 ], [ 11.638828947808012, 50.456640695470064 ], [ 11.677591533490453, 50.462850580109183 ], [ 11.685700033570429, 50.449956259783939 ], [ 11.704180382207852, 50.450824763592863 ], [ 11.717299012104494, 50.464455544101426 ], [ 11.760786063343257, 50.458311655874724 ], [ 11.755863830083877, 50.4422969400268 ], [ 11.780387098026862, 50.435044441713117 ], [ 11.800867103673255, 50.435702609556913 ], [ 11.829741275456605, 50.436637191237793 ], [ 11.877908842176414, 50.440375334167115 ], [ 11.895488247957509, 50.442046892852126 ], [ 11.947347488049802, 50.434781172343676 ], [ 11.98826355016563, 50.413820191522049 ], [ 11.999999999826779, 50.381233206227684 ], [ 12.007337203708861, 50.360849558997444 ], [ 12.029025793755357, 50.334737675419099 ], [ 12.060954385726737, 50.339235751094108 ], [ 12.087367440431239, 50.321689514400056 ], [ 12.101590527410142, 50.31078525582754 ], [ 12.099980662877678, 50.30886212918346 ], [ 12.106485042253116, 50.299872968358571 ], [ 12.118746676673767, 50.282893183178949 ], [ 12.101562808993737, 50.28081980565775 ], [ 12.088466152787255, 50.279010479356316 ], [ 12.078357995698308, 50.270596861639881 ], [ 12.084313018446579, 50.254782612108343 ], [ 12.086884006671196, 50.249523238058302 ], [ 12.159750636245199, 50.224196070212258 ], [ 12.178230984882623, 50.204808213978318 ], [ 12.182340170046338, 50.200628074342958 ], [ 12.175528150923753, 50.182183446232777 ], [ 12.192206611153578, 50.167967993212649 ], [ 12.198469273648996, 50.162897580029494 ], [ 12.176736735323855, 50.146371959955012 ], [ 12.171396991171559, 50.133682530921128 ], [ 12.169573128175481, 50.129005927962908 ], [ 12.175528150923753, 50.106504116320913 ], [ 12.187284377894198, 50.081591306385853 ], [ 12.207720434363631, 50.075344488994077 ], [ 12.225783272108139, 50.070622360006396 ], [ 12.239517181499075, 50.067292712642192 ], [ 12.239583104366201, 50.056506243719319 ], [ 12.240484049019155, 50.047575377445035 ], [ 12.240110486404886, 50.046818897755031 ], [ 12.247743559408946, 50.039413107649509 ], [ 12.233474261295198, 50.027000161354955 ], [ 12.190998026753476, 50.02095865639717 ], [ 12.188405064838694, 50.000969773030988 ], [ 12.181144708235905, 50.000000000210534 ], [ 12.146434237747179, 49.994939007361246 ], [ 12.114791310934466, 49.982625072367924 ], [ 12.073787350464718, 49.985410126733349 ], [ 12.051916877624329, 50.000000000210534 ], [ 12.051351636087995, 50.000345400750852 ], [ 12.050236054269257, 50.000000000210534 ], [ 11.999999999826779, 49.983019447439567 ], [ 11.996130333365585, 49.98171119117395 ], [ 11.964311612539976, 49.97882437198998 ], [ 11.930493233807082, 49.976213028868251 ], [ 11.917242758176185, 49.991037762354601 ], [ 11.895883782465315, 49.988630143235028 ], [ 11.885033325897531, 50.000000000210534 ], [ 11.877227639814995, 50.007491981812237 ], [ 11.841607372674503, 50.018316087550318 ], [ 11.800449593678655, 50.012472703199478 ], [ 11.799230498989729, 50.000000000210534 ], [ 11.798384012904243, 49.990544644990848 ], [ 11.821786594801045, 49.968450696019104 ], [ 11.801306589154651, 49.958626275368132 ], [ 11.789264697923857, 49.939552147501921 ], [ 11.744634986050434, 49.942063863318936 ], [ 11.722221245363876, 49.92996866995184 ], [ 11.728264258992544, 49.911246324634376 ] ] ], [ [ [ 10.869642127154913, 49.578683555535278 ], [ 10.876651906794034, 49.548042692368867 ], [ 10.873729338628463, 49.516811437095491 ], [ 10.854897401965252, 49.509121320763839 ], [ 10.818639881640303, 49.506967870767504 ], [ 10.727446723751608, 49.509326406546485 ], [ 10.711604849274522, 49.499999999800124 ], [ 10.70828517275277, 49.498065401106551 ], [ 10.702835557454705, 49.476306742053183 ], [ 10.703934270709036, 49.451446457473693 ], [ 10.722963975075309, 49.427735379410315 ], [ 10.719865605710318, 49.407165796751535 ], [ 10.679542847601986, 49.396151115495073 ], [ 10.626211330742777, 49.392750302586677 ], [ 10.550597919829578, 49.396354575245937 ], [ 10.504627794889792, 49.404739314705601 ], [ 10.51550503472777, 49.418715464560094 ], [ 10.539984354392111, 49.418148941062384 ], [ 10.547609420712044, 49.436753626796722 ], [ 10.534446841638438, 49.45748491399894 ], [ 10.511945205292905, 49.469733714834078 ], [ 10.49999999973614, 49.47509483046192 ], [ 10.476478757576828, 49.485649650683605 ], [ 10.458833430725237, 49.497572312192027 ], [ 10.449251977446936, 49.499999999800124 ], [ 10.422488012944683, 49.506850673231973 ], [ 10.414247667130459, 49.523270194368756 ], [ 10.401568522715211, 49.543812418624057 ], [ 10.387988432748687, 49.5479256762302 ], [ 10.389526630586101, 49.578625043525662 ], [ 10.437848017628637, 49.582472070092962 ], [ 10.458152229262137, 49.592314972494599 ], [ 10.472435494381923, 49.593894330918815 ], [ 10.483554467269599, 49.617943945495668 ], [ 10.491399276779386, 49.643617804474701 ], [ 10.49999999973614, 49.650050949213998 ], [ 10.505616619930363, 49.654251591432931 ], [ 10.528645639212897, 49.663802479715947 ], [ 10.563738524314703, 49.669424062738933 ], [ 10.557080324616535, 49.70740007905539 ], [ 10.580504880203502, 49.713848075479731 ], [ 10.589931835829351, 49.737196620838134 ], [ 10.640099059558128, 49.744748572871238 ], [ 10.642098717465416, 49.734645018329545 ], [ 10.66512773674795, 49.716969646133009 ], [ 10.697166199865098, 49.72373721984237 ], [ 10.724897710115469, 49.725676888217485 ], [ 10.748893596019769, 49.721914152430465 ], [ 10.781195751503734, 49.702410314758076 ], [ 10.785568628135948, 49.678504825160374 ], [ 10.82826460496921, 49.67250470556732 ], [ 10.859995429237527, 49.67098630912826 ], [ 10.892737069304571, 49.662765700644194 ], [ 10.894253292553504, 49.652907890210443 ], [ 10.884518698078827, 49.645984316312166 ], [ 10.822771041392498, 49.638139324097416 ], [ 10.802225112878977, 49.631505880591831 ], [ 10.809322797160227, 49.616906184016855 ], [ 10.828901858153666, 49.609071099886471 ], [ 10.858171566241449, 49.596351008790066 ], [ 10.869642127154913, 49.578683555535278 ] ] ], [ [ [ 10.329602836895848, 49.497354771583176 ], [ 10.354170054015793, 49.482008450665901 ], [ 10.400909294942274, 49.474957384947281 ], [ 10.455800983329061, 49.46217291109631 ], [ 10.484147772175408, 49.443098801454823 ], [ 10.441737460500812, 49.425847290861043 ], [ 10.441035228578595, 49.423802108264198 ], [ 10.438265528521553, 49.42501941337224 ], [ 10.386691951791295, 49.433980076548586 ], [ 10.366893147608002, 49.418715464560094 ], [ 10.354543616630062, 49.407921330339278 ], [ 10.368651088635271, 49.382488296552552 ], [ 10.357114604854683, 49.3665677470714 ], [ 10.328108588235397, 49.351965717948367 ], [ 10.292026861025029, 49.352780288536728 ], [ 10.26416350593872, 49.381267177582735 ], [ 10.251286592922096, 49.37587353845251 ], [ 10.245287620996862, 49.384334453714395 ], [ 10.235948562826623, 49.401702360176799 ], [ 10.233575343203379, 49.41271578984361 ], [ 10.22395061987447, 49.426442772948121 ], [ 10.21839113253232, 49.451780334263972 ], [ 10.220302892984003, 49.481268571982397 ], [ 10.242716632772243, 49.485577119490983 ], [ 10.250231827946408, 49.4998781833267 ], [ 10.252336082990434, 49.499999999800124 ], [ 10.277787544183887, 49.501488594716243 ], [ 10.281954816210503, 49.499999999800124 ], [ 10.305760770415965, 49.491582337935995 ], [ 10.327625154475355, 49.492060982524897 ], [ 10.328679918552728, 49.496890681466773 ], [ 10.329602836895848, 49.497354771583176 ] ] ], [ [ [ 11.43053498477633, 50.473308172229217 ], [ 11.395068537958567, 50.464521319948595 ], [ 11.371358316314618, 50.475951798672618 ], [ 11.347428353277445, 50.475465172148695 ], [ 11.335869894908376, 50.459508921817992 ], [ 11.321387294525357, 50.45581329593255 ], [ 11.302754692227062, 50.473939499773294 ], [ 11.297063360947288, 50.482777192477243 ], [ 11.291108337300702, 50.492060241079919 ], [ 11.290556543544172, 50.499999999891088 ], [ 11.290251341824705, 50.5044379599141 ], [ 11.309742505362539, 50.506151653729397 ], [ 11.338528779690284, 50.500465669990028 ], [ 11.344681571039931, 50.510282859145988 ], [ 11.362239000435917, 50.519659745569079 ], [ 11.392014115973907, 50.525077829158697 ], [ 11.412120559904347, 50.51246122640584 ], [ 11.422931893044876, 50.515648898668097 ], [ 11.434578247971235, 50.508077823385335 ], [ 11.438039820578636, 50.499999999891088 ], [ 11.44132434422669, 50.492415221862174 ], [ 11.428535327767355, 50.486485372419558 ], [ 11.430432353153433, 50.473984579777841 ], [ 11.43053498477633, 50.473308172229217 ] ] ] ] } }
]
}
