{
"type": "FeatureCollection",
"name": "Brandenburg-Ansbach",
"crs": { "type": "name", "properties": { "name": "urn:ogc:def:crs:OGC:1.3:CRS84" } },
"features": [
{ "type": "Feature", "properties": { "OBJECTID": 62.0, "YEAR": 1700.0, "OWNER_ID": 7938.0, "SHORT_NAME": "Brandenburg-Ansbach", "LONG_NAME": "Margravate of Brandenburg-Ansbach", "VARIANTS": null, "SHAPE_LENG": 1280680.0, "Shape__Are": 8278198544.5092773, "Shape__Len": 1282323.6175904125 }, "geometry": { "type": "MultiPolygon", "coordinates": [ [ [ [ 11.306751120856312, 49.346088909922422 ], [ 11.305853062490364, 49.304464446051242 ], [ 11.259751075646653, 49.294547982350714 ], [ 11.239227121721616, 49.297810007113846 ], [ 11.207606168599067, 49.305221567322072 ], [ 11.162339203541189, 49.315281440620318 ], [ 11.138650956485719, 49.308308173677183 ], [ 11.135794303102434, 49.292756689136297 ], [ 11.154186755182568, 49.29336835770922 ], [ 11.156625896774621, 49.276996313076644 ], [ 11.175435859747671, 49.270644119443531 ], [ 11.18031414383009, 49.260720812708293 ], [ 11.169480836101082, 49.252719505353397 ], [ 11.153527527409633, 49.256698460716656 ], [ 11.135970097115331, 49.255401327981978 ], [ 11.134981255905085, 49.241334705859742 ], [ 11.157834481174724, 49.229641036656446 ], [ 11.154626239765649, 49.219344803880617 ], [ 11.147242890325735, 49.212722574287064 ], [ 11.129509666916855, 49.210403124211297 ], [ 11.125796017159262, 49.202437386664201 ], [ 11.148803062751627, 49.186341492786596 ], [ 11.143770958346476, 49.176138376030657 ], [ 11.099317040485948, 49.161552566946668 ], [ 11.096218670222646, 49.152439718121066 ], [ 11.03727767118246, 49.13386042506567 ], [ 11.026648178615005, 49.150044394807487 ], [ 11.007596499660252, 49.147064683850928 ], [ 11.00082842971463, 49.162268087544398 ], [ 10.999999999766354, 49.165282561326208 ], [ 10.99625778448104, 49.178897367224401 ], [ 10.966065158050132, 49.181510237458106 ], [ 10.95048541107464, 49.173335432601242 ], [ 10.927654160393482, 49.169276722042255 ], [ 10.898472349761304, 49.168021081336128 ], [ 10.863884872109702, 49.193302920144113 ], [ 10.82325447515254, 49.203560838051963 ], [ 10.771395233263616, 49.217565349730521 ], [ 10.750497716724306, 49.230195163261108 ], [ 10.709845345178662, 49.232542842549172 ], [ 10.70937332181936, 49.233493424973808 ], [ 10.704175987589057, 49.243958837000982 ], [ 10.737335138549016, 49.245489515989966 ], [ 10.713339251746403, 49.301333913969117 ], [ 10.680004306773547, 49.316052952126071 ], [ 10.661501984445961, 49.346539749146388 ], [ 10.650932367287137, 49.345928744973776 ], [ 10.627002404249962, 49.324567882789353 ], [ 10.592349003731236, 49.316373198116885 ], [ 10.590349346722265, 49.307871401687862 ], [ 10.604786432164783, 49.299906908170847 ], [ 10.614455104670649, 49.285066491613094 ], [ 10.612631241674572, 49.247297113307233 ], [ 10.647790048745188, 49.24053285944975 ], [ 10.647680177599419, 49.232484516607911 ], [ 10.611422657274471, 49.231478380718279 ], [ 10.608719824213916, 49.223355632896755 ], [ 10.645773008437153, 49.221069872379836 ], [ 10.651218033344117, 49.208535814467098 ], [ 10.684772720608512, 49.198993921221359 ], [ 10.688618215202043, 49.172152893195403 ], [ 10.718569124752927, 49.172430281387022 ], [ 10.742806727537246, 49.162238882585136 ], [ 10.787480387689316, 49.151461154943249 ], [ 10.841163492574314, 49.151577999655245 ], [ 10.83714220396789, 49.143427438974889 ], [ 10.821606406169355, 49.139526962707045 ], [ 10.825627694775781, 49.114451364550348 ], [ 10.841493106909939, 49.110110061797485 ], [ 10.880848997498191, 49.105885330601474 ], [ 10.8865183550878, 49.077501546646253 ], [ 10.930620684922538, 49.073800654586428 ], [ 10.976305160873331, 49.079446963529868 ], [ 10.999999999766354, 49.073313692599655 ], [ 11.002300704684917, 49.072718127613484 ], [ 11.010277359030642, 49.035488185480141 ], [ 11.004036274068348, 49.015762618137543 ], [ 10.999999999766354, 49.016000702422602 ], [ 10.94615648272107, 49.019176622114557 ], [ 10.952653760914187, 49.000000000276607 ], [ 10.954374854845129, 48.994970021187015 ], [ 10.934839742130336, 48.979969878818792 ], [ 10.951210561714699, 48.95792564878316 ], [ 10.941036481758628, 48.944017795255334 ], [ 10.907943253665794, 48.930149613086755 ], [ 10.907833382520025, 48.935595696021352 ], [ 10.876124532840185, 48.933533516214183 ], [ 10.864038692432432, 48.947168453881211 ], [ 10.847997486285378, 48.932197410269524 ], [ 10.801587859694521, 48.939414859332082 ], [ 10.761924329359124, 48.930018899772698 ], [ 10.741642092314105, 48.910872940976041 ], [ 10.751772223991532, 48.892344598059928 ], [ 10.777701844935994, 48.88027929720932 ], [ 10.757815144195408, 48.839264472067697 ], [ 10.743663723911558, 48.837067334767411 ], [ 10.722700284505123, 48.844822360418867 ], [ 10.719514017684528, 48.841214168530605 ], [ 10.710328778938704, 48.846844579592457 ], [ 10.695891693496186, 48.871991792541735 ], [ 10.670797094337555, 48.892867845947904 ], [ 10.695474182603272, 48.909434516733036 ], [ 10.690178386729619, 48.933097833727871 ], [ 10.667237264902692, 48.957170833889137 ], [ 10.626650816224174, 48.995898314562091 ], [ 10.620071742831175, 49.000000000276607 ], [ 10.594546429341584, 49.016071837369772 ], [ 10.574835522613897, 49.018444379308882 ], [ 10.525085809778032, 49.014402202748101 ], [ 10.505418851328988, 49.013318375113734 ], [ 10.49999999973614, 49.013785813749976 ], [ 10.472479442660569, 49.016159711409287 ], [ 10.440243210942045, 49.020509276335183 ], [ 10.412006293241468, 49.023701643338882 ], [ 10.394470837535644, 49.0246680989871 ], [ 10.364871516908865, 49.028592301155342 ], [ 10.32742738587398, 49.027874839383152 ], [ 10.32241725605731, 49.060003978104433 ], [ 10.330965240720365, 49.075994892864102 ], [ 10.311452102594052, 49.083264438576997 ], [ 10.284204027002035, 49.072323146174639 ], [ 10.273414667551672, 49.076038776387442 ], [ 10.26917363575539, 49.09021119323647 ], [ 10.23520143759808, 49.08800296272495 ], [ 10.222895854898786, 49.074707618219193 ], [ 10.239903928565919, 49.029148692314436 ], [ 10.186594386295193, 49.025942034488004 ], [ 10.138141153518404, 49.044168897690767 ], [ 10.118210504499176, 49.032560114207669 ], [ 10.093731184834837, 49.032486910219674 ], [ 10.071471264471009, 49.054706669153205 ], [ 10.051540615451779, 49.052760277819075 ], [ 10.057231946731553, 49.038416083413345 ], [ 10.030313484576846, 49.031623094507275 ], [ 10.027878120400562, 49.03311202604862 ], [ 9.999999999705929, 49.050152935812015 ], [ 9.958632264665244, 49.075468284591452 ], [ 9.953806689232122, 49.09040382957707 ], [ 9.995030605792447, 49.125324868494559 ], [ 9.999999999705929, 49.129168987066699 ], [ 10.013942664992483, 49.139936016175334 ], [ 10.015151248494266, 49.162326496821848 ], [ 9.999999999705929, 49.171327346192086 ], [ 9.992968252664848, 49.175510647194756 ], [ 9.931536453513887, 49.172152893195403 ], [ 9.906963733314511, 49.178911964765298 ], [ 9.911242019143941, 49.227074472223428 ], [ 9.922431383118962, 49.235808991782839 ], [ 9.916156563722804, 49.263635355176653 ], [ 9.953893240113116, 49.26312532235977 ], [ 9.957776607679024, 49.256829629428196 ], [ 9.977149564603565, 49.261362027116789 ], [ 9.99257333440133, 49.262017805432095 ], [ 9.999999999705929, 49.262326109446136 ], [ 10.003109357263474, 49.262454986106597 ], [ 10.015876399134328, 49.230457642567025 ], [ 10.011151934476324, 49.207718843597519 ], [ 10.061758643686499, 49.188618294075745 ], [ 10.067603795288999, 49.200219589322977 ], [ 10.060330316994856, 49.206697611800891 ], [ 10.063604481271055, 49.223063947365596 ], [ 10.080304915191045, 49.221299212267574 ], [ 10.100323460767564, 49.223720237375659 ], [ 10.097071271079844, 49.196294425857928 ], [ 10.08946817934839, 49.183422362193127 ], [ 10.121352823041125, 49.177087252724185 ], [ 10.128670249613913, 49.191449554723114 ], [ 10.138536690721155, 49.194660064883521 ], [ 10.149084332393183, 49.191332804618469 ], [ 10.147677980290021, 49.17616757274503 ], [ 10.178749576785403, 49.178211283216356 ], [ 10.177211378947991, 49.190865802606609 ], [ 10.20916194550785, 49.194951918998775 ], [ 10.202943231291076, 49.21383120348024 ], [ 10.187231639479648, 49.225339048704583 ], [ 10.183693784633265, 49.23949772990953 ], [ 10.171937557662819, 49.24059117583338 ], [ 10.172179274542842, 49.22304936292592 ], [ 10.160664765350731, 49.222509739732871 ], [ 10.155914727453219, 49.23306192725709 ], [ 10.15547884062285, 49.234030133886677 ], [ 10.158665108341758, 49.253492001944835 ], [ 10.155434892344205, 49.284221661342258 ], [ 10.16308193325262, 49.305891319122523 ], [ 10.199581170457588, 49.294518856513619 ], [ 10.224170362166012, 49.309065236135417 ], [ 10.245177749851093, 49.314539031503507 ], [ 10.236102382251037, 49.333561534272718 ], [ 10.23473997842652, 49.35989265948664 ], [ 10.251286592922096, 49.37587353845251 ], [ 10.26416350593872, 49.381267177582735 ], [ 10.292026861025029, 49.352780288536728 ], [ 10.328108588235397, 49.351965717948367 ], [ 10.357114604854683, 49.3665677470714 ], [ 10.368651088635271, 49.382488296552552 ], [ 10.354543616630062, 49.407921330339278 ], [ 10.366893147608002, 49.418715464560094 ], [ 10.386691951791295, 49.433980076548586 ], [ 10.438265528521553, 49.42501941337224 ], [ 10.441035228578595, 49.423802108264198 ], [ 10.463777637674784, 49.413805373789387 ], [ 10.471512576038803, 49.408400797715544 ], [ 10.49999999973614, 49.405441790477838 ], [ 10.501727176159875, 49.40526238192917 ], [ 10.504627794889792, 49.404739314705601 ], [ 10.550597919829578, 49.396354575245937 ], [ 10.626211330742777, 49.392750302586677 ], [ 10.679542847601986, 49.396151115495073 ], [ 10.719865605710318, 49.407165796751535 ], [ 10.722963975075309, 49.427735379410315 ], [ 10.703934270709036, 49.451446457473693 ], [ 10.702835557454705, 49.476306742053183 ], [ 10.70828517275277, 49.498065401106551 ], [ 10.711604849274522, 49.499999999800124 ], [ 10.727446723751608, 49.509326406546485 ], [ 10.818639881640303, 49.506967870767504 ], [ 10.854897401965252, 49.509121320763839 ], [ 10.873729338628463, 49.516811437095491 ], [ 10.876651906794034, 49.548042692368867 ], [ 10.920512527833589, 49.560102390419985 ], [ 10.927368495234818, 49.568428217447725 ], [ 10.950661205087535, 49.57452901467186 ], [ 10.986105678215132, 49.57839099419752 ], [ 10.986830828855192, 49.594040565651795 ], [ 10.972327820545551, 49.606439630679006 ], [ 10.962571251482395, 49.615093702826591 ], [ 10.942179143291606, 49.627867328746142 ], [ 10.922907721146997, 49.653696588573453 ], [ 10.956000949239831, 49.689393650669587 ], [ 10.999999999766354, 49.696488099661686 ], [ 11.001707399779107, 49.696763381104077 ], [ 11.030493673208536, 49.698470663352154 ], [ 11.049369559048708, 49.693158920944711 ], [ 11.053346898478173, 49.668329000367251 ], [ 11.055368530075626, 49.624286961164948 ], [ 11.075101411391794, 49.632178032917565 ], [ 11.094878240986606, 49.630073872767859 ], [ 11.090769054924579, 49.607272944609697 ], [ 11.126411296653551, 49.609699707156231 ], [ 11.154428471164275, 49.60671740377547 ], [ 11.163525813352811, 49.586699059027353 ], [ 11.163658658911972, 49.585832012736496 ], [ 11.160273623665089, 49.585602124397063 ], [ 11.158757399517844, 49.585572872864539 ], [ 11.112171978914095, 49.574631419723545 ], [ 11.060730248816402, 49.568589159552424 ], [ 11.01847375656622, 49.570169290432332 ], [ 10.999999999766354, 49.57297490065195 ], [ 10.986105678215132, 49.57508492487846 ], [ 10.986338323907415, 49.499999999800124 ], [ 10.986369369683633, 49.490073850264409 ], [ 10.988632718161107, 49.460228100675977 ], [ 10.999999999766354, 49.422032970690715 ], [ 11.002806112135122, 49.412599565768694 ], [ 11.025769208550528, 49.380816518880785 ], [ 11.070047332398161, 49.344110233387106 ], [ 11.107139874508942, 49.360925248908281 ], [ 11.170645471324223, 49.363732036748964 ], [ 11.252213905884011, 49.349056426367255 ], [ 11.306751120856312, 49.346088909922422 ] ], [ [ 10.552399808237174, 49.255678246744836 ], [ 10.536820061261682, 49.254789185729926 ], [ 10.525151732645156, 49.24492098398656 ], [ 10.504364087251618, 49.260152457102969 ], [ 10.49999999973614, 49.261851377981728 ], [ 10.466480471633652, 49.27489843181062 ], [ 10.43984767463761, 49.278118059970915 ], [ 10.418818312364049, 49.265558857829802 ], [ 10.368914779205456, 49.251101596359021 ], [ 10.323142406697372, 49.222991025712297 ], [ 10.299959567092108, 49.217667451523162 ], [ 10.301453816650875, 49.19944625461671 ], [ 10.316550129866327, 49.192938089998066 ], [ 10.329976399510119, 49.195915025409256 ], [ 10.340282325200443, 49.189888003630983 ], [ 10.35652129994887, 49.187800992840558 ], [ 10.366673405316462, 49.176006991779758 ], [ 10.39315238288809, 49.180021356373032 ], [ 10.412160113564196, 49.181262094131576 ], [ 10.426992735311151, 49.176255161606178 ], [ 10.430069130985974, 49.162414110902724 ], [ 10.472237726678863, 49.168780309585358 ], [ 10.49999999973614, 49.169222763512607 ], [ 10.510714646304326, 49.169393523899309 ], [ 10.538226414263159, 49.155594356547113 ], [ 10.560332514304255, 49.159800226816387 ], [ 10.570792259418992, 49.172079896012065 ], [ 10.564595519790698, 49.185684703636156 ], [ 10.561804789274539, 49.211657682987941 ], [ 10.559519467106902, 49.224828618494563 ], [ 10.575846338412623, 49.237383664827519 ], [ 10.552399808237174, 49.255678246744836 ] ], [ [ 10.561826763863021, 49.123366645549005 ], [ 10.530073965006222, 49.097771077066589 ], [ 10.523283920472119, 49.091337206704701 ], [ 10.527415080224316, 49.07890576488613 ], [ 10.546203068608882, 49.080617101973573 ], [ 10.563782472593347, 49.071650206838648 ], [ 10.583691147024098, 49.072089081281469 ], [ 10.593206000105548, 49.054370080941787 ], [ 10.626255279021423, 49.040231293188612 ], [ 10.642823867207165, 49.04920389089088 ], [ 10.617751242637013, 49.074927042345372 ], [ 10.635616311780144, 49.082255249448679 ], [ 10.653854943537546, 49.093881610599432 ], [ 10.66161185559173, 49.114349048477528 ], [ 10.638956398923467, 49.124287311835047 ], [ 10.609554845101432, 49.130570768859755 ], [ 10.561826763863021, 49.123366645549005 ] ], [ [ 10.998235466901532, 49.202991820664366 ], [ 10.999999999766354, 49.211798633865655 ], [ 11.002608344432064, 49.224814034578706 ], [ 10.999999999766354, 49.225558774857454 ], [ 10.987336237203715, 49.229174398444421 ], [ 10.954616570826836, 49.224814034578706 ], [ 10.943717341129016, 49.210271830867271 ], [ 10.963340350401101, 49.195710731828697 ], [ 10.998235466901532, 49.202991820664366 ] ] ], [ [ [ 11.0597853558848, 49.068651126526298 ], [ 11.123159106965829, 49.083966471048363 ], [ 11.193213031435194, 49.088982785988634 ], [ 11.215802566134647, 49.09708386269434 ], [ 11.201035866356504, 49.112975071919152 ], [ 11.2014753518379, 49.124053493866242 ], [ 11.206133893628781, 49.132660205953812 ], [ 11.224108833917683, 49.13672193535659 ], [ 11.245973217977072, 49.126698500413724 ], [ 11.26471725718468, 49.112711965984964 ], [ 11.271250863247886, 49.111882294611561 ], [ 11.291987307365178, 49.095899492352352 ], [ 11.308621818418041, 49.082694030249804 ], [ 11.307039672301986, 49.069192436953806 ], [ 11.27076017738856, 49.041592656794073 ], [ 11.288844988823229, 49.02500488942416 ], [ 11.241358624464837, 49.026586310979518 ], [ 11.186335089445485, 49.023994510644584 ], [ 11.153923063714068, 49.009539437737907 ], [ 11.136780141244687, 49.000000000276607 ], [ 11.117094212173475, 48.989153290253903 ], [ 11.075189307949083, 48.988239377867487 ], [ 11.076156175469166, 48.9989151456545 ], [ 11.070053566706235, 49.000000000276607 ], [ 11.029570754865414, 49.007269007157809 ], [ 11.056774882178788, 49.02582489203045 ], [ 11.053193079053758, 49.054311543114203 ], [ 11.059321000544765, 49.067884558942986 ], [ 11.0597853558848, 49.068651126526298 ] ] ], [ [ [ 10.039214060683864, 49.456448025487006 ], [ 10.036488250514973, 49.456541454684746 ], [ 10.015261119640037, 49.463566161174427 ], [ 10.00051639534869, 49.477264327508877 ], [ 10.008129534736598, 49.499999999800124 ], [ 10.008273307402876, 49.500433689689594 ], [ 10.029060951898101, 49.514248200084403 ], [ 10.08250233990308, 49.523050523063802 ], [ 10.103202088739328, 49.53450141008296 ], [ 10.145810169015299, 49.546930329189664 ], [ 10.204459455438323, 49.557731682990934 ], [ 10.248671656418832, 49.555697465206656 ], [ 10.285478533370945, 49.548803907026453 ], [ 10.295960253074163, 49.535555575757634 ], [ 10.328789789698499, 49.536375466650128 ], [ 10.33454704474371, 49.510688738565086 ], [ 10.33059167900441, 49.499999999800124 ], [ 10.329602836895848, 49.497354771583176 ], [ 10.328679918552728, 49.496890681466773 ], [ 10.327625154475355, 49.492060982524897 ], [ 10.305760770415965, 49.491582337935995 ], [ 10.281954816210503, 49.499999999800124 ], [ 10.277787544183887, 49.501488594716243 ], [ 10.252336082990434, 49.499999999800124 ], [ 10.250231827946408, 49.4998781833267 ], [ 10.242716632772243, 49.485577119490983 ], [ 10.220302892984003, 49.481268571982397 ], [ 10.203602459064014, 49.490320433333849 ], [ 10.176200563149266, 49.493148794748144 ], [ 10.15525909833131, 49.494106048995498 ], [ 10.13787746294822, 49.493003754601133 ], [ 10.113068528948254, 49.494976263685352 ], [ 10.099993847330255, 49.482414654076827 ], [ 10.097598653118531, 49.469428983402118 ], [ 10.084304229208993, 49.459589488773716 ], [ 10.066131520318713, 49.455525401150389 ], [ 10.039214060683864, 49.456448025487006 ] ] ], [ [ [ 10.923905055029939, 48.714178655998218 ], [ 10.920688321846486, 48.692878003458929 ], [ 10.897901019443973, 48.689390158699553 ], [ 10.893132605609006, 48.685084743867179 ], [ 10.854521556731843, 48.6802596142646 ], [ 10.846788901885276, 48.700538732745997 ], [ 10.902405741810437, 48.714791863814362 ], [ 10.923905055029939, 48.714178655998218 ] ] ] ] } }
]
}
