{
"type": "FeatureCollection",
"name": "Bremen",
"crs": { "type": "name", "properties": { "name": "urn:ogc:def:crs:OGC:1.3:CRS84" } },
"features": [
{ "type": "Feature", "properties": { "OBJECTID": 56.0, "YEAR": 1700.0, "OWNER_ID": 9651.0, "SHORT_NAME": "Bremen", "LONG_NAME": "Imperial City of Bremen", "VARIANTS": null, "SHAPE_LENG": 161519.5, "Shape__Are": 460834593.60888672, "Shape__Len": 161702.56240593587 }, "geometry": { "type": "MultiPolygon", "coordinates": [ [ [ [ 8.539334190499533, 53.193008914800672 ], [ 8.55324776743886, 53.192738571756749 ], [ 8.573456635481374, 53.191095410117043 ], [ 8.579532240886881, 53.190412560608593 ], [ 8.586940696442356, 53.184155376864695 ], [ 8.595570328083243, 53.170448145745148 ], [ 8.612200794022401, 53.168859338409924 ], [ 8.62209570184269, 53.154888528776361 ], [ 8.6264178676788, 53.135003700306605 ], [ 8.657375106841874, 53.134221895933088 ], [ 8.675563308077534, 53.118503268845458 ], [ 8.694278066698464, 53.1107478554095 ], [ 8.705577130241018, 53.09683761927824 ], [ 8.776223699354476, 53.107393369048282 ], [ 8.806347221085511, 53.096041854269401 ], [ 8.832960354858292, 53.103150164500782 ], [ 8.894940652745342, 53.096413213222121 ], [ 8.917780117621465, 53.089065014581458 ], [ 8.93283090870988, 53.103720369819428 ], [ 8.965345883169489, 53.10859995387549 ], [ 8.990181881612342, 53.093296351432627 ], [ 8.988580267207446, 53.081251195903882 ], [ 8.965104543581878, 53.07586427081209 ], [ 8.951216568628157, 53.057256921431353 ], [ 8.94599486579914, 53.024269426633197 ], [ 8.919952171214911, 53.025916747127077 ], [ 8.904725860998081, 53.035307921399557 ], [ 8.903694683985117, 53.045998341202846 ], [ 8.89382171571901, 53.048043161434748 ], [ 8.889697009463816, 53.059274656243133 ], [ 8.875216656665659, 53.058836603469082 ], [ 8.866945303702773, 53.056540071638643 ], [ 8.87354922180158, 53.045241467701899 ], [ 8.878560616446155, 53.04474716515147 ], [ 8.874865617510507, 53.028387608798873 ], [ 8.845707453231533, 53.012111843469427 ], [ 8.800225837533153, 53.02153263967957 ], [ 8.801630136985882, 53.029769104221543 ], [ 8.780326466055486, 53.03478993288703 ], [ 8.764288378859099, 53.027789832849834 ], [ 8.731641765277754, 53.031336515803531 ], [ 8.736314969370701, 53.045414089178095 ], [ 8.723392351869043, 53.066880132778493 ], [ 8.701342723519986, 53.070237793110067 ], [ 8.680368152190532, 53.07149850687496 ], [ 8.669902806080025, 53.115083105726718 ], [ 8.655356852909891, 53.116689555822596 ], [ 8.61116961790777, 53.125674117840383 ], [ 8.575977972023617, 53.1483584230375 ], [ 8.55531055984264, 53.164158770464617 ], [ 8.541746701534997, 53.180138255224932 ], [ 8.543884504163307, 53.180963706751221 ], [ 8.545964149860131, 53.181766687198071 ], [ 8.539334190499533, 53.193008914800672 ] ] ] ] } }
]
}
