{
"type": "FeatureCollection",
"name": "Brunswick-Wolfenbatle",
"crs": { "type": "name", "properties": { "name": "urn:ogc:def:crs:OGC:1.3:CRS84" } },
"features": [
{ "type": "Feature", "properties": { "OBJECTID": 97.0, "YEAR": 1700.0, "OWNER_ID": 7136.0, "SHORT_NAME": "Brunswick-Wolfenbuttel", "LONG_NAME": "Duchy of Brunswick-WolfenbÃ?Â¼ttel", "VARIANTS": null, "SHAPE_LENG": 1472313.0, "Shape__Are": 10070918375.203125, "Shape__Len": 1474442.1071914989 }, "geometry": { "type": "MultiPolygon", "coordinates": [ [ [ [ 10.986660799331478, 52.482848175455402 ], [ 10.977843358710743, 52.465680880448062 ], [ 10.984677352421805, 52.434950622868847 ], [ 10.999999999766354, 52.425681058867589 ], [ 11.030537622385495, 52.407201224425812 ], [ 11.048424665218793, 52.393939030180981 ], [ 11.066795142710443, 52.365306960350736 ], [ 11.058664668041988, 52.341931579686104 ], [ 11.032537279394468, 52.340296288536109 ], [ 11.019682340068009, 52.33234315894358 ], [ 11.022473070584168, 52.314875522100486 ], [ 11.03873401902276, 52.301189459158842 ], [ 11.044117711453703, 52.281372109278564 ], [ 11.04741385031838, 52.263963517542209 ], [ 11.060422609069256, 52.248926898403425 ], [ 11.061675141748003, 52.2350881552929 ], [ 11.089824161992976, 52.23681988732163 ], [ 11.089824161992976, 52.213204311648362 ], [ 11.075321153683333, 52.208693967672794 ], [ 11.057587930274455, 52.198534087586218 ], [ 11.045018656106659, 52.184335449829888 ], [ 11.03908560704855, 52.1633798353785 ], [ 11.064619691688577, 52.163909474012407 ], [ 11.06338913359831, 52.13374970842851 ], [ 11.057412136261558, 52.109442721626465 ], [ 11.032669125128718, 52.067835485754372 ], [ 11.020341567840944, 52.057590173906412 ], [ 11.024472727593137, 52.045351097851672 ], [ 11.022582941729937, 52.029390104404868 ], [ 11.027922685882233, 52.015442786081806 ], [ 11.015199592290022, 52.003245263000416 ], [ 11.000498815379004, 52.004773458515942 ], [ 11.006058301822842, 52.023678874015772 ], [ 10.999999999766354, 52.026719506570593 ], [ 10.997510317159787, 52.027969006416185 ], [ 10.999999999766354, 52.0337997024236 ], [ 11.003135726470747, 52.041142307036161 ], [ 10.999999999766354, 52.042842080926427 ], [ 10.990104993131393, 52.048205413669137 ], [ 10.96380180957266, 52.049174511585981 ], [ 10.911195443353513, 52.042934742924395 ], [ 10.853161436424779, 52.042828526630061 ], [ 10.83762563772793, 52.027291644501489 ], [ 10.826660484264671, 52.01064655526595 ], [ 10.821599277139262, 51.999999999749583 ], [ 10.820507692915024, 51.997729094568221 ], [ 10.81240616465997, 51.999999999749583 ], [ 10.7952372997435, 52.004866477578332 ], [ 10.755947332022373, 52.008387763707859 ], [ 10.756364842915289, 52.030997086133524 ], [ 10.749816515261205, 52.042071727358461 ], [ 10.662622671390455, 52.043147174752001 ], [ 10.638516913442073, 52.028752608184661 ], [ 10.614389181803524, 52.025432167249136 ], [ 10.60241321254154, 52.031939998496391 ], [ 10.545214742133295, 52.028739356018718 ], [ 10.540248044962295, 52.028048695277469 ], [ 10.529920145581807, 52.05683362587903 ], [ 10.543016801788289, 52.105173707890231 ], [ 10.522009414103207, 52.103701995735825 ], [ 10.513263659940463, 52.096568142834471 ], [ 10.49999999973614, 52.097478580667357 ], [ 10.49471738933423, 52.097841181880469 ], [ 10.473248541579276, 52.093398646586508 ], [ 10.447099178343274, 52.091130792885039 ], [ 10.420817969373021, 52.095653122877884 ], [ 10.407457622596356, 52.103940655316123 ], [ 10.380561134131815, 52.102044604588336 ], [ 10.364849542320385, 52.098543990095159 ], [ 10.353884388857127, 52.086117231429618 ], [ 10.336348933151307, 52.092244840643957 ], [ 10.339732968573275, 52.102044604588336 ], [ 10.339952711763132, 52.115421302023364 ], [ 10.343358720875264, 52.139049353185506 ], [ 10.323867556439117, 52.160360774022976 ], [ 10.349994945984953, 52.180073645707203 ], [ 10.372276840038944, 52.175626108872819 ], [ 10.389944141479017, 52.17447444142659 ], [ 10.387504998988648, 52.189562877902937 ], [ 10.375946540619578, 52.20098166781456 ], [ 10.35601589160035, 52.222818670023798 ], [ 10.342699493102328, 52.251014889864074 ], [ 10.347929366108854, 52.276314023076651 ], [ 10.349533486813392, 52.307854852556012 ], [ 10.329031506578518, 52.31750138756157 ], [ 10.290950123257492, 52.344727259730234 ], [ 10.296993042563054, 52.345531644063186 ], [ 10.297015017151534, 52.364239320193427 ], [ 10.31397914164171, 52.377260120795995 ], [ 10.339051767110174, 52.377009757162583 ], [ 10.363201473337202, 52.375204460876112 ], [ 10.358191342622217, 52.351649758523671 ], [ 10.363377267350099, 52.34079743265017 ], [ 10.385263625099656, 52.33616822630394 ], [ 10.402469466469851, 52.339056591439828 ], [ 10.421015737974395, 52.349896161824383 ], [ 10.429695568371704, 52.365003805470565 ], [ 10.450966647525284, 52.375573432614935 ], [ 10.466985879083857, 52.3803829574166 ], [ 10.47190811234324, 52.370209862274308 ], [ 10.459514633086654, 52.361260335779868 ], [ 10.465008196663366, 52.349606086226615 ], [ 10.444835830764116, 52.337988314394003 ], [ 10.449340552232266, 52.326591741514626 ], [ 10.474281331966482, 52.325127384792104 ], [ 10.496299535450287, 52.338542239185003 ], [ 10.49999999973614, 52.33921036573409 ], [ 10.517482717148262, 52.342366767732891 ], [ 10.51875722441549, 52.3607594247759 ], [ 10.528645639212897, 52.374835486589035 ], [ 10.547499549566275, 52.365254237506555 ], [ 10.555190538753333, 52.354273430128913 ], [ 10.549367360840996, 52.344964620327829 ], [ 10.568638782985603, 52.343474500650501 ], [ 10.574923420069501, 52.369946279573576 ], [ 10.589206685189287, 52.356330068534035 ], [ 10.600479478399691, 52.358202053398088 ], [ 10.607181626376505, 52.370723844818734 ], [ 10.630232619349202, 52.361102154147787 ], [ 10.647658203909252, 52.365979164334199 ], [ 10.644845498804616, 52.380975876256805 ], [ 10.653657174936169, 52.390935712979456 ], [ 10.672533059878027, 52.386759707429682 ], [ 10.689870747880789, 52.35863708048533 ], [ 10.722150927877957, 52.344569018070167 ], [ 10.748959518886895, 52.3406787409942 ], [ 10.771790769568051, 52.319968766308939 ], [ 10.781481416662396, 52.305228411893005 ], [ 10.786645365903485, 52.288634664136708 ], [ 10.807345114739734, 52.27717248629132 ], [ 10.837230101423495, 52.274266852403663 ], [ 10.863203670646602, 52.276155535987009 ], [ 10.905635956909677, 52.280011897879824 ], [ 10.934180514357401, 52.286403206321687 ], [ 10.93752060060241, 52.299631855631361 ], [ 10.903987887926492, 52.311721638139112 ], [ 10.895791490390915, 52.323953225473744 ], [ 10.877223245196202, 52.318068765225298 ], [ 10.831729263289612, 52.350359025786325 ], [ 10.797764339689472, 52.37671986041552 ], [ 10.753398318386235, 52.410901280752213 ], [ 10.731995394396719, 52.434582150444953 ], [ 10.724062688329639, 52.456382515572137 ], [ 10.715294960476729, 52.47141410728721 ], [ 10.681960015503876, 52.479039713902793 ], [ 10.689387314120747, 52.495837656792084 ], [ 10.705354316730388, 52.500000000004945 ], [ 10.713734788050836, 52.502209608312036 ], [ 10.731797625795343, 52.517052622805814 ], [ 10.760935488148878, 52.546192456948724 ], [ 10.760737719547503, 52.574450412283156 ], [ 10.773790427475339, 52.597147048899664 ], [ 10.791743393175759, 52.605792805163084 ], [ 10.814882283604062, 52.607370603260051 ], [ 10.828506321849229, 52.599719738252354 ], [ 10.837339972569266, 52.587411890698306 ], [ 10.863159722367955, 52.587902679487762 ], [ 10.86764247014594, 52.571226028055612 ], [ 10.88396934145166, 52.557025286710655 ], [ 10.909701193794746, 52.55239245710176 ], [ 10.927742057849088, 52.527401215589705 ], [ 10.963251182727683, 52.500000000004945 ], [ 10.985424476752033, 52.483075489171846 ], [ 10.986660799331478, 52.482848175455402 ] ] ], [ [ [ 10.42004959000486, 51.931859163226477 ], [ 10.422312218931788, 51.931338111166546 ], [ 10.45265866478711, 51.92774481450229 ], [ 10.454372656637416, 51.911525313569229 ], [ 10.49014674410064, 51.903373844857107 ], [ 10.49999999973614, 51.908284772214472 ], [ 10.522646667287665, 51.919569974139236 ], [ 10.549213541416581, 51.929508593231077 ], [ 10.578724965486071, 51.930285160260738 ], [ 10.613949696322127, 51.909405284847587 ], [ 10.63638541069885, 51.880320451400252 ], [ 10.684678300485629, 51.882125344228037 ], [ 10.690947485648325, 51.852086916974038 ], [ 10.638802578600737, 51.839084540747088 ], [ 10.610628460325042, 51.827806423993081 ], [ 10.586130289514466, 51.825933268479702 ], [ 10.524558427739347, 51.840020943286284 ], [ 10.520031730784401, 51.862093274226204 ], [ 10.49999999973614, 51.863981276381743 ], [ 10.496255587171643, 51.864334180838306 ], [ 10.467491287432379, 51.869883236747555 ], [ 10.394756503592628, 51.873323042477026 ], [ 10.353532800831337, 51.886763424990768 ], [ 10.33349228066634, 51.914132416229066 ], [ 10.310089698769534, 51.939010739611902 ], [ 10.259614835293611, 51.953023372169412 ], [ 10.239112855058735, 51.920596847869817 ], [ 10.23381464271697, 51.898595260311879 ], [ 10.230716712628155, 51.882247380071952 ], [ 10.228516430375203, 51.859726095870876 ], [ 10.23069671612993, 51.84694444014665 ], [ 10.233497993765837, 51.841946837706459 ], [ 10.234511446119924, 51.840178283319453 ], [ 10.275128659401979, 51.781174217843123 ], [ 10.264734836256052, 51.758837396352376 ], [ 10.189055502475727, 51.754040994405813 ], [ 10.177540993283618, 51.790523058397532 ], [ 10.186110952535151, 51.819798205922467 ], [ 10.180199878065526, 51.845533452311614 ], [ 10.159500129229276, 51.857241986270715 ], [ 10.116474538060388, 51.854473352786826 ], [ 10.075382681931666, 51.844926845741021 ], [ 10.042794861289035, 51.826922716052245 ], [ 10.018645155062007, 51.829416027379317 ], [ 10.007438285617042, 51.843805920930357 ], [ 9.999999999705929, 51.848410256974866 ], [ 9.982349327878399, 51.859351306750952 ], [ 9.953805480998064, 51.874113764979157 ], [ 9.924230457104773, 51.881229639175899 ], [ 9.866067706324465, 51.88643405232898 ], [ 9.831665898763992, 51.892520470602733 ], [ 9.78429759279687, 51.893086913213708 ], [ 9.749851905229713, 51.894786198542661 ], [ 9.721286118795195, 51.908035771764673 ], [ 9.702571359275957, 51.900476357492728 ], [ 9.697612935588726, 51.876222289809157 ], [ 9.674948989841029, 51.871741555546485 ], [ 9.652526382782618, 51.848948757616846 ], [ 9.628677680447732, 51.828637707132401 ], [ 9.607483709983192, 51.803803514019023 ], [ 9.589076109612426, 51.780196966776472 ], [ 9.598091832670878, 51.751251391819764 ], [ 9.556253976902664, 51.71497685001728 ], [ 9.529399504440589, 51.685051003741307 ], [ 9.523848702010605, 51.66820069794894 ], [ 9.511123544089873, 51.648973330164779 ], [ 9.499999999675717, 51.647599453290624 ], [ 9.478630510082763, 51.644959973467941 ], [ 9.439489677071844, 51.645979903285934 ], [ 9.437370866625271, 51.646575050091322 ], [ 9.436352267822922, 51.673522528270126 ], [ 9.420489698856638, 51.68855793428245 ], [ 9.419019723573477, 51.71003027081774 ], [ 9.442122468489693, 51.71710609197882 ], [ 9.43652778695134, 51.72829287680571 ], [ 9.423692928564741, 51.740441798396134 ], [ 9.440103995368778, 51.762589596096511 ], [ 9.446115535623152, 51.782415560337405 ], [ 9.433631716391703, 51.788304865594306 ], [ 9.444053182495555, 51.828479402602056 ], [ 9.458884574448886, 51.839058162848914 ], [ 9.454145549896753, 51.854025081588034 ], [ 9.467967704391311, 51.86020818928327 ], [ 9.470403036228245, 51.859997265745847 ], [ 9.489907633172834, 51.884708098540251 ], [ 9.483150134601475, 51.907825073675852 ], [ 9.462416902859641, 51.926573310478084 ], [ 9.419612102316231, 51.925441266804071 ], [ 9.405724127362491, 51.918595738918832 ], [ 9.33281774464222, 51.950063323567299 ], [ 9.333932042768417, 51.997965596716547 ], [ 9.34365606946209, 51.992747941705289 ], [ 9.374437789496755, 51.975710555175901 ], [ 9.399010508797815, 51.96925410299562 ], [ 9.413293402913389, 51.985531510683607 ], [ 9.439295614021013, 51.999999999749583 ], [ 9.456756400862105, 52.009822774227878 ], [ 9.48049540362944, 52.03027992821724 ], [ 9.499999999675717, 52.036833787460239 ], [ 9.503971127254992, 52.038168031693758 ], [ 9.508337173097788, 52.045975079825979 ], [ 9.499999999675717, 52.049479987324659 ], [ 9.460968867130665, 52.065884811978158 ], [ 9.468372482563389, 52.092694914746616 ], [ 9.499999999675717, 52.089885248306622 ], [ 9.537629989447941, 52.086542113580073 ], [ 9.544603874204938, 52.068777617695339 ], [ 9.571063428403493, 52.042669201158937 ], [ 9.62738322429299, 52.000108976439499 ], [ 9.627496918668609, 51.999999999749583 ], [ 9.652548322336804, 51.976249646176122 ], [ 9.71953092391775, 51.968543967944505 ], [ 9.750224883939051, 51.986057337276812 ], [ 9.776243884559333, 51.999999999749583 ], [ 9.786447988008833, 52.005528546146842 ], [ 9.786990388082438, 51.999999999749583 ], [ 9.788356480389512, 51.986228229569704 ], [ 9.792371487077155, 51.964559110127645 ], [ 9.82721209290783, 51.945313679660288 ], [ 9.885857521965026, 51.928771499724249 ], [ 9.933006428797045, 51.910906434031901 ], [ 9.946850522845788, 51.922374073343683 ], [ 9.963744267926714, 51.932996457863418 ], [ 9.980747712575189, 51.929956107697777 ], [ 9.998650694216572, 51.920083414233275 ], [ 9.999999999705929, 51.920243375181876 ], [ 10.027566703237646, 51.923506195326119 ], [ 10.03433477318327, 51.935233812770754 ], [ 10.030687047191115, 51.956746177154429 ], [ 10.065362421400009, 51.969780122201861 ], [ 10.084523971500532, 51.939273928357537 ], [ 10.115134108824352, 51.905915576911909 ], [ 10.117441405580472, 51.872242365529949 ], [ 10.163609315291305, 51.871939244469978 ], [ 10.167015324403438, 51.906257975779909 ], [ 10.165213435995843, 51.941563603685665 ], [ 10.15873103031057, 51.960508130420457 ], [ 10.160708713629377, 51.974987374069293 ], [ 10.168399702816437, 51.986293957413423 ], [ 10.197713359182865, 51.983730506874352 ], [ 10.208653473005896, 51.999999999749583 ], [ 10.209689327546535, 52.001557543423381 ], [ 10.204239713146784, 52.021566861627832 ], [ 10.185385801895091, 52.037477546688109 ], [ 10.214809329407291, 52.047807147914554 ], [ 10.242584787936311, 52.036826887237268 ], [ 10.261680415169707, 52.009849348029782 ], [ 10.293565058862439, 52.011403889222983 ], [ 10.335733654555332, 52.019335191740147 ], [ 10.351401340308932, 51.999999999749583 ], [ 10.356125762746121, 51.994233145522053 ], [ 10.332920949450692, 51.984414108362579 ], [ 10.331668417670262, 51.968070537923673 ], [ 10.357048681987557, 51.955654361798359 ], [ 10.367794092260958, 51.945603145811788 ], [ 10.38560964806226, 51.945531865320959 ], [ 10.382108107611238, 51.939451251287892 ], [ 10.383605399763871, 51.930035357782792 ], [ 10.397081030035894, 51.92465395557462 ], [ 10.413925567202186, 51.926896285449544 ], [ 10.42004959000486, 51.931859163226477 ] ] ], [ [ [ 11.030449724929891, 51.707067353724881 ], [ 11.024274959890077, 51.698759563317019 ], [ 11.014913927131357, 51.683118767204839 ], [ 10.999999999766354, 51.681305328768453 ], [ 10.993906539446277, 51.68056438198456 ], [ 10.984347738086178, 51.664242013960362 ], [ 10.965340007410074, 51.642297450557756 ], [ 10.957671259611132, 51.643036588651093 ], [ 10.919875273750819, 51.646681919747095 ], [ 10.897650951825071, 51.648986575012032 ], [ 10.893108214552411, 51.649427360036299 ], [ 10.868257749640232, 51.651291113068815 ], [ 10.857986322850081, 51.652071450535317 ], [ 10.851290767609138, 51.65301943918854 ], [ 10.841493106909939, 51.654747699066668 ], [ 10.830022545996476, 51.663963966005106 ], [ 10.81782683444295, 51.668783217383947 ], [ 10.815975920478722, 51.669437089819276 ], [ 10.825737565921552, 51.679465819117347 ], [ 10.777789741493283, 51.676209680899831 ], [ 10.770296520907598, 51.68952394624479 ], [ 10.768692400203063, 51.690529635427531 ], [ 10.79178734235272, 51.700810195577695 ], [ 10.831934305549844, 51.718071491459625 ], [ 10.852963667823404, 51.739926296289354 ], [ 10.847228387366673, 51.767517185645353 ], [ 10.838877657468649, 51.777041148535993 ], [ 10.841295338308564, 51.777529226818068 ], [ 10.870850711555013, 51.797678623674926 ], [ 10.882035607309813, 51.81924402944302 ], [ 10.871422041872345, 51.840429789061695 ], [ 10.888715780698146, 51.84782793347307 ], [ 10.903218789007788, 51.832621509211521 ], [ 10.969646961175162, 51.830656035307534 ], [ 10.977272028393413, 51.838055793990833 ], [ 10.98619357567074, 51.830537312309907 ], [ 10.999999999766354, 51.829513396400003 ], [ 11.016254356367392, 51.828307905953032 ], [ 11.022582941729937, 51.812197479344107 ], [ 11.03416337378917, 51.79547398639496 ], [ 11.036382773987997, 51.768732486501143 ], [ 11.022143457146855, 51.765707383236162 ], [ 11.030515647797015, 51.748662600949537 ], [ 11.015748948917189, 51.747446757024917 ], [ 11.018429807389261, 51.726851709553202 ], [ 11.030449724929891, 51.707067353724881 ] ] ], [ [ [ 10.632564874897174, 51.795065452299681 ], [ 10.641637257395541, 51.781517571139624 ], [ 10.667610827516963, 51.772351774577139 ], [ 10.671434347522011, 51.772193271279157 ], [ 10.686640531883235, 51.756023040715917 ], [ 10.705930192523056, 51.730600366878875 ], [ 10.706599747328498, 51.729707159014673 ], [ 10.724875735526989, 51.704262984545082 ], [ 10.73070177008193, 51.694428188830024 ], [ 10.731107634317187, 51.693765685235384 ], [ 10.738764888172067, 51.681484268403025 ], [ 10.729402432481935, 51.678883437770708 ], [ 10.754980464502291, 51.669617266359005 ], [ 10.751486557934552, 51.649741523200277 ], [ 10.724084662019804, 51.64140990836929 ], [ 10.708790581101292, 51.627683893818798 ], [ 10.715800367926935, 51.609128591394622 ], [ 10.712811869707716, 51.592767093903689 ], [ 10.72076654946496, 51.579875259198715 ], [ 10.718613073031573, 51.560318279394203 ], [ 10.700550235287066, 51.560623507260267 ], [ 10.690420103609638, 51.57163688419616 ], [ 10.669214947323184, 51.576970109620952 ], [ 10.649789706652475, 51.5762139443828 ], [ 10.635440517767249, 51.564378972240576 ], [ 10.614235361480794, 51.568598521612124 ], [ 10.617773217225492, 51.607683608479583 ], [ 10.615773559318205, 51.634004208923358 ], [ 10.580966634920792, 51.630787174666693 ], [ 10.582526511800955, 51.642456411994402 ], [ 10.595073811380271, 51.671947225684264 ], [ 10.600853041013963, 51.691350049486203 ], [ 10.579647884727509, 51.69849495919803 ], [ 10.573912604270774, 51.737665946834419 ], [ 10.578637068928781, 51.767688914850666 ], [ 10.608544030201021, 51.776168882749296 ], [ 10.624387467746702, 51.791315243500073 ], [ 10.632564874897174, 51.795065452299681 ] ] ], [ [ [ 11.224570293089243, 52.476673288814162 ], [ 11.245995191667239, 52.489489896318936 ], [ 11.254784894108628, 52.484378294273775 ], [ 11.260827814312506, 52.479631300463701 ], [ 11.274145531537362, 52.472308344439739 ], [ 11.278629597143871, 52.470332083895293 ], [ 11.297085334637455, 52.462866590513315 ], [ 11.326750579029675, 52.460893850253676 ], [ 11.374544583135211, 52.44905553971784 ], [ 11.374544583135211, 52.425369323620821 ], [ 11.383196946644388, 52.423888509754917 ], [ 11.391231173118358, 52.422870471337696 ], [ 11.399265620577888, 52.422407646448058 ], [ 11.421514553647473, 52.420309605602078 ], [ 11.425211942101795, 52.419828587377005 ], [ 11.443763486717058, 52.417471074193124 ], [ 11.447838172980601, 52.416633512912284 ], [ 11.451699488702916, 52.413312206032778 ], [ 11.454608221016484, 52.41009295691714 ], [ 11.458596108464011, 52.402658023890702 ], [ 11.450355763548103, 52.380923172757271 ], [ 11.42728279508861, 52.381911353678341 ], [ 11.41574631130802, 52.39574355614802 ], [ 11.394321412730024, 52.397719229554994 ], [ 11.395969481713207, 52.378946743683947 ], [ 11.367952307202483, 52.361154881421676 ], [ 11.321806372080129, 52.352256249264087 ], [ 11.282252712890504, 52.337421193431084 ], [ 11.241050984717692, 52.327528377072888 ], [ 11.231162569920285, 52.339399489969487 ], [ 11.22292222410606, 52.364120691786475 ], [ 11.209737671342289, 52.397719229554994 ], [ 11.203145394511248, 52.420433084092146 ], [ 11.201497325528063, 52.438200945475401 ], [ 11.208089602359108, 52.466811805618896 ], [ 11.224570293089243, 52.476673288814162 ] ] ] ] } }
]
}
