{
"type": "FeatureCollection",
"name": "BrunswickLuneburg",
"crs": { "type": "name", "properties": { "name": "urn:ogc:def:crs:OGC:1.3:CRS84" } },
"features": [
{ "type": "Feature", "properties": { "OBJECTID": 91.0, "YEAR": 1700.0, "OWNER_ID": 7708.0, "SHORT_NAME": "Hanover", "LONG_NAME": "Electorate of Brunswick-LÃ?Â¼neburg", "VARIANTS": "Electorate of Hanover", "SHAPE_LENG": 3714336.0, "Shape__Are": 58768485844.870117, "Shape__Len": 3718944.5326581458 }, "geometry": { "type": "MultiPolygon", "coordinates": [ [ [ [ 11.214777389867789, 53.067159650342504 ], [ 11.215165312051875, 53.065367108889376 ], [ 11.231711926547451, 53.045878836061853 ], [ 11.303128254841331, 53.02134660624391 ], [ 11.351383719016743, 53.019247367169072 ], [ 11.378565872639951, 53.024216286437124 ], [ 11.402539783955771, 53.039969537732233 ], [ 11.442950439519709, 53.042346634001142 ], [ 11.487426331070401, 53.023671593332111 ], [ 11.499999999796566, 53.022651755336014 ], [ 11.517728828647078, 53.021213746314395 ], [ 11.53563784696717, 53.028640000564913 ], [ 11.562160772817439, 53.01100885392448 ], [ 11.557942871741412, 52.999999999855014 ], [ 11.553656735534716, 52.988939643008088 ], [ 11.535110464928485, 52.988256243788243 ], [ 11.499999999796566, 52.997915123097918 ], [ 11.494985475421526, 52.999294440110312 ], [ 11.478812423540219, 52.942456895053752 ], [ 11.499885734092425, 52.933575411779415 ], [ 11.499999999796566, 52.932550543801831 ], [ 11.500852600714193, 52.924902684809169 ], [ 11.499999999796566, 52.924792778484047 ], [ 11.47052812944735, 52.920993464966763 ], [ 11.404934978167493, 52.889772796182342 ], [ 11.381466474301879, 52.890036245079038 ], [ 11.311983879251532, 52.868783916184007 ], [ 11.257026267997622, 52.868665305681631 ], [ 11.243468152619581, 52.876242527975144 ], [ 11.238392099935785, 52.868770737315742 ], [ 11.205254923564306, 52.863749283243479 ], [ 11.192312086782239, 52.880551067870364 ], [ 11.147704349497294, 52.893605820358459 ], [ 11.102920818199458, 52.875530984665566 ], [ 11.087450942369733, 52.893553135176688 ], [ 11.006212122145572, 52.893500449930485 ], [ 10.999999999766354, 52.88212927093651 ], [ 10.992236495874614, 52.867914100077584 ], [ 10.970240266080975, 52.854495626549848 ], [ 10.922556133121207, 52.850738233990612 ], [ 10.865071481921323, 52.847863938202103 ], [ 10.769988881160453, 52.827052549824025 ], [ 10.773482787728193, 52.798905636745765 ], [ 10.785590601826112, 52.765601873719817 ], [ 10.839735165882674, 52.714183032052993 ], [ 10.859314227774426, 52.707767924812728 ], [ 10.88276075705156, 52.662160299909523 ], [ 10.896516641030976, 52.638609843219278 ], [ 10.926599396316114, 52.612090397713544 ], [ 10.954946185162461, 52.580009593824158 ], [ 10.981952544772772, 52.586005815865313 ], [ 10.998894694674467, 52.58058006609857 ], [ 10.988127309812583, 52.562599960495085 ], [ 10.973953915838567, 52.557038560556393 ], [ 10.972459666279802, 52.541784213204231 ], [ 10.990918040328742, 52.51491351983627 ], [ 10.999999999766354, 52.509577388886228 ], [ 11.011859505146699, 52.502608322843066 ], [ 11.008029466965947, 52.500000000004945 ], [ 10.999999999766354, 52.494593444054537 ], [ 10.988830485864165, 52.487071460051062 ], [ 10.986660799331478, 52.482848175455402 ], [ 10.985424476752033, 52.483075489171846 ], [ 10.963251182727683, 52.500000000004945 ], [ 10.927742057849088, 52.527401215589705 ], [ 10.909701193794746, 52.55239245710176 ], [ 10.88396934145166, 52.557025286710655 ], [ 10.86764247014594, 52.571226028055612 ], [ 10.863159722367955, 52.587902679487762 ], [ 10.837339972569266, 52.587411890698306 ], [ 10.828506321849229, 52.599719738252354 ], [ 10.814882283604062, 52.607370603260051 ], [ 10.791743393175759, 52.605792805163084 ], [ 10.773790427475339, 52.597147048899664 ], [ 10.760737719547503, 52.574450412283156 ], [ 10.760935488148878, 52.546192456948724 ], [ 10.731797625795343, 52.517052622805814 ], [ 10.713734788050836, 52.502209608312036 ], [ 10.705354316730388, 52.500000000004945 ], [ 10.689387314120747, 52.495837656792084 ], [ 10.681960015503876, 52.479039713902793 ], [ 10.715294960476729, 52.47141410728721 ], [ 10.724062688329639, 52.456382515572137 ], [ 10.731995394396719, 52.434582150444953 ], [ 10.753398318386235, 52.410901280752213 ], [ 10.797764339689472, 52.37671986041552 ], [ 10.831729263289612, 52.350359025786325 ], [ 10.877223245196202, 52.318068765225298 ], [ 10.895791490390915, 52.323953225473744 ], [ 10.903987887926492, 52.311721638139112 ], [ 10.93752060060241, 52.299631855631361 ], [ 10.934180514357401, 52.286403206321687 ], [ 10.905635956909677, 52.280011897879824 ], [ 10.863203670646602, 52.276155535987009 ], [ 10.837230101423495, 52.274266852403663 ], [ 10.807345114739734, 52.27717248629132 ], [ 10.786645365903485, 52.288634664136708 ], [ 10.781481416662396, 52.305228411893005 ], [ 10.771790769568051, 52.319968766308939 ], [ 10.748959518886895, 52.3406787409942 ], [ 10.722150927877957, 52.344569018070167 ], [ 10.689870747880789, 52.35863708048533 ], [ 10.672533059878027, 52.386759707429682 ], [ 10.653657174936169, 52.390935712979456 ], [ 10.644845498804616, 52.380975876256805 ], [ 10.647658203909252, 52.365979164334199 ], [ 10.630232619349202, 52.361102154147787 ], [ 10.607181626376505, 52.370723844818734 ], [ 10.600479478399691, 52.358202053398088 ], [ 10.589206685189287, 52.356330068534035 ], [ 10.574923420069501, 52.369946279573576 ], [ 10.568638782985603, 52.343474500650501 ], [ 10.549367360840996, 52.344964620327829 ], [ 10.555190538753333, 52.354273430128913 ], [ 10.547499549566275, 52.365254237506555 ], [ 10.528645639212897, 52.374835486589035 ], [ 10.51875722441549, 52.3607594247759 ], [ 10.517482717148262, 52.342366767732891 ], [ 10.49999999973614, 52.33921036573409 ], [ 10.496299535450287, 52.338542239185003 ], [ 10.474281331966482, 52.325127384792104 ], [ 10.449340552232266, 52.326591741514626 ], [ 10.444835830764116, 52.337988314394003 ], [ 10.465008196663366, 52.349606086226615 ], [ 10.459514633086654, 52.361260335779868 ], [ 10.47190811234324, 52.370209862274308 ], [ 10.466985879083857, 52.3803829574166 ], [ 10.450966647525284, 52.375573432614935 ], [ 10.429695568371704, 52.365003805470565 ], [ 10.421015737974395, 52.349896161824383 ], [ 10.402469466469851, 52.339056591439828 ], [ 10.385263625099656, 52.33616822630394 ], [ 10.363377267350099, 52.34079743265017 ], [ 10.358191342622217, 52.351649758523671 ], [ 10.363201473337202, 52.375204460876112 ], [ 10.339051767110174, 52.377009757162583 ], [ 10.31397914164171, 52.377260120795995 ], [ 10.297015017151534, 52.364239320193427 ], [ 10.296993042563054, 52.345531644063186 ], [ 10.290950123257492, 52.344727259730234 ], [ 10.263855866191575, 52.342023892878522 ], [ 10.233619291482025, 52.343672307145354 ], [ 10.200262372819004, 52.35522265989119 ], [ 10.168355754537791, 52.357925215637884 ], [ 10.134932913007647, 52.359414845793623 ], [ 10.108058399131584, 52.35120147724006 ], [ 10.094302515152169, 52.370012175122049 ], [ 10.060110574703316, 52.373346378381768 ], [ 10.051364820540572, 52.352717703863796 ], [ 10.083535130290285, 52.331037283902795 ], [ 10.060022677247712, 52.321697168723567 ], [ 10.056374951255558, 52.29567159850486 ], [ 10.036422327647848, 52.288515831809327 ], [ 10.023721208644117, 52.309689308484081 ], [ 9.999999999705929, 52.315890414349965 ], [ 9.99994515037131, 52.315904774922188 ], [ 9.999999999705929, 52.316150841238219 ], [ 10.002098541464745, 52.3255495468361 ], [ 9.999999999705929, 52.325495151510388 ], [ 9.951787006978835, 52.324243470227131 ], [ 9.923221220544315, 52.290166250229923 ], [ 9.888753592524662, 52.290826400074955 ], [ 9.873900261017148, 52.276234779603001 ], [ 9.852464950965011, 52.244367333376644 ], [ 9.835154347168064, 52.23713714414373 ], [ 9.81123982527231, 52.217925791883701 ], [ 9.806062002449977, 52.201484397294095 ], [ 9.830941880899505, 52.192725503228097 ], [ 9.824886460638448, 52.179928049320409 ], [ 9.815276772412451, 52.162638330868432 ], [ 9.830152043474149, 52.1558582825974 ], [ 9.843294061009217, 52.156388011197784 ], [ 9.849634699966241, 52.147726153687486 ], [ 9.841385287455854, 52.132848705631211 ], [ 9.825456898928703, 52.13519392431472 ], [ 9.822736347497484, 52.143633034950426 ], [ 9.805689023740639, 52.145116668558941 ], [ 9.778176352974947, 52.145514062091436 ], [ 9.76518791591243, 52.138983111329907 ], [ 9.748074771696404, 52.125653277052336 ], [ 9.731817284466597, 52.113326902156651 ], [ 9.665119901581615, 52.09992305314492 ], [ 9.668037912593752, 52.083888800404672 ], [ 9.684405098492791, 52.077614104503638 ], [ 9.78074332483193, 52.082880663808858 ], [ 9.774753724131742, 52.060204811082407 ], [ 9.775082822834394, 52.030784596268461 ], [ 9.79327102407006, 52.009224858660168 ], [ 9.786447988008833, 52.005528546146842 ], [ 9.776243884559333, 51.999999999749583 ], [ 9.750224883939051, 51.986057337276812 ], [ 9.71953092391775, 51.968543967944505 ], [ 9.652548322336804, 51.976249646176122 ], [ 9.627496918668609, 51.999999999749583 ], [ 9.62738322429299, 52.000108976439499 ], [ 9.571063428403493, 52.042669201158937 ], [ 9.544603874204938, 52.068777617695339 ], [ 9.537629989447941, 52.086542113580073 ], [ 9.532427214121959, 52.099790452397094 ], [ 9.551953750620736, 52.118443426372693 ], [ 9.595307049001901, 52.133259458950306 ], [ 9.588549551328857, 52.145355104774495 ], [ 9.513427235906754, 52.128793966949658 ], [ 9.500021940128216, 52.140612627372406 ], [ 9.499999999675717, 52.14060745613574 ], [ 9.4585993548546, 52.130847884450013 ], [ 9.441113231929236, 52.107997666808146 ], [ 9.468845301830031, 52.094406544375161 ], [ 9.468372482563389, 52.092694914746616 ], [ 9.460968867130665, 52.065884811978158 ], [ 9.499999999675717, 52.049479987324659 ], [ 9.508337173097788, 52.045975079825979 ], [ 9.503971127254992, 52.038168031693758 ], [ 9.499999999675717, 52.036833787460239 ], [ 9.48049540362944, 52.03027992821724 ], [ 9.456756400862105, 52.009822774227878 ], [ 9.439295614021013, 51.999999999749583 ], [ 9.413293402913389, 51.985531510683607 ], [ 9.399010508797815, 51.96925410299562 ], [ 9.374437789496755, 51.975710555175901 ], [ 9.34365606946209, 51.992747941705289 ], [ 9.333932042768417, 51.997965596716547 ], [ 9.330140261140672, 51.999999999749583 ], [ 9.309780820185189, 52.011045153808112 ], [ 9.281039513723936, 52.015163795149896 ], [ 9.250016454999987, 52.018139608643423 ], [ 9.215724347007063, 52.006407905106933 ], [ 9.199905658047461, 52.040690867283793 ], [ 9.173554261907434, 52.063947243302401 ], [ 9.172020009470748, 52.065300920207093 ], [ 9.202340990782711, 52.091873494312985 ], [ 9.23178437465595, 52.106380210066177 ], [ 9.276081090036703, 52.118589225526826 ], [ 9.326630685259431, 52.112226640153487 ], [ 9.364477062115608, 52.113552253764098 ], [ 9.386570569573051, 52.141857908362084 ], [ 9.380844248014647, 52.162241090945002 ], [ 9.356227648706906, 52.18735287637007 ], [ 9.322505979004237, 52.199089766323773 ], [ 9.295629566089664, 52.220530986722544 ], [ 9.317481734857822, 52.234731224441056 ], [ 9.309122621881569, 52.263369020757047 ], [ 9.331413589818245, 52.2848582850783 ], [ 9.368294609222332, 52.28452816614908 ], [ 9.377048640462107, 52.295790411540501 ], [ 9.428300313995138, 52.300542664239181 ], [ 9.424811864692748, 52.326407050731994 ], [ 9.432863818520534, 52.346903019195942 ], [ 9.441705609773674, 52.359520304875346 ], [ 9.479881085332504, 52.371277357421519 ], [ 9.47132451367365, 52.396112355404632 ], [ 9.4638649376903, 52.41117778485733 ], [ 9.452763333728646, 52.426066934017278 ], [ 9.429572829697378, 52.425751036168194 ], [ 9.420796858005104, 52.412283783856736 ], [ 9.396246078258232, 52.410756444442548 ], [ 9.396728326242096, 52.432608103714493 ], [ 9.396750696987615, 52.433621474264541 ], [ 9.408444678793709, 52.445069255808107 ], [ 9.444009302488872, 52.442832568226351 ], [ 9.457107440017257, 52.453620245104865 ], [ 9.446971192609377, 52.478080012546251 ], [ 9.390037078422939, 52.490725350752371 ], [ 9.379888330957881, 52.49087714409751 ], [ 9.366508202380341, 52.491077267944391 ], [ 9.352585620728599, 52.495969071081078 ], [ 9.332225366797784, 52.493248723154309 ], [ 9.302847802485411, 52.493248723154309 ], [ 9.301256560927103, 52.492053210342661 ], [ 9.294025106720264, 52.492161366789063 ], [ 9.287226574005043, 52.49226304782831 ], [ 9.270749687640135, 52.472097836919325 ], [ 9.230621558521261, 52.467009057101322 ], [ 9.217413721425324, 52.451568159873887 ], [ 9.185907983526173, 52.434068915013775 ], [ 9.151879154675035, 52.430923573834328 ], [ 9.139943834179658, 52.412968435804999 ], [ 9.127087035340558, 52.391976359530219 ], [ 9.088538581072394, 52.397548007960403 ], [ 9.090381535064889, 52.406239949031253 ], [ 9.098696768034459, 52.46608854276591 ], [ 9.079214111542367, 52.472203024977162 ], [ 9.080025889420222, 52.482313058290067 ], [ 9.095667635421679, 52.500000000004945 ], [ 9.103062813877253, 52.508455716060723 ], [ 9.100781061614555, 52.517836491863996 ], [ 9.079301871555733, 52.524372613015558 ], [ 9.049485508973158, 52.526192456497782 ], [ 9.03616797230967, 52.516667326612378 ], [ 9.034616659967428, 52.500000000004945 ], [ 9.034237258303808, 52.495969071081078 ], [ 9.013152987406823, 52.490593921262544 ], [ 8.999999999645505, 52.489284572245815 ], [ 8.990840079915962, 52.488372700711828 ], [ 8.924713135321218, 52.426501289364538 ], [ 8.895269751447994, 52.407425080139994 ], [ 8.881688935642705, 52.40878135770366 ], [ 8.82802387072527, 52.397666546143085 ], [ 8.790001974740683, 52.396547007321921 ], [ 8.723414291423227, 52.403184795821652 ], [ 8.670824283525402, 52.399273363417088 ], [ 8.665273481095435, 52.404975773435602 ], [ 8.643377432320575, 52.403474517936573 ], [ 8.642258496192568, 52.412573445367556 ], [ 8.654391276268864, 52.450055342901415 ], [ 8.655488272842696, 52.48453458638101 ], [ 8.644408609333532, 52.498084779891947 ], [ 8.644432692267994, 52.500000000004945 ], [ 8.644803527597052, 52.529818634028445 ], [ 8.598313066105346, 52.536537962597286 ], [ 8.59515346936726, 52.548369859305168 ], [ 8.594210053265957, 52.569023225061152 ], [ 8.582713530142486, 52.575710909520808 ], [ 8.572818622322197, 52.575684373181268 ], [ 8.548860220419767, 52.574171771315456 ], [ 8.528258627799659, 52.565771897400722 ], [ 8.512505759299231, 52.564577471380339 ], [ 8.506713618179951, 52.560370176410871 ], [ 8.502040413188714, 52.534493700571453 ], [ 8.499999999615302, 52.531872168707068 ], [ 8.498820437087083, 52.530356589384091 ], [ 8.4855635268238, 52.52686989713817 ], [ 8.437888062606525, 52.504362622618068 ], [ 8.437718369052714, 52.500000000004945 ], [ 8.436791066032692, 52.476423491993351 ], [ 8.386833848654394, 52.475700387870262 ], [ 8.337534829579761, 52.488293838825896 ], [ 8.309186271950601, 52.483051410560748 ], [ 8.293586618308419, 52.500000000004945 ], [ 8.293335241844138, 52.500276198992275 ], [ 8.314805063372855, 52.511711312684511 ], [ 8.317525614804081, 52.528171616473699 ], [ 8.307586826977099, 52.537495042768924 ], [ 8.28705629289262, 52.533852570801763 ], [ 8.284176923810756, 52.55198092112154 ], [ 8.286963294802842, 52.578749220786854 ], [ 8.274654994699803, 52.60987640041018 ], [ 8.265242765156392, 52.636476691824839 ], [ 8.269279712296552, 52.651340328629978 ], [ 8.290166523612623, 52.661246599800741 ], [ 8.316165339088462, 52.65763133714772 ], [ 8.34808793480531, 52.673851318850048 ], [ 8.383871958533891, 52.695900786217749 ], [ 8.416474692108578, 52.697700248844662 ], [ 8.43330261762862, 52.690475484596284 ], [ 8.471127054032289, 52.706445104952522 ], [ 8.443746023286661, 52.731955200711184 ], [ 8.440871893179526, 52.763541006071115 ], [ 8.454584348106541, 52.80153240060875 ], [ 8.467155927351337, 52.839820166349199 ], [ 8.432644419324989, 52.844976264497141 ], [ 8.337841988728194, 52.881908102981157 ], [ 8.301948265432063, 52.884951395769598 ], [ 8.255062638640142, 52.887612454105017 ], [ 8.222394084606334, 52.884345389098435 ], [ 8.178514227941566, 52.899242777099239 ], [ 8.137640141404026, 52.935378172149861 ], [ 8.107033941396105, 52.953033339090368 ], [ 8.09779723098111, 52.962949682458422 ], [ 8.101921938134637, 52.98733626616287 ], [ 8.098204188466095, 52.999999999855014 ], [ 8.097643651406877, 53.001931372086077 ], [ 8.087529344451521, 53.015938863892636 ], [ 8.089152881342608, 53.017613113195949 ], [ 8.133822593399003, 53.018915199250479 ], [ 8.158921871881939, 53.011885932006855 ], [ 8.171449571120089, 53.019048066834614 ], [ 8.177921850097137, 53.031429496084677 ], [ 8.232925250277709, 53.007845908416854 ], [ 8.236618269326488, 52.999999999855014 ], [ 8.248765878791511, 52.97448080398555 ], [ 8.265879023007512, 52.96146369146944 ], [ 8.328407819630643, 52.932272640045362 ], [ 8.38994931834913, 52.904220597648319 ], [ 8.437888062606525, 52.888047165881176 ], [ 8.457590118233728, 52.878601078417752 ], [ 8.469393799607342, 52.869732786296737 ], [ 8.489688233977319, 52.873554413558274 ], [ 8.480868382278343, 52.892328183840952 ], [ 8.481043901406762, 52.913911213381553 ], [ 8.490565830517715, 52.931904172039829 ], [ 8.499999999615302, 52.935950316266634 ], [ 8.522444547126204, 52.945574848203847 ], [ 8.53584984290474, 52.963133784035556 ], [ 8.543879857178323, 52.995654776857471 ], [ 8.557855591247124, 52.988979069460839 ], [ 8.579650716096443, 52.9988986909541 ], [ 8.582111662495379, 52.999999999855014 ], [ 8.588569077947753, 53.002923476178005 ], [ 8.598828846402137, 53.008387346486138 ], [ 8.607531977301283, 53.013681494777053 ], [ 8.608543846823864, 53.017313185622214 ], [ 8.606035674193784, 53.02068230140145 ], [ 8.641118058888237, 53.022312221752287 ], [ 8.663544834129565, 53.023457965405314 ], [ 8.687915487288929, 53.025199373479374 ], [ 8.685677615032924, 53.01213842079612 ], [ 8.725981263280209, 53.008417381929043 ], [ 8.751431580020007, 53.00816487126427 ], [ 8.760799929556692, 53.015633246084825 ], [ 8.77760591462426, 53.021585753406008 ], [ 8.797000812001292, 53.022196902115368 ], [ 8.800225837533153, 53.02153263967957 ], [ 8.845707453231533, 53.012111843469427 ], [ 8.874865617510507, 53.028387608798873 ], [ 8.878560616446155, 53.04474716515147 ], [ 8.890377147321621, 53.043581610237659 ], [ 8.905800917119405, 53.016510229727771 ], [ 8.939939445538075, 53.007473781740103 ], [ 8.959158822888401, 53.007141523286705 ], [ 8.981866649541097, 53.006450416755996 ], [ 8.980182482656536, 52.999999999855014 ], [ 8.974714232706209, 52.97929219404449 ], [ 8.983577963513532, 52.959306941313393 ], [ 8.973134557855497, 52.938641370987575 ], [ 8.953410561775813, 52.935588708621538 ], [ 8.963064130008492, 52.897096078985932 ], [ 8.987856249342959, 52.89631902674148 ], [ 8.98851444764658, 52.878390263998114 ], [ 8.999999999645505, 52.877830601130121 ], [ 9.009335439401781, 52.877375702482134 ], [ 9.013218806967689, 52.889417137809808 ], [ 9.033973979162024, 52.889865003832377 ], [ 9.03592663272207, 52.905748067692336 ], [ 9.060982031198332, 52.906906801803132 ], [ 9.073465850429779, 52.925034302432842 ], [ 9.090688694213357, 52.937075592573237 ], [ 9.127306435373978, 52.94352255012722 ], [ 9.161510783353531, 52.927521795617231 ], [ 9.176232475739308, 52.904523462178645 ], [ 9.160391847225524, 52.889035130603411 ], [ 9.147184010129589, 52.884384911425784 ], [ 9.133361855635032, 52.861165840969619 ], [ 9.156947277929818, 52.853796908198767 ], [ 9.152581232985339, 52.847798011349134 ], [ 9.183867570851074, 52.848114457802822 ], [ 9.22480747694949, 52.859149066649287 ], [ 9.257410210524151, 52.863261604486823 ], [ 9.306950569186421, 52.859452247697341 ], [ 9.341769235462912, 52.863894267977983 ], [ 9.382336163750306, 52.875478277407801 ], [ 9.41276684462982, 52.894567316338517 ], [ 9.439248338382559, 52.932983247546332 ], [ 9.472114351099002, 52.964001680471995 ], [ 9.499999999675717, 52.966855344202294 ], [ 9.50796419438845, 52.967670321479048 ], [ 9.525735536009783, 52.984812797877552 ], [ 9.549606177898855, 52.992159358452021 ], [ 9.589128857787593, 52.999999999855014 ], [ 9.598554158716688, 53.00189149580293 ], [ 9.665339300716717, 53.002077583723882 ], [ 9.68817876649115, 53.012523795873591 ], [ 9.764332258027892, 53.020881593608479 ], [ 9.766394611155487, 53.027617140458155 ], [ 9.779602448251422, 53.03103100759251 ], [ 9.833706312337405, 53.022117187677487 ], [ 9.869709734302772, 53.026660677666925 ], [ 9.889872528652669, 53.047525326662395 ], [ 9.911483358731541, 53.067026123291718 ], [ 9.90156651045876, 53.096771306227538 ], [ 9.886471840261963, 53.11127818483255 ], [ 9.852530770525878, 53.128536819928932 ], [ 9.818392242107189, 53.137839277918999 ], [ 9.769290681715123, 53.146132925646995 ], [ 9.734406195877764, 53.157762518979027 ], [ 9.701496303154634, 53.163311288788712 ], [ 9.695397002886896, 53.170990974783805 ], [ 9.677318502117096, 53.171096891932613 ], [ 9.650902827925226, 53.161139541287596 ], [ 9.63508413986394, 53.152981258470163 ], [ 9.602437526282596, 53.153895169201171 ], [ 9.578040325211639, 53.141178128030276 ], [ 9.549737817918905, 53.154107088035616 ], [ 9.523804822003921, 53.158755788641656 ], [ 9.519219377026024, 53.163019963568345 ], [ 9.543177778928463, 53.171388162062371 ], [ 9.56081748142806, 53.18187257761695 ], [ 9.594363632002311, 53.168197317637329 ], [ 9.620757366639996, 53.170818859059146 ], [ 9.601889027546525, 53.195993344556584 ], [ 9.593880953725423, 53.214289129343136 ], [ 9.606693872557839, 53.233515714391608 ], [ 9.597742381737147, 53.261625915172175 ], [ 9.581287434926425, 53.284673790923463 ], [ 9.605684635099067, 53.328093996152219 ], [ 9.636246955998629, 53.362758682033899 ], [ 9.653425919775524, 53.387095371569018 ], [ 9.638726167842247, 53.41382721415922 ], [ 9.664505583284681, 53.433766338745102 ], [ 9.700552886155045, 53.442673392110784 ], [ 9.728855394346093, 53.471158099435677 ], [ 9.765626714182631, 53.488770605895738 ], [ 9.81229294183945, 53.495064637817663 ], [ 9.881074617406211, 53.488428940642834 ], [ 9.931931371777406, 53.472551595040322 ], [ 9.96843941247216, 53.467503241646838 ], [ 9.979475196872947, 53.480714453258535 ], [ 9.999999999705929, 53.477521859721136 ], [ 10.011349703077698, 53.475759089906987 ], [ 10.018062340682084, 53.4848555050364 ], [ 10.038450878967934, 53.4848555050364 ], [ 10.052539567200551, 53.485475061183813 ], [ 10.065565533180692, 53.486238281432819 ], [ 10.088055982805992, 53.478821043644579 ], [ 10.10087764044949, 53.473037208199138 ], [ 10.117858916473386, 53.47084258481636 ], [ 10.134383556380479, 53.45405116650668 ], [ 10.166993350713275, 53.439700197516949 ], [ 10.208964177804789, 53.429226572500127 ], [ 10.245331569275509, 53.430753040749217 ], [ 10.253132429608337, 53.445593760475667 ], [ 10.276556986093619, 53.450263299610086 ], [ 10.258647967773529, 53.473721570229394 ], [ 10.246979673292985, 53.497718629415232 ], [ 10.263366467618047, 53.499999999893774 ], [ 10.299542056199193, 53.505095958753607 ], [ 10.304024804875494, 53.534183045256107 ], [ 10.437474455014369, 53.576920167909236 ], [ 10.49999999973614, 53.57277822264696 ], [ 10.504583829543156, 53.572474554947277 ], [ 10.514955678100605, 53.594870357026153 ], [ 10.49999999973614, 53.599595101198666 ], [ 10.453911197465857, 53.614151970484997 ], [ 10.400359938315107, 53.642368860730677 ], [ 10.385197702232528, 53.662343804617329 ], [ 10.375221390877833, 53.701034743885337 ], [ 10.472369571514799, 53.743166274438138 ], [ 10.49999999973614, 53.752267852701983 ], [ 10.574396038030816, 53.776764372350861 ], [ 10.642713996061394, 53.781254403422373 ], [ 10.644814123346686, 53.816044199647159 ], [ 10.647020949826484, 53.815996198907762 ], [ 10.671324476376242, 53.818621777262955 ], [ 10.684135466525742, 53.812064118923665 ], [ 10.686948171630378, 53.790312231928155 ], [ 10.721601571250792, 53.790246219977519 ], [ 10.719799682843195, 53.808276832140699 ], [ 10.745839174933426, 53.806508434287139 ], [ 10.75324449896182, 53.797823722011287 ], [ 10.778207252386199, 53.796543300028254 ], [ 10.796797472169393, 53.798272520387691 ], [ 10.790600732541098, 53.810454234321746 ], [ 10.801587859694521, 53.81429410225325 ], [ 10.811586145637698, 53.812050922995468 ], [ 10.817716962398865, 53.804159252852081 ], [ 10.826765788375539, 53.80481517667414 ], [ 10.82791301694342, 53.80489833531329 ], [ 10.833604349121506, 53.776896438773868 ], [ 10.868785131678917, 53.776183274490784 ], [ 10.876718498906046, 53.763187954815024 ], [ 10.876572331331221, 53.76235993352843 ], [ 10.875874922463764, 53.758408962683092 ], [ 10.871290196138094, 53.762696886806538 ], [ 10.85784195280414, 53.747871369298501 ], [ 10.855600578016832, 53.730343525193241 ], [ 10.853359204127838, 53.699314728735196 ], [ 10.85784195280414, 53.679066166711081 ], [ 10.869048822249102, 53.666912332615127 ], [ 10.870838183650063, 53.667346843823395 ], [ 10.872828393975507, 53.647244260120843 ], [ 10.918249179356117, 53.648131839824124 ], [ 10.933015878235944, 53.67464459101484 ], [ 10.959758547276072, 53.68400348285212 ], [ 10.988171258989544, 53.678179241335393 ], [ 10.987529950809897, 53.677275290488645 ], [ 10.979051943110846, 53.66532333611508 ], [ 10.977755461255137, 53.645681014501484 ], [ 10.999999999766354, 53.637400522280451 ], [ 11.032888867420258, 53.625154703913736 ], [ 11.051742777773637, 53.609339026243568 ], [ 11.014320622225545, 53.591288891270942 ], [ 11.013353754705465, 53.561179259662943 ], [ 10.999999999766354, 53.560266049942754 ], [ 10.950265668783102, 53.556864744963121 ], [ 10.943014164179122, 53.557369234057269 ], [ 10.883156294254311, 53.557820613884836 ], [ 10.8877269394879, 53.525893476232419 ], [ 10.8877269394879, 53.499999999893774 ], [ 10.8877269394879, 53.499991460622056 ], [ 10.867378778677441, 53.478795469235493 ], [ 10.813849494115171, 53.46981714495513 ], [ 10.791941161777133, 53.467818781208862 ], [ 10.759880724071509, 53.469159799126153 ], [ 10.738411876316551, 53.47218350674428 ], [ 10.727556594897379, 53.464137337168147 ], [ 10.671038811217576, 53.464899948187423 ], [ 10.641549360838251, 53.456300052158639 ], [ 10.624804978639615, 53.437292545781155 ], [ 10.61878403302422, 53.404900918706353 ], [ 10.603995358657597, 53.391705513973378 ], [ 10.583822992758346, 53.376384733306388 ], [ 10.616916220851182, 53.384210484157194 ], [ 10.667325161459981, 53.377425615049404 ], [ 10.705472468546446, 53.375172535021633 ], [ 10.725556937888404, 53.361598815814318 ], [ 10.743092392695912, 53.341876237161372 ], [ 10.735137712938666, 53.329307540406184 ], [ 10.777504076334619, 53.316919843345559 ], [ 10.801972189515787, 53.308083849349423 ], [ 10.811329925457416, 53.304634646059284 ], [ 10.82148335045016, 53.301124182585447 ], [ 10.831253104086743, 53.299301721081463 ], [ 10.865291225111179, 53.298404122966154 ], [ 10.91723836355739, 53.281610265457893 ], [ 10.919831325472172, 53.262471444411865 ], [ 10.966570565500341, 53.256407041163996 ], [ 10.969559064617874, 53.29120945375368 ], [ 10.951056742290286, 53.305874728612629 ], [ 10.956572279557163, 53.322368764718391 ], [ 10.993774693712027, 53.337867319817541 ], [ 10.999999999766354, 53.336081302964097 ], [ 11.03528406163198, 53.325957018346088 ], [ 11.048864150700187, 53.307537617555546 ], [ 11.044864836682242, 53.270080453860636 ], [ 11.086615920583903, 53.187034412002866 ], [ 11.131399452780055, 53.16389393434843 ], [ 11.167437230813464, 53.150067208015606 ], [ 11.181193113894565, 53.133201553066151 ], [ 11.167063668199193, 53.119073269091324 ], [ 11.135508637943772, 53.104343608566246 ], [ 11.139639797695967, 53.096691730323009 ], [ 11.155746926710144, 53.093548361362267 ], [ 11.171172854261224, 53.098323007616429 ], [ 11.196904706604309, 53.089648671901614 ], [ 11.215099389184751, 53.076846174692982 ], [ 11.212260699412203, 53.067568095317078 ], [ 11.214777389867789, 53.067159650342504 ] ], [ [ 8.599651736440066, 52.842652655154843 ], [ 8.576285131172094, 52.834215014002396 ], [ 8.550110796567797, 52.820152774390579 ], [ 8.529838302650369, 52.801044019418356 ], [ 8.523234384551557, 52.785993894872973 ], [ 8.532975712797613, 52.773316047182924 ], [ 8.552173149695394, 52.772166933868682 ], [ 8.575363654625004, 52.758943332769221 ], [ 8.604828978052412, 52.752468769971856 ], [ 8.659963742470241, 52.75863886941535 ], [ 8.662684569684268, 52.758943332769221 ], [ 8.690460518693415, 52.77251034996732 ], [ 8.707112925085044, 52.764492187850529 ], [ 8.737938524228095, 52.770278094756179 ], [ 8.764485837541692, 52.76055521628502 ], [ 8.785899208039664, 52.779998791659558 ], [ 8.787926457700886, 52.783067622310419 ], [ 8.789953706463809, 52.789804447191855 ], [ 8.789337414568202, 52.792694222872484 ], [ 8.78751574166478, 52.795686246622878 ], [ 8.783222536615131, 52.79781000447619 ], [ 8.771058162790274, 52.802624110787875 ], [ 8.767924263259186, 52.803950731014822 ], [ 8.74840387033864, 52.812658081193277 ], [ 8.748355163683916, 52.81569451195773 ], [ 8.74830645702923, 52.823823380805258 ], [ 8.74840387033864, 52.83557350586684 ], [ 8.746004519622087, 52.847661543243369 ], [ 8.741746418038778, 52.857755196346794 ], [ 8.735086333675143, 52.869798679129055 ], [ 8.726192325151187, 52.87819921199722 ], [ 8.721284363426697, 52.881604025351983 ], [ 8.715273261550173, 52.885120153679914 ], [ 8.709934838819697, 52.886384172182254 ], [ 8.707244564206805, 52.886598109411096 ], [ 8.695597752936257, 52.885279557642278 ], [ 8.685071414811219, 52.882764462513848 ], [ 8.672952456213858, 52.878930474973814 ], [ 8.657331226835193, 52.86467190377877 ], [ 8.662640689677586, 52.847020071673086 ], [ 8.612551833177561, 52.847310152447598 ], [ 8.599651736440066, 52.842652655154843 ] ], [ [ 8.917012220648584, 52.499109745053069 ], [ 8.917309506413792, 52.500000000004945 ], [ 8.924559555746985, 52.521954893325045 ], [ 8.947201561940513, 52.544798331584197 ], [ 8.935880558843749, 52.565347216216807 ], [ 8.92078588864695, 52.590449387010601 ], [ 8.871728208261587, 52.622376717483313 ], [ 8.815123192777794, 52.601854690378403 ], [ 8.800028521682663, 52.574476949373292 ], [ 8.811349524779427, 52.542514525214202 ], [ 8.849086202068053, 52.537946554225591 ], [ 8.871728208261587, 52.510528695656575 ], [ 8.913444787873191, 52.500000000004945 ], [ 8.917012220648584, 52.499109745053069 ] ], [ [ 10.527832591117232, 53.632748885290944 ], [ 10.543368389814079, 53.618023140373992 ], [ 10.554465388113272, 53.595255014905412 ], [ 10.583317585308142, 53.589896016599958 ], [ 10.601072783305504, 53.600613330332507 ], [ 10.592195184306821, 53.623378554027674 ], [ 10.576659385609974, 53.630071861106131 ], [ 10.527832591117232, 53.632748885290944 ] ], [ [ 10.678751774094801, 53.659509742914977 ], [ 10.669874175096119, 53.650145383725125 ], [ 10.696506972092163, 53.638102422257298 ], [ 10.705219545183258, 53.635337219965372 ], [ 10.715289247191523, 53.633147111113601 ], [ 10.722186087039862, 53.632571836092197 ], [ 10.72535916928703, 53.632748885290944 ], [ 10.741841838107423, 53.637861394810272 ], [ 10.747104452011108, 53.640056027578396 ], [ 10.763088964582266, 53.647469468656496 ], [ 10.738675567785052, 53.663522399963483 ], [ 10.714262170089523, 53.656834424972331 ], [ 10.678751774094801, 53.659509742914977 ] ], [ [ 10.354895204655854, 53.445107046690545 ], [ 10.378319760242821, 53.431950490819737 ], [ 10.385791007138341, 53.452236189520903 ], [ 10.379132808338488, 53.464189931270127 ], [ 10.350280611143619, 53.468173760666922 ], [ 10.332525413146257, 53.462861904656087 ], [ 10.341403012144937, 53.452236189520903 ], [ 10.354895204655854, 53.445107046690545 ] ] ], [ [ [ 9.956918600700018, 51.387946513818704 ], [ 9.941343601320801, 51.391339028917635 ], [ 9.935748919782448, 51.407896044124563 ], [ 9.910386362157716, 51.420694951745418 ], [ 9.87295684401756, 51.413334703328132 ], [ 9.8769937911577, 51.379744215339258 ], [ 9.860670484367029, 51.382827669903968 ], [ 9.843579279705185, 51.413821912033342 ], [ 9.820476535687288, 51.408923250093963 ], [ 9.808080475570891, 51.385713277813963 ], [ 9.774819543692608, 51.369767678135233 ], [ 9.756960442057911, 51.352643004106156 ], [ 9.783266416682228, 51.337965242439225 ], [ 9.796649772906582, 51.316962421484405 ], [ 9.838006537721016, 51.328058709410485 ], [ 9.847989205554663, 51.318044461538641 ], [ 9.821836810504578, 51.303804348178701 ], [ 9.795421137211024, 51.295791507402548 ], [ 9.771835714017922, 51.297454914700971 ], [ 9.748645209088339, 51.306813750558533 ], [ 9.734033217168429, 51.301032354873655 ], [ 9.704480133727635, 51.314006474693564 ], [ 9.669815046127065, 51.309031078541892 ], [ 9.649696131783852, 51.314798264968971 ], [ 9.606825511679572, 51.323243173012266 ], [ 9.561870597995203, 51.347170716766179 ], [ 9.538526514389698, 51.342080240253594 ], [ 9.531308277993951, 51.355148169801936 ], [ 9.55761425261827, 51.37878224062127 ], [ 9.595592268596183, 51.407882874659499 ], [ 9.629445578318903, 51.408291125743013 ], [ 9.641029860557444, 51.42559234577822 ], [ 9.635698457262558, 51.448953025444773 ], [ 9.619715877865893, 51.464817748986945 ], [ 9.618093859127637, 51.467063431426809 ], [ 9.614109567636188, 51.474169071355576 ], [ 9.599190416567806, 51.492444248524876 ], [ 9.588598549037712, 51.500000000093614 ], [ 9.587342855187481, 51.500905603839364 ], [ 9.581002216230456, 51.507256944035944 ], [ 9.587452554755032, 51.513899653382417 ], [ 9.611323196644104, 51.532321433354142 ], [ 9.638155729551992, 51.540606798944765 ], [ 9.645066806799271, 51.549010116371356 ], [ 9.638397069139593, 51.574170907945053 ], [ 9.653513679788892, 51.579013019584899 ], [ 9.688573685652985, 51.565705916765801 ], [ 9.715274578540823, 51.57033664897655 ], [ 9.721549397936981, 51.586268583179745 ], [ 9.718039009080409, 51.596824873567535 ], [ 9.672447837544915, 51.604952597518889 ], [ 9.678612957373522, 51.622833743802794 ], [ 9.651539085776346, 51.623310831050738 ], [ 9.628897079582835, 51.600776216972967 ], [ 9.598707738290921, 51.587223524785372 ], [ 9.579115382231278, 51.58305877001817 ], [ 9.544252835948102, 51.594517553143469 ], [ 9.522685885875914, 51.60348096459564 ], [ 9.51474363161568, 51.613039093070533 ], [ 9.499999999675717, 51.621642897529995 ], [ 9.498617784405925, 51.622449420070346 ], [ 9.465368100333317, 51.624427486502604 ], [ 9.449316560865547, 51.624546871714706 ], [ 9.43376335551344, 51.62466255012508 ], [ 9.424131727733259, 51.629393248405222 ], [ 9.437370866625271, 51.646575050091322 ], [ 9.439489677071844, 51.645979903285934 ], [ 9.478630510082763, 51.644959973467941 ], [ 9.499999999675717, 51.647599453290624 ], [ 9.511123544089873, 51.648973330164779 ], [ 9.523848702010605, 51.66820069794894 ], [ 9.529399504440589, 51.685051003741307 ], [ 9.556253976902664, 51.71497685001728 ], [ 9.598091832670878, 51.751251391819764 ], [ 9.612529892785476, 51.737071099199632 ], [ 9.641556418841015, 51.737983195464956 ], [ 9.673830053713024, 51.748543661377916 ], [ 9.704151034126671, 51.774108476981056 ], [ 9.701978981431521, 51.803790314686417 ], [ 9.738728361713875, 51.818544702548593 ], [ 9.781291822669685, 51.824086241042153 ], [ 9.794938458934137, 51.838807572598071 ], [ 9.784144014120951, 51.862897377123495 ], [ 9.74875490865589, 51.872782707544452 ], [ 9.725849623320592, 51.863292832247026 ], [ 9.71036003396196, 51.871227559923909 ], [ 9.697612935588726, 51.876222289809157 ], [ 9.702571359275957, 51.900476357492728 ], [ 9.721286118795195, 51.908035771764673 ], [ 9.749851905229713, 51.894786198542661 ], [ 9.78429759279687, 51.893086913213708 ], [ 9.831665898763992, 51.892520470602733 ], [ 9.866067706324465, 51.88643405232898 ], [ 9.924230457104773, 51.881229639175899 ], [ 9.953805480998064, 51.874113764979157 ], [ 9.982349327878399, 51.859351306750952 ], [ 9.999999999705929, 51.848410256974866 ], [ 10.007438285617042, 51.843805920930357 ], [ 10.018645155062007, 51.829416027379317 ], [ 10.042794861289035, 51.826922716052245 ], [ 10.075382681931666, 51.844926845741021 ], [ 10.116474538060388, 51.854473352786826 ], [ 10.159500129229276, 51.857241986270715 ], [ 10.180199878065526, 51.845533452311614 ], [ 10.186110952535151, 51.819798205922467 ], [ 10.177540993283618, 51.790523058397532 ], [ 10.189055502475727, 51.754040994405813 ], [ 10.264734836256052, 51.758837396352376 ], [ 10.275128659401979, 51.781174217843123 ], [ 10.234511446119924, 51.840178283319453 ], [ 10.233497993765837, 51.841946837706459 ], [ 10.23069671612993, 51.84694444014665 ], [ 10.228516430375203, 51.859726095870876 ], [ 10.230716712628155, 51.882247380071952 ], [ 10.23381464271697, 51.898595260311879 ], [ 10.239112855058735, 51.920596847869817 ], [ 10.259614835293611, 51.953023372169412 ], [ 10.310089698769534, 51.939010739611902 ], [ 10.33349228066634, 51.914132416229066 ], [ 10.353532800831337, 51.886763424990768 ], [ 10.394756503592628, 51.873323042477026 ], [ 10.467491287432379, 51.869883236747555 ], [ 10.496255587171643, 51.864334180838306 ], [ 10.49999999973614, 51.863981276381743 ], [ 10.520031730784401, 51.862093274226204 ], [ 10.524558427739347, 51.840020943286284 ], [ 10.586130289514466, 51.825933268479702 ], [ 10.610628460325042, 51.827806423993081 ], [ 10.632564874897174, 51.795065452299681 ], [ 10.624387467746702, 51.791315243500073 ], [ 10.608544030201021, 51.776168882749296 ], [ 10.578637068928781, 51.767688914850666 ], [ 10.573912604270774, 51.737665946834419 ], [ 10.579647884727509, 51.69849495919803 ], [ 10.600853041013963, 51.691350049486203 ], [ 10.595073811380271, 51.671947225684264 ], [ 10.582526511800955, 51.642456411994402 ], [ 10.580966634920792, 51.630787174666693 ], [ 10.561585046983001, 51.628995729808118 ], [ 10.557629681243702, 51.577712997007808 ], [ 10.528689272182877, 51.573230043628563 ], [ 10.522646667287665, 51.593576026765717 ], [ 10.49999999973614, 51.600056625918434 ], [ 10.498782626219301, 51.600404964584598 ], [ 10.457405104033596, 51.599781783874285 ], [ 10.42653127613959, 51.605695024500008 ], [ 10.395921138815767, 51.602247938011651 ], [ 10.3995449130275, 51.595521252059861 ], [ 10.402496934256293, 51.587362785545437 ], [ 10.403168687239235, 51.582286789413914 ], [ 10.40188275429991, 51.577443834512209 ], [ 10.398563982381646, 51.573266237710726 ], [ 10.391174699569282, 51.572472729314399 ], [ 10.370172805980481, 51.571504208502837 ], [ 10.3670689416209, 51.5705356669487 ], [ 10.33608524258112, 51.599662450655316 ], [ 10.283544799229096, 51.621442211181638 ], [ 10.234937747027894, 51.640522348159607 ], [ 10.215512505458873, 51.644575838142508 ], [ 10.200460140522063, 51.643940020586633 ], [ 10.197603488037094, 51.659846010301187 ], [ 10.106783891864358, 51.651820875021095 ], [ 10.110123979007682, 51.638694184471234 ], [ 10.121352823041125, 51.632626269762085 ], [ 10.117089817554678, 51.61961327438906 ], [ 10.067559847010356, 51.62561668036215 ], [ 10.036707992806512, 51.626557539560203 ], [ 10.002296310066122, 51.61555754156381 ], [ 9.999999999705929, 51.616231307945121 ], [ 9.964270826210281, 51.626729807280334 ], [ 9.916463721972958, 51.619493993559864 ], [ 9.920149629957947, 51.582607786132755 ], [ 9.961747734359982, 51.586069634449117 ], [ 9.98309528529707, 51.590565662364263 ], [ 9.999999999705929, 51.587567049179562 ], [ 10.004186095929326, 51.586825634854925 ], [ 10.036751941085159, 51.580856865569132 ], [ 10.070921907843845, 51.585260567219208 ], [ 10.113200374682506, 51.583284260273643 ], [ 10.099202773823068, 51.570323381043281 ], [ 10.102125350073475, 51.556403213925435 ], [ 10.098257880891467, 51.538323163456411 ], [ 10.086809294566482, 51.527686809808671 ], [ 10.058023020238737, 51.533888333332762 ], [ 10.056682591002701, 51.544470129040924 ], [ 10.045541643526548, 51.550324237890315 ], [ 10.032291167895654, 51.546846377764481 ], [ 10.02930266877812, 51.536012857353498 ], [ 10.035763099874913, 51.51922640302751 ], [ 10.034913717620951, 51.500000000093614 ], [ 10.034862155221957, 51.498845393127773 ], [ 10.024973740424549, 51.493758725456587 ], [ 10.02255657252266, 51.474734529331691 ], [ 10.035389537260643, 51.470342185556269 ], [ 10.05490267628527, 51.48591073240059 ], [ 10.077448261807762, 51.494192494853074 ], [ 10.094895820057978, 51.494126772483938 ], [ 10.107904578808853, 51.486147374786768 ], [ 10.103465779309515, 51.461608837744869 ], [ 10.070834011286555, 51.456412751181574 ], [ 10.054023706220793, 51.459491011043539 ], [ 10.032576833054319, 51.451966007526153 ], [ 10.000472446171731, 51.450716104912622 ], [ 9.999999999705929, 51.450477450742376 ], [ 9.976052568029742, 51.438359951876855 ], [ 9.977500603758717, 51.409529027125323 ], [ 9.959005243374582, 51.387491986348849 ], [ 9.956918600700018, 51.387946513818704 ] ] ], [ [ [ 8.948964889266223, 53.826438037623149 ], [ 8.949746594243329, 53.786470156935067 ], [ 8.952884003492242, 53.773573119610568 ], [ 8.955546852539472, 53.757861200877613 ], [ 8.956021413639453, 53.749562959846102 ], [ 8.957469448470139, 53.734732784827301 ], [ 8.958917484199088, 53.719897351095526 ], [ 8.959638210636383, 53.712443536109006 ], [ 8.964709625318367, 53.696142438734235 ], [ 8.970501766437646, 53.684387324933454 ], [ 8.972432479545176, 53.657589358942225 ], [ 8.952159985627747, 53.655258291626375 ], [ 8.920303209471767, 53.652052862463222 ], [ 8.945402487954702, 53.61852689647165 ], [ 8.966640338425904, 53.582347159809871 ], [ 8.942506417395068, 53.572713436017999 ], [ 8.900996073006398, 53.592270508235032 ], [ 8.863347155731146, 53.610943402413959 ], [ 8.834386450134767, 53.627566966076401 ], [ 8.810735207380814, 53.656715223742403 ], [ 8.766328791534185, 53.659628936205344 ], [ 8.713716843183853, 53.687299115309798 ], [ 8.697305776379833, 53.726879386451678 ], [ 8.687169529870268, 53.761190790341203 ], [ 8.634074944565551, 53.773105951779364 ], [ 8.634755041100853, 53.774030499574955 ], [ 8.649520612595008, 53.7940219415526 ], [ 8.684536738452408, 53.811747425064745 ], [ 8.734472015378207, 53.808540765810243 ], [ 8.753236139118927, 53.808250438947766 ], [ 8.755550582871464, 53.80821599538055 ], [ 8.7759823606652, 53.807960110065181 ], [ 8.789428903488295, 53.817510082755511 ], [ 8.79197108274176, 53.819861942627512 ], [ 8.805771632753725, 53.836050006510398 ], [ 8.811839659971488, 53.835642730291831 ], [ 8.850312798587936, 53.83306032654054 ], [ 8.948964889266223, 53.826438037623149 ] ] ], [ [ [ 10.965340007410074, 51.642297450557756 ], [ 10.96766927875467, 51.642072255348076 ], [ 10.967051672623795, 51.640210645505768 ], [ 10.960022237846255, 51.619016865973038 ], [ 10.956903431808554, 51.605019548638488 ], [ 10.952375196937842, 51.592488605258289 ], [ 10.946460606462193, 51.580095458971002 ], [ 10.945372661313172, 51.577488938142807 ], [ 10.938992875572696, 51.561326851490719 ], [ 10.938992875572696, 51.533609482540378 ], [ 10.950463437384476, 51.520900015615808 ], [ 10.977228079216452, 51.500095013088014 ], [ 10.977393924387576, 51.500000000093614 ], [ 10.999999999766354, 51.487189141957096 ], [ 11.013551523306841, 51.479507761940205 ], [ 11.027043715817758, 51.465712668364908 ], [ 10.999999999766354, 51.465252300709636 ], [ 10.979139839668134, 51.464897193100796 ], [ 10.94281639647606, 51.484083282522008 ], [ 10.898845912375574, 51.487514620414373 ], [ 10.888409789359548, 51.500000000093614 ], [ 10.883551830558744, 51.505875138250516 ], [ 10.875904789650331, 51.515121805890949 ], [ 10.856787187828452, 51.515121805890949 ], [ 10.835786392879243, 51.513974312323228 ], [ 10.820463744636381, 51.512810316121296 ], [ 10.801079375514469, 51.511935239972097 ], [ 10.799082794337028, 51.511893657794467 ], [ 10.799368459495694, 51.513952791279571 ], [ 10.796709574713786, 51.541748573775209 ], [ 10.794248458533254, 51.558208167418115 ], [ 10.776141672510104, 51.564949563162429 ], [ 10.789677813299663, 51.593549504532994 ], [ 10.787678156290692, 51.611342374472422 ], [ 10.785964164440383, 51.627458625103962 ], [ 10.767901326695878, 51.650138859040567 ], [ 10.773592658873964, 51.662586942471165 ], [ 10.811234557611909, 51.655515793181408 ], [ 10.814025288128066, 51.667432819942427 ], [ 10.815975920478722, 51.669437089819276 ], [ 10.81782683444295, 51.668783217383947 ], [ 10.830022545996476, 51.663963966005106 ], [ 10.841493106909939, 51.654747699066668 ], [ 10.851290767609138, 51.65301943918854 ], [ 10.857986322850081, 51.652071450535317 ], [ 10.868257749640232, 51.651291113068815 ], [ 10.893108214552411, 51.649427360036299 ], [ 10.897650951825071, 51.648986575012032 ], [ 10.919875273750819, 51.646681919747095 ], [ 10.957671259611132, 51.643036588651093 ], [ 10.965340007410074, 51.642297450557756 ] ] ], [ [ [ 10.838877657468649, 51.777041148535993 ], [ 10.847228387366673, 51.767517185645353 ], [ 10.852963667823404, 51.739926296289354 ], [ 10.831934305549844, 51.718071491459625 ], [ 10.79178734235272, 51.700810195577695 ], [ 10.768692400203063, 51.690529635427531 ], [ 10.770296520907598, 51.68952394624479 ], [ 10.74950887551406, 51.684468694599332 ], [ 10.738764888172067, 51.681484268403025 ], [ 10.731107634317187, 51.693765685235384 ], [ 10.73070177008193, 51.694428188830024 ], [ 10.724875735526989, 51.704262984545082 ], [ 10.706599747328498, 51.729707159014673 ], [ 10.705930192523056, 51.730600366878875 ], [ 10.686640531883235, 51.756023040715917 ], [ 10.671434347522011, 51.772193271279157 ], [ 10.723403460556703, 51.770079846637209 ], [ 10.724546122089679, 51.779589475600083 ], [ 10.7375988291192, 51.784105843389533 ], [ 10.786865109093339, 51.766539637274725 ], [ 10.838877657468649, 51.777041148535993 ] ] ], [ [ [ 11.128982283979854, 52.570058291084891 ], [ 11.133926491827713, 52.584984394049712 ], [ 11.140518768658758, 52.604877921311051 ], [ 11.145462975608304, 52.621780283139415 ], [ 11.163591736219933, 52.621780283139415 ], [ 11.186664703781112, 52.632713611283165 ], [ 11.208089602359108, 52.624762372092157 ], [ 11.221274155122877, 52.610844209275392 ], [ 11.227866431953922, 52.596921599794015 ], [ 11.226218362970741, 52.583989479615703 ], [ 11.227387173563322, 52.584121074928987 ], [ 11.230339194792114, 52.58425253688312 ], [ 11.234828754494897, 52.583896619434313 ], [ 11.242699053700875, 52.579014565908395 ], [ 11.245547576432521, 52.574676641443595 ], [ 11.249362307320832, 52.568555048991016 ], [ 11.242699053700875, 52.565081788515229 ], [ 11.228412052487821, 52.560865118688987 ], [ 11.219626086139696, 52.556122653542275 ], [ 11.227866431953922, 52.543178434776934 ], [ 11.254235537481463, 52.533218732277568 ], [ 11.229514500937103, 52.520267724363968 ], [ 11.199849256544882, 52.519271333683712 ], [ 11.189960841747476, 52.526245589347624 ], [ 11.184100967655784, 52.534362354364141 ], [ 11.180072426950067, 52.540190762549955 ], [ 11.177198194434991, 52.546951506443847 ], [ 11.175128220000525, 52.556122653542275 ], [ 11.160295597355256, 52.56408641957335 ], [ 11.128982283979854, 52.570058291084891 ] ] ], [ [ [ 9.388511267454982, 51.900182156334942 ], [ 9.387952784842843, 51.909563302780043 ], [ 9.405724127362491, 51.918595738918832 ], [ 9.419612102316231, 51.925441266804071 ], [ 9.462416902859641, 51.926573310478084 ], [ 9.483150134601475, 51.907825073675852 ], [ 9.489907633172834, 51.884708098540251 ], [ 9.470403036228245, 51.859997265745847 ], [ 9.467967704391311, 51.86020818928327 ], [ 9.418734504877509, 51.864465995183878 ], [ 9.417838526111444, 51.865132841049395 ], [ 9.389335001010952, 51.886341827237622 ], [ 9.388511267454982, 51.900182156334942 ] ] ], [ [ [ 11.036690413735142, 52.50830954110031 ], [ 11.043282689667871, 52.517278484739663 ], [ 11.061411450279504, 52.529234215266847 ], [ 11.084484417840679, 52.559109235995599 ], [ 11.110853524266538, 52.56408641957335 ], [ 11.115797731216082, 52.546165902658188 ], [ 11.119093869182446, 52.530230378855236 ], [ 11.107557385401858, 52.521264091786122 ], [ 11.084484417840679, 52.509306181059358 ], [ 11.064707588245865, 52.504322753037187 ], [ 11.036690413735142, 52.50830954110031 ] ] ], [ [ [ 11.249291330531916, 52.609849884856231 ], [ 11.244347122684056, 52.620786208296217 ], [ 11.244347122684056, 52.636688686706847 ], [ 11.245995191667239, 52.642774750873485 ], [ 11.246701225259738, 52.645840977197587 ], [ 11.247643261548737, 52.652585358557182 ], [ 11.249998022589519, 52.659328694039111 ], [ 11.251763434006689, 52.662393621246729 ], [ 11.255883606464645, 52.668476223676819 ], [ 11.258862656203705, 52.668557252407474 ], [ 11.264198005797631, 52.668279742003456 ], [ 11.272364298093095, 52.664504051403071 ], [ 11.276658067284759, 52.654807780365545 ], [ 11.27716611218864, 52.653762673307966 ], [ 11.282252712890504, 52.64364419509922 ], [ 11.298733403620634, 52.619792110218725 ], [ 11.290493058704726, 52.606866774910522 ], [ 11.269869121390251, 52.607950396728889 ], [ 11.25924083346359, 52.608634524102371 ], [ 11.249291330531916, 52.609849884856231 ] ] ] ] } }
]
}
