{
"type": "FeatureCollection",
"name": "Buchhorn",
"crs": { "type": "name", "properties": { "name": "urn:ogc:def:crs:OGC:1.3:CRS84" } },
"features": [
{ "type": "Feature", "properties": { "OBJECTID": 93.0, "YEAR": 1700.0, "OWNER_ID": 9668.0, "SHORT_NAME": "Buchhorn", "LONG_NAME": "Imperial City of Buchhorn", "VARIANTS": null, "SHAPE_LENG": 19109.85, "Shape__Are": 24160072.752929688, "Shape__Len": 19135.537395723131 }, "geometry": { "type": "MultiPolygon", "coordinates": [ [ [ [ 9.494659545854347, 47.683737020719668 ], [ 9.499999999675717, 47.681960690753804 ], [ 9.523285020847919, 47.674214964809792 ], [ 9.510051587156278, 47.652983667462919 ], [ 9.503455957812594, 47.653451151703123 ], [ 9.499999999675717, 47.653696100758353 ], [ 9.490403973028561, 47.654376236009384 ], [ 9.484215189778741, 47.654814872052874 ], [ 9.484159372060248, 47.654818828163059 ], [ 9.4670034213243, 47.664938909167368 ], [ 9.461777050849067, 47.668021488215324 ], [ 9.481972378585294, 47.687956756034367 ], [ 9.494659545854347, 47.683737020719668 ] ] ] ] } }
]
}
