{
"type": "FeatureCollection",
"name": "Cologne",
"crs": { "type": "name", "properties": { "name": "urn:ogc:def:crs:OGC:1.3:CRS84" } },
"features": [
{ "type": "Feature", "properties": { "OBJECTID": 48.0, "YEAR": 1700.0, "OWNER_ID": 9683.0, "SHORT_NAME": "Cologne", "LONG_NAME": "Imperial City of Cologne", "VARIANTS": null, "SHAPE_LENG": 22541.39, "Shape__Are": 35244453.690917969, "Shape__Len": 22571.165121698406 }, "geometry": { "type": "MultiPolygon", "coordinates": [ [ [ [ 6.964120354625667, 50.952758119058693 ], [ 6.977672622869523, 50.948139995509052 ], [ 6.983117224669963, 50.918489000118946 ], [ 6.972651879457744, 50.916513872206785 ], [ 6.937913293497282, 50.912628682260973 ], [ 6.920694398707666, 50.929117295122794 ], [ 6.924415849435223, 50.940280649312143 ], [ 6.964120354625667, 50.952758119058693 ] ] ] ] } }
]
}
