{
"type": "FeatureCollection",
"name": "Dortmund",
"crs": { "type": "name", "properties": { "name": "urn:ogc:def:crs:OGC:1.3:CRS84" } },
"features": [
{ "type": "Feature", "properties": { "OBJECTID": 106.0, "YEAR": 1700.0, "OWNER_ID": 15038.0, "SHORT_NAME": "Dortmund", "LONG_NAME": "Imperial City of Dortmund", "VARIANTS": null, "SHAPE_LENG": 74010.16, "Shape__Are": 276153094.24072266, "Shape__Len": 74130.284416622424 }, "geometry": { "type": "MultiPolygon", "coordinates": [ [ [ [ 7.444618898221512, 51.638333120077213 ], [ 7.466190569838842, 51.624026451909074 ], [ 7.480627043528641, 51.612018418533808 ], [ 7.487055442499034, 51.583801556802996 ], [ 7.499999999554868, 51.561689373955687 ], [ 7.501338335716301, 51.55940258232043 ], [ 7.524572719754234, 51.525229868494634 ], [ 7.51440649197207, 51.500000000093614 ], [ 7.513668575373488, 51.498188232585989 ], [ 7.499999999554868, 51.494151240135992 ], [ 7.483896092797613, 51.489394514950945 ], [ 7.428804931705367, 51.487711815422479 ], [ 7.413884265179076, 51.500000000093614 ], [ 7.41357862148851, 51.500254474589269 ], [ 7.409651374814242, 51.52525643080763 ], [ 7.42233265362658, 51.537367189040616 ], [ 7.404232212404299, 51.567974902254178 ], [ 7.39455670371911, 51.590512614349642 ], [ 7.365376598987665, 51.600312151290524 ], [ 7.361936020906749, 51.617730394074982 ], [ 7.364520942001442, 51.617916802817213 ], [ 7.397694113866356, 51.623390344729039 ], [ 7.442890366240006, 51.637382630405099 ], [ 7.444618898221512, 51.638333120077213 ] ] ] ] } }
]
}
