{
"type": "FeatureCollection",
"name": "ElectoralCologne",
"crs": { "type": "name", "properties": { "name": "urn:ogc:def:crs:OGC:1.3:CRS84" } },
"features": [
{ "type": "Feature", "properties": { "OBJECTID": 111.0, "YEAR": 1700.0, "OWNER_ID": 9684.0, "SHORT_NAME": "Cologne", "LONG_NAME": "Electorate of Cologne", "VARIANTS": "Archbishopric of Cologne", "SHAPE_LENG": 1805189.0, "Shape__Are": 16600776997.676758, "Shape__Len": 1807594.3879599979 }, "geometry": { "type": "MultiPolygon", "coordinates": [ [ [ [ 8.883709874639083, 51.486702945083088 ], [ 8.872539985241124, 51.476904242864727 ], [ 8.86747186198634, 51.456452217400908 ], [ 8.873790561389184, 51.448703030865936 ], [ 8.89792448242002, 51.438544200485218 ], [ 8.903870203113534, 51.430831446922774 ], [ 8.89184712260478, 51.405393778980944 ], [ 8.896125408434209, 51.367988277121022 ], [ 8.842021545246542, 51.362570562149308 ], [ 8.791450009571333, 51.366182443530278 ], [ 8.752111717877813, 51.373919342770542 ], [ 8.710601373489116, 51.3719555867564 ], [ 8.687498628572913, 51.372548676303502 ], [ 8.654391276268864, 51.37166562878101 ], [ 8.64605410374511, 51.360817246743139 ], [ 8.55594681769376, 51.344032096183895 ], [ 8.515796748122376, 51.318242392459112 ], [ 8.526130455111202, 51.302075172385884 ], [ 8.54835560258868, 51.270014157095552 ], [ 8.584380965006572, 51.29305863571102 ], [ 8.66648017723681, 51.291791160968067 ], [ 8.712510147042508, 51.228927884777498 ], [ 8.717139472027061, 51.194592770377881 ], [ 8.719311524722208, 51.171008852194397 ], [ 8.68517299630353, 51.139452027944522 ], [ 8.657265407274334, 51.101496859808982 ], [ 8.660923832201522, 51.086216503030762 ], [ 8.660051778266418, 51.082361620694726 ], [ 8.637124553376928, 51.07453549540616 ], [ 8.617422496851418, 51.075755927784741 ], [ 8.597654621663347, 51.093156836810671 ], [ 8.575144254591578, 51.092255122009071 ], [ 8.527863709536147, 51.081857605428574 ], [ 8.501952654073644, 51.06658862642535 ], [ 8.502135524116033, 51.061843066705947 ], [ 8.499999999615302, 51.06119727284127 ], [ 8.468744016721322, 51.051744263556486 ], [ 8.45335174545067, 51.06105470521603 ], [ 8.434111406811541, 51.08664871598458 ], [ 8.418719136439186, 51.091300643426962 ], [ 8.38793459479624, 51.054072050269987 ], [ 8.303277105502646, 51.049416359212586 ], [ 8.249404157851995, 51.063382021429682 ], [ 8.226315751844364, 51.075016838814925 ], [ 8.214771548840547, 51.033117734405259 ], [ 8.178383145775307, 51.006684169824403 ], [ 8.168641260573784, 51.010164930770706 ], [ 8.132572018149244, 51.002326533126435 ], [ 8.095007453577495, 50.999999999968175 ], [ 8.069714122823497, 50.998450292430434 ], [ 8.056190763263798, 50.999999999968175 ], [ 8.041038635923112, 51.001755208170998 ], [ 8.007646064923106, 51.012675593055739 ], [ 7.999999999585081, 51.011569391694408 ], [ 7.967430175790862, 51.006857023530806 ], [ 7.961457501147239, 50.999999999968175 ], [ 7.951633427283752, 50.988840679449929 ], [ 7.957732727551499, 50.954526855978486 ], [ 7.952445205161615, 50.919647702585813 ], [ 7.934717742648634, 50.892423702470602 ], [ 7.884143653961369, 50.888381091697333 ], [ 7.876141591666167, 50.898952111783849 ], [ 7.85305318476021, 50.915122022433472 ], [ 7.825605753243684, 50.924106837824951 ], [ 7.829076987231984, 50.924637691704952 ], [ 7.803889949633971, 50.968484306814617 ], [ 7.717428737572986, 50.995322447957825 ], [ 7.725236077453951, 50.999999999968175 ], [ 7.741459222090435, 51.009823984111499 ], [ 7.726066950819782, 51.037775072394744 ], [ 7.711617155114329, 51.060503588046501 ], [ 7.761611707374131, 51.065367950991302 ], [ 7.766153272345345, 51.103512027796278 ], [ 7.75737730065309, 51.135782454037752 ], [ 7.779141710306187, 51.143346489226616 ], [ 7.795947695373763, 51.161807571199283 ], [ 7.804526207485092, 51.183106720482193 ], [ 7.825149739659384, 51.192766839415619 ], [ 7.924537616132374, 51.225172908722072 ], [ 7.923352859545212, 51.246640870492008 ], [ 7.94889093629835, 51.260330689147629 ], [ 7.959619561550679, 51.298299796801295 ], [ 7.93726277495144, 51.310113306082165 ], [ 7.881337896427157, 51.296768436590142 ], [ 7.863149696089796, 51.294418490852479 ], [ 7.845334474461772, 51.314072457788086 ], [ 7.844325237901315, 51.350902492650533 ], [ 7.825829877517188, 51.382709079272423 ], [ 7.841165888199895, 51.396542558698791 ], [ 7.874799797889205, 51.397609538375498 ], [ 7.880262840305833, 51.417627229036668 ], [ 7.853561947417975, 51.44025504361904 ], [ 7.824623181375806, 51.442176374839626 ], [ 7.808058535895849, 51.427922372417719 ], [ 7.786842624978829, 51.431765997113963 ], [ 7.76863248418896, 51.42551335967439 ], [ 7.741646372605169, 51.437135996849904 ], [ 7.752462756972541, 51.447005664551028 ], [ 7.742655609165626, 51.467027919963421 ], [ 7.778439631995873, 51.47465562864172 ], [ 7.834276750506826, 51.487409449093782 ], [ 7.865958006636066, 51.489092159839473 ], [ 7.867991029769626, 51.500000000093614 ], [ 7.86990719376284, 51.51039242448941 ], [ 7.849173962020997, 51.514311469334963 ], [ 7.857467254538067, 51.529917862618944 ], [ 7.848757103304976, 51.537008693501015 ], [ 7.848120845453855, 51.559362768886331 ], [ 7.898143882393021, 51.563821643405916 ], [ 7.881996094730787, 51.610122818742497 ], [ 7.894984532691601, 51.614855041319132 ], [ 7.909069966327944, 51.640959506846443 ], [ 7.939237368065663, 51.641118472438919 ], [ 7.949724653730389, 51.611289350849191 ], [ 7.97583316877378, 51.603547255574462 ], [ 7.962603392123654, 51.548996842182355 ], [ 7.999999999585081, 51.541084516124499 ], [ 8.002885100816799, 51.540474032795238 ], [ 8.02155597943101, 51.54597023385751 ], [ 8.039195681930616, 51.543381526232636 ], [ 8.047620614467746, 51.526398592169897 ], [ 8.077020119232619, 51.513580825811658 ], [ 8.088801860153763, 51.51520151056377 ], [ 8.14692073092737, 51.519465494405232 ], [ 8.218071918770214, 51.515374202980034 ], [ 8.248063801379525, 51.539969516867963 ], [ 8.243917154671822, 51.559336226577543 ], [ 8.250894052378266, 51.578349747110614 ], [ 8.237927553971625, 51.588337598292178 ], [ 8.252056868512955, 51.616246776981725 ], [ 8.210590403232683, 51.62437100601241 ], [ 8.187334079640539, 51.616975764069998 ], [ 8.159843349327353, 51.630002770157532 ], [ 8.133076635980332, 51.635262865727299 ], [ 8.118376884047045, 51.655754164691423 ], [ 8.117194990390665, 51.666064638067283 ], [ 8.141658262550768, 51.659353901960188 ], [ 8.17244280419375, 51.663998637179319 ], [ 8.230163819212867, 51.668642893272271 ], [ 8.287884835130317, 51.661676329112538 ], [ 8.330213579777114, 51.668642893272271 ], [ 8.380238459160893, 51.636123047233241 ], [ 8.399478797800056, 51.650062995742061 ], [ 8.418719136439186, 51.666320825045531 ], [ 8.45335174545067, 51.668642893272271 ], [ 8.484136287093651, 51.65470868815428 ], [ 8.499999999615302, 51.641939584066705 ], [ 8.507224693101284, 51.636123047233241 ], [ 8.499999999615302, 51.635787454640798 ], [ 8.457199813717507, 51.633799303274955 ], [ 8.441807542446854, 51.577993549118801 ], [ 8.445655610713654, 51.536093976267182 ], [ 8.426415272074534, 51.529106941801281 ], [ 8.461047881086019, 51.519789218523137 ], [ 8.468589420254178, 51.500000000093614 ], [ 8.472592084089834, 51.489608630762113 ], [ 8.472592084089834, 51.475772602599228 ], [ 8.487984355360453, 51.455010648031099 ], [ 8.499528558364304, 51.475772602599228 ], [ 8.499999999615302, 51.475716090556084 ], [ 8.518768897003433, 51.473466187737138 ], [ 8.564945709018735, 51.482691144426816 ], [ 8.614970589300846, 51.471159655651256 ], [ 8.657299333947641, 51.475772602599228 ], [ 8.703476145962943, 51.464239355467001 ], [ 8.715020348966796, 51.478078900239915 ], [ 8.757349093613591, 51.464239355467001 ], [ 8.776589432252722, 51.482691144426816 ], [ 8.841589867023307, 51.500000000093614 ], [ 8.845854651173989, 51.501148022411996 ], [ 8.848833230195831, 51.500000000093614 ], [ 8.883709874639083, 51.486702945083088 ] ] ], [ [ [ 7.200295355181686, 50.631164217028136 ], [ 7.115414993866118, 50.609919268012206 ], [ 7.097775291366501, 50.626113869394644 ], [ 7.073202571167136, 50.622059118767822 ], [ 7.062364246347294, 50.599460037194582 ], [ 7.024627569956955, 50.596012883727418 ], [ 7.000000000422981, 50.597279021612316 ], [ 6.966859738338473, 50.598982754074136 ], [ 6.940685403734222, 50.610661532976756 ], [ 6.940005265876408, 50.623636008068566 ], [ 6.929781259353477, 50.625742860956976 ], [ 6.938842449741718, 50.655334772972502 ], [ 6.921071107222088, 50.65720185292809 ], [ 6.916573422257559, 50.66645669796403 ], [ 6.930110358056119, 50.694011767640617 ], [ 6.906130015701191, 50.70332546028277 ], [ 6.898100002325904, 50.717966951222458 ], [ 6.907687750997726, 50.734282760990709 ], [ 6.879758222414346, 50.741500089121409 ], [ 6.863193576036046, 50.730858765930478 ], [ 6.844829855671979, 50.736133464639494 ], [ 6.832916474730776, 50.727170087971878 ], [ 6.846804449684498, 50.717649569404109 ], [ 6.833311392994297, 50.699978566276116 ], [ 6.816724807061821, 50.68997613901179 ], [ 6.758232958477212, 50.688163300156774 ], [ 6.765846113136469, 50.709449786976649 ], [ 6.763827640015564, 50.725504137309073 ], [ 6.75943965461855, 50.738790417454567 ], [ 6.733440839142708, 50.759168568448381 ], [ 6.690526339031748, 50.768376777618997 ], [ 6.705818468809473, 50.815670572267891 ], [ 6.735722591405406, 50.849876407268852 ], [ 6.785899207918805, 50.87470040796314 ], [ 6.857533074038503, 50.888168094865279 ], [ 6.888951051924313, 50.920753709440852 ], [ 6.909728164571138, 50.942999902827687 ], [ 6.882347133825514, 50.94206551430586 ], [ 6.824842581348807, 50.936498275812369 ], [ 6.794675179611088, 50.944618586700493 ], [ 6.789080497174401, 50.965748399807772 ], [ 6.799940762446789, 50.978979215811343 ], [ 6.840683208964277, 50.988919562491091 ], [ 6.857116216220806, 50.998410858502211 ], [ 6.857797273055145, 50.999999999968175 ], [ 6.863369095164464, 51.01314051594138 ], [ 6.880899098096529, 51.029157556071034 ], [ 6.856830996626512, 51.039513873195339 ], [ 6.809857609821226, 51.017191785074587 ], [ 6.78632419189657, 50.999999999968175 ], [ 6.759702933760335, 50.98075443467576 ], [ 6.68433927875066, 50.979478914153361 ], [ 6.637409771952057, 50.987512791671215 ], [ 6.573564580518334, 50.970522977982874 ], [ 6.538723973789343, 50.978689914688161 ], [ 6.558184690727243, 50.997937654971594 ], [ 6.557429858851878, 50.999999999968175 ], [ 6.542760920929495, 51.040496274933332 ], [ 6.570054191661753, 51.055468668440746 ], [ 6.604719278364037, 51.038558002770728 ], [ 6.648599135927059, 51.04449204345859 ], [ 6.645900524050045, 51.060790129039241 ], [ 6.652109523885308, 51.072903779444694 ], [ 6.675365848375785, 51.082016768919239 ], [ 6.718346168047613, 51.078515047219376 ], [ 6.764463897866685, 51.070781135763596 ], [ 6.778088593678613, 51.08325026617478 ], [ 6.767930406716538, 51.103750660463291 ], [ 6.739562078964632, 51.12775341021284 ], [ 6.733769937845352, 51.155557591383506 ], [ 6.697547115846577, 51.183119954924152 ], [ 6.653820838756078, 51.159728753086888 ], [ 6.658932842017553, 51.134590110245441 ], [ 6.579159262056688, 51.110418611847486 ], [ 6.567553039365664, 51.103034759312422 ], [ 6.549913336866049, 51.12686562443097 ], [ 6.502896070952404, 51.128667679148961 ], [ 6.500000000392768, 51.129682365745204 ], [ 6.485651286716308, 51.134709346074075 ], [ 6.467331446358925, 51.137226472963007 ], [ 6.476063538044523, 51.092626418712783 ], [ 6.45508896671507, 51.085637586781637 ], [ 6.44477720017876, 51.090968822099214 ], [ 6.436220627621608, 51.082587099674377 ], [ 6.415289936298846, 51.086115035813393 ], [ 6.422990850971487, 51.097837512971765 ], [ 6.421498936134145, 51.105314998368364 ], [ 6.395434301097409, 51.108337466530493 ], [ 6.353601077042799, 51.124491294022398 ], [ 6.353309638411803, 51.137186729899305 ], [ 6.357522104680363, 51.137199977590981 ], [ 6.368391250697623, 51.154765803964956 ], [ 6.3746352488964, 51.15404793478092 ], [ 6.413973540589921, 51.171935497749445 ], [ 6.482184777866411, 51.178514141861484 ], [ 6.492057746132525, 51.192740376096928 ], [ 6.469547379060756, 51.198905911897569 ], [ 6.467945764655862, 51.211274173737266 ], [ 6.500000000392768, 51.228281402818546 ], [ 6.507349875910251, 51.232180185722235 ], [ 6.50302771007413, 51.253380578919234 ], [ 6.500000000392768, 51.25353748323429 ], [ 6.438261041194994, 51.256736847866385 ], [ 6.427664055962752, 51.263990303474316 ], [ 6.416013954163342, 51.228094941257815 ], [ 6.35517453195851, 51.217662032635808 ], [ 6.32590666721366, 51.248834689038794 ], [ 6.351620263993533, 51.28431762843077 ], [ 6.317042936406336, 51.288411057679198 ], [ 6.290649202666975, 51.27890317556966 ], [ 6.2961122450836, 51.303236763353269 ], [ 6.339070624302921, 51.317609009253253 ], [ 6.386833848533572, 51.32057791743928 ], [ 6.372243796167826, 51.359459368912219 ], [ 6.359913556510604, 51.395580938352772 ], [ 6.356447047660742, 51.421261075226639 ], [ 6.379703372151183, 51.42559234577822 ], [ 6.405175629343455, 51.438267827292528 ], [ 6.448682507298853, 51.447637250189523 ], [ 6.467155927230506, 51.438070417401434 ], [ 6.48547576758789, 51.440926202826724 ], [ 6.500000000392768, 51.429248565450052 ], [ 6.502369512668833, 51.427343168053049 ], [ 6.532931832670063, 51.439478592078473 ], [ 6.527315210679202, 51.461858761285754 ], [ 6.516608525879419, 51.474300573839265 ], [ 6.522861405721364, 51.489617993935035 ], [ 6.521079763543659, 51.500000000093614 ], [ 6.5200530942768, 51.50604786620729 ], [ 6.500197459075362, 51.523609542430691 ], [ 6.500000000392768, 51.525073815011496 ], [ 6.497915706812663, 51.540527139525835 ], [ 6.487560060269662, 51.567258392552333 ], [ 6.472245990039465, 51.565161874291398 ], [ 6.470030057337634, 51.575961886306644 ], [ 6.493220562267215, 51.579371182462488 ], [ 6.489819872978185, 51.605973431751558 ], [ 6.475646679328504, 51.606570012461184 ], [ 6.471324490136159, 51.642774333187255 ], [ 6.499934179933568, 51.645648759980112 ], [ 6.500000000392768, 51.645782185445889 ], [ 6.511342943043708, 51.668769978351413 ], [ 6.545152372759736, 51.688346202811047 ], [ 6.57393755922767, 51.676725913931186 ], [ 6.540544988227663, 51.636481742445888 ], [ 6.553884464445333, 51.616366066390171 ], [ 6.551120033007424, 51.586321636175875 ], [ 6.562616556130905, 51.557265884672852 ], [ 6.599629215555035, 51.561061439784247 ], [ 6.624816253153049, 51.562136347046653 ], [ 6.645834704489149, 51.564684172709946 ], [ 6.658954781571728, 51.553058551141845 ], [ 6.65127580645327, 51.53615891454298 ], [ 6.656146471025459, 51.522493874676464 ], [ 6.682386625190613, 51.515387487027908 ], [ 6.699719168541725, 51.508293270871775 ], [ 6.708536469025274, 51.500000000093614 ], [ 6.71046973424656, 51.498201375890183 ], [ 6.687718028485479, 51.484924707393738 ], [ 6.677998639793636, 51.474458376316612 ], [ 6.68256214521733, 51.463963324320339 ], [ 6.722229535613529, 51.453939468023741 ], [ 6.730588648589756, 51.432279333155314 ], [ 6.724248008734433, 51.422222152828859 ], [ 6.71738081149384, 51.411333141347122 ], [ 6.685809254033828, 51.406407871563871 ], [ 6.658494043747349, 51.395580938352772 ], [ 6.65796748546378, 51.382998966937556 ], [ 6.678108339361186, 51.368172810943726 ], [ 6.718280348486744, 51.370004925939568 ], [ 6.739671778532182, 51.36394152888797 ], [ 6.759834572882097, 51.348291600000252 ], [ 6.764771057015118, 51.329430714400807 ], [ 6.742589789544326, 51.277252299873744 ], [ 6.77587266097679, 51.270106622416122 ], [ 6.818458061486766, 51.252415936852287 ], [ 6.824008863916768, 51.231545608120641 ], [ 6.801871475554335, 51.228121384160083 ], [ 6.779514688955089, 51.242015006272204 ], [ 6.760975449462612, 51.235815614164622 ], [ 6.751585159473385, 51.223506869885533 ], [ 6.777693674516778, 51.184562485071858 ], [ 6.796803352299553, 51.173497514848336 ], [ 6.819862217209066, 51.180420051357615 ], [ 6.843008842131956, 51.176197825413844 ], [ 6.843272121273742, 51.136497845229783 ], [ 6.857357554910084, 51.130310667335912 ], [ 6.888380613634061, 51.139849436865603 ], [ 6.904594220857164, 51.135689717253385 ], [ 6.902158889020231, 51.12083617827917 ], [ 6.885045744804222, 51.111386246278094 ], [ 6.880131201123673, 51.095464085131212 ], [ 6.885023805250011, 51.083237002927078 ], [ 6.909267425848436, 51.07933744516049 ], [ 6.936429057458969, 51.063178614737119 ], [ 6.979409377130796, 51.0208708269233 ], [ 6.972235020741725, 51.002791559739784 ], [ 6.971977442308759, 50.999999999968175 ], [ 6.971181904174585, 50.991470047383658 ], [ 6.994460168219236, 50.984501894993038 ], [ 6.998628754481113, 50.971193747224852 ], [ 6.980703833285538, 50.961894178874608 ], [ 7.000000000422981, 50.956570324475784 ], [ 7.008216503152934, 50.954303187037809 ], [ 7.022499396370167, 50.93744593787396 ], [ 7.01330656686019, 50.920227042941342 ], [ 7.000000000422981, 50.913999519447714 ], [ 6.984214221243795, 50.906610628729091 ], [ 6.997707277035699, 50.887851872679413 ], [ 7.000000000422981, 50.887657044391283 ], [ 7.036935869161669, 50.884518237297797 ], [ 7.066181794352308, 50.873487860790448 ], [ 7.070218741492458, 50.859897252514259 ], [ 7.027370060942364, 50.844007933828884 ], [ 7.000000000422981, 50.837319424619672 ], [ 6.997685337481523, 50.836753739058942 ], [ 6.986254634817207, 50.823680136524715 ], [ 6.996566401353516, 50.810431279490572 ], [ 7.000000000422981, 50.809841492678345 ], [ 7.033140261609128, 50.804148628927756 ], [ 7.050604444980324, 50.792042891473649 ], [ 7.055014370829777, 50.776671853192404 ], [ 7.067344610486998, 50.766355619384406 ], [ 7.107933478328577, 50.750896801548784 ], [ 7.138539678336535, 50.750883586907221 ], [ 7.156727878673859, 50.740125446166672 ], [ 7.156047741714379, 50.707029252526887 ], [ 7.163244037657627, 50.697610460411937 ], [ 7.181958797176855, 50.678661286437972 ], [ 7.202845608492932, 50.652527392713225 ], [ 7.239726628795337, 50.657837437177051 ], [ 7.26605454297383, 50.65338816412067 ], [ 7.264869786386669, 50.640276235247562 ], [ 7.228230105671828, 50.634964194902309 ], [ 7.201792491925792, 50.630645233012807 ], [ 7.200295355181686, 50.631164217028136 ] ], [ [ 6.977672622869523, 50.948139995509052 ], [ 6.964120354625667, 50.952758119058693 ], [ 6.924415849435223, 50.940280649312143 ], [ 6.920694398707666, 50.929117295122794 ], [ 6.937913293497282, 50.912628682260973 ], [ 6.972651879457744, 50.916513872206785 ], [ 6.983117224669963, 50.918489000118946 ], [ 6.977672622869523, 50.948139995509052 ] ] ], [ [ [ 6.768062045838301, 50.478266494166355 ], [ 6.760163835976447, 50.499999999891088 ], [ 6.759680993307863, 50.501342525200009 ], [ 6.771726014269088, 50.522395424611211 ], [ 6.833070054305019, 50.532075261644742 ], [ 6.888534193208295, 50.534212788537467 ], [ 6.935836679614531, 50.55099098703662 ], [ 6.988338928397313, 50.556100242754802 ], [ 7.000000000422981, 50.559026875189211 ], [ 7.031165668494906, 50.566847767910055 ], [ 7.055738388694272, 50.552663168701798 ], [ 7.088692160525778, 50.542297337416578 ], [ 7.0907325740992, 50.512580767763644 ], [ 7.098403897368051, 50.499999999891088 ], [ 7.098938107501193, 50.499133061179442 ], [ 7.085949669540377, 50.46702074143478 ], [ 7.068595186635065, 50.434228301704181 ], [ 7.072544373761841, 50.405430552865489 ], [ 7.041938172855594, 50.380015456391206 ], [ 7.044632929163427, 50.379007419425371 ], [ 7.007241382810311, 50.349799420668447 ], [ 7.000000000422981, 50.344259523680392 ], [ 6.961353993606527, 50.314683062796327 ], [ 6.918863016812679, 50.307380012390858 ], [ 6.91553409662666, 50.308994001009793 ], [ 6.838138177559794, 50.346502997529825 ], [ 6.801674016871706, 50.387447726074839 ], [ 6.778000833665247, 50.435584139978161 ], [ 6.76733802887211, 50.465718427850689 ], [ 6.768062045838301, 50.478266494166355 ] ] ], [ [ [ 7.234294543221725, 50.605442471560771 ], [ 7.268797033959232, 50.607758680925365 ], [ 7.302123785398371, 50.622284392167778 ], [ 7.325796967706534, 50.611364022432163 ], [ 7.348329274332486, 50.634964194902309 ], [ 7.329768095285827, 50.642686987137296 ], [ 7.364499001548934, 50.664735620868811 ], [ 7.435803768965986, 50.665887425944632 ], [ 7.458186387519525, 50.646915747284574 ], [ 7.449231005197031, 50.615220900506912 ], [ 7.449538164345508, 50.557254724464208 ], [ 7.405855767261692, 50.553432882758102 ], [ 7.362721867117306, 50.576200089798235 ], [ 7.316669957757425, 50.575629718248123 ], [ 7.243330267269986, 50.571554567585714 ], [ 7.234294543221725, 50.605442471560771 ] ] ] ] } }
]
}
