{
"type": "FeatureCollection",
"name": "Forts",
"crs": { "type": "name", "properties": { "name": "urn:ogc:def:crs:OGC:1.3:CRS84" } },
"features": [
{ "type": "Feature", "properties": { "id": 1, "Name": "Fort L'Ecluse" }, "geometry": { "type": "Point", "coordinates": [ 5.893600338029476, 46.121766475181047 ] } },
{ "type": "Feature", "properties": { "id": 2, "Name": "Briancon" }, "geometry": { "type": "Point", "coordinates": [ 6.643025500728369, 44.899973459837732 ] } },
{ "type": "Feature", "properties": { "id": 3, "Name": "Embrun" }, "geometry": { "type": "Point", "coordinates": [ 6.491586012480849, 44.567166157779674 ] } },
{ "type": "Feature", "properties": { "id": 7, "Name": "Saint Paul de Vence" }, "geometry": { "type": "Point", "coordinates": [ 7.111890243967267, 43.713301922839918 ] } },
{ "type": "Feature", "properties": { "id": 10, "Name": "Fort Pate" }, "geometry": { "type": "Point", "coordinates": [ -0.67958919593614, 45.131324892456298 ] } },
{ "type": "Feature", "properties": { "id": 11, "Name": "Fort Medoc" }, "geometry": { "type": "Point", "coordinates": [ -0.709632694638696, 45.122513735712751 ] } },
{ "type": "Feature", "properties": { "id": 13, "Name": "Chef de Baie" }, "geometry": { "type": "Point", "coordinates": [ -1.201451079239297, 46.155190309524656 ] } },
{ "type": "Feature", "properties": { "id": 20, "Name": "Redoubt of Martray" }, "geometry": { "type": "Point", "coordinates": [ -1.486765971429421, 46.201067861188079 ] } },
{ "type": "Feature", "properties": { "id": 20, "Name": "Fort de l'Eguille" }, "geometry": { "type": "Point", "coordinates": [ -1.108072846013498, 45.997002149647876 ] } },
{ "type": "Feature", "properties": { "id": 21, "Name": "Fouras" }, "geometry": { "type": "Point", "coordinates": [ -1.097577172483731, 45.986377038259462 ] } },
{ "type": "Feature", "properties": { "id": 23, "Name": "Fort Lupin" }, "geometry": { "type": "Point", "coordinates": [ -1.036683400277037, 45.95608159060955 ] } },
{ "type": "Feature", "properties": { "id": 25, "Name": "Fort Chapus" }, "geometry": { "type": "Point", "coordinates": [ -1.156282565664893, 45.849102044093733 ] } },
{ "type": "Feature", "properties": { "id": 30, "Name": "Concarneau" }, "geometry": { "type": "Point", "coordinates": [ -3.924233832660651, 47.873493520099991 ] } },
{ "type": "Feature", "properties": { "id": 31, "Name": "Camaret-sur-Mer" }, "geometry": { "type": "Point", "coordinates": [ -4.597122400391838, 48.278818321043815 ] } },
{ "type": "Feature", "properties": { "id": 33, "Name": "Chateau du Taureau" }, "geometry": { "type": "Point", "coordinates": [ -3.882654790587182, 48.676833380432804 ] } },
{ "type": "Feature", "properties": { "id": 35, "Name": "Hebihens" }, "geometry": { "type": "Point", "coordinates": [ -2.188578658579253, 48.625083792087331 ] } },
{ "type": "Feature", "properties": { "id": 40, "Name": "Port-en-Bessin" }, "geometry": { "type": "Point", "coordinates": [ -0.754365014880294, 49.347777501167748 ] } },
{ "type": "Feature", "properties": { "id": 50, "Name": null }, "geometry": { "type": "Point", "coordinates": [ 4.916604829171061, 52.34968819232035 ] } },
{ "type": "Feature", "properties": { "id": 45, "Name": "Fort Knocke" }, "geometry": { "type": "Point", "coordinates": [ 2.806192615148681, 50.980454283542592 ] } },
{ "type": "Feature", "properties": { "id": 70, "Name": null }, "geometry": { "type": "Point", "coordinates": [ 3.825363692215497, 51.230121136678292 ] } },
{ "type": "Feature", "properties": { "id": 71, "Name": null }, "geometry": { "type": "Point", "coordinates": [ 3.82462078340353, 51.208538725168673 ] } },
{ "type": "Feature", "properties": { "id": 74, "Name": null }, "geometry": { "type": "Point", "coordinates": [ 3.924301606723507, 51.193580013305876 ] } },
{ "type": "Feature", "properties": { "id": 90, "Name": null }, "geometry": { "type": "Point", "coordinates": [ 3.490232556449167, 51.089867149501963 ] } },
{ "type": "Feature", "properties": { "id": 100, "Name": null }, "geometry": { "type": "Point", "coordinates": [ 5.714969611764215, 50.75743059730835 ] } },
{ "type": "Feature", "properties": { "id": 87, "Name": null }, "geometry": { "type": "Point", "coordinates": [ 4.427766753874487, 51.232757738185391 ] } },
{ "type": "Feature", "properties": { "id": 119, "Name": null }, "geometry": { "type": "Point", "coordinates": [ 2.833266207340362, 50.428773434179625 ] } },
{ "type": "Feature", "properties": { "id": 100, "Name": null }, "geometry": { "type": "Point", "coordinates": [ 6.73611463697957, 51.300482151060507 ] } },
{ "type": "Feature", "properties": { "id": 100, "Name": "Kokenhausen" }, "geometry": { "type": "Point", "coordinates": [ 25.440161758145926, 56.646212418160772 ] } },
{ "type": "Feature", "properties": { "id": 101, "Name": null }, "geometry": { "type": "Point", "coordinates": [ 25.273900648361913, 57.312793108582113 ] } },
{ "type": "Feature", "properties": { "id": 103, "Name": null }, "geometry": { "type": "Point", "coordinates": [ 24.520511377588932, 58.394755360723998 ] } },
{ "type": "Feature", "properties": { "id": 180, "Name": null }, "geometry": { "type": "Point", "coordinates": [ 31.028135337755742, 59.935397248895541 ] } },
{ "type": "Feature", "properties": { "id": 183, "Name": "Vyborg" }, "geometry": { "type": "Point", "coordinates": [ 28.748936922092248, 60.693902415700762 ] } },
{ "type": "Feature", "properties": { "id": 103, "Name": null }, "geometry": { "type": "Point", "coordinates": [ 8.614907627311963, 44.90981831204595 ] } },
{ "type": "Feature", "properties": { "id": 119, "Name": "Fort Mutin" }, "geometry": { "type": "Point", "coordinates": [ 7.050619789749596, 45.035531439866759 ] } },
{ "type": "Feature", "properties": { "id": 113, "Name": "Fort de Exilles" }, "geometry": { "type": "Point", "coordinates": [ 6.929809835887343, 45.096077947070505 ] } },
{ "type": "Feature", "properties": { "id": 102, "Name": null }, "geometry": { "type": "Point", "coordinates": [ 7.816949058608554, 44.383023289280459 ] } },
{ "type": "Feature", "properties": { "id": 111, "Name": null }, "geometry": { "type": "Point", "coordinates": [ 8.850545387408213, 45.317091097259535 ] } },
{ "type": "Feature", "properties": { "id": 134, "Name": "Legnago" }, "geometry": { "type": "Point", "coordinates": [ 11.310454603729138, 45.190269754220132 ] } },
{ "type": "Feature", "properties": { "id": 199, "Name": null }, "geometry": { "type": "Point", "coordinates": [ 11.883253270411752, 45.416693662570033 ] } },
{ "type": "Feature", "properties": { "id": 208, "Name": null }, "geometry": { "type": "Point", "coordinates": [ 11.351068966981426, 43.316842707130348 ] } },
{ "type": "Feature", "properties": { "id": 209, "Name": "Civita Castellana" }, "geometry": { "type": "Point", "coordinates": [ 12.415329976444182, 42.288783864406767 ] } },
{ "type": "Feature", "properties": { "id": 214, "Name": null }, "geometry": { "type": "Point", "coordinates": [ 12.100450842959432, 42.417060439819409 ] } },
{ "type": "Feature", "properties": { "id": 77, "Name": null }, "geometry": { "type": "Point", "coordinates": [ 18.182665392103988, 40.383935656950875 ] } },
{ "type": "Feature", "properties": { "id": null, "Name": "Château de Chillon" }, "geometry": { "type": "Point", "coordinates": [ 6.954710817862986, 46.414996972561269 ] } },
{ "type": "Feature", "properties": { "id": null, "Name": "Rapperswil" }, "geometry": { "type": "Point", "coordinates": [ 8.817002324661924, 47.225170443203019 ] } },
{ "type": "Feature", "properties": { "id": null, "Name": "Luzern" }, "geometry": { "type": "Point", "coordinates": [ 8.306253363178548, 47.04858393705144 ] } },
{ "type": "Feature", "properties": { "id": null, "Name": "Fribourg" }, "geometry": { "type": "Point", "coordinates": [ 7.161557958092356, 46.806569157530191 ] } },
{ "type": "Feature", "properties": { "id": null, "Name": "Munot" }, "geometry": { "type": "Point", "coordinates": [ 8.630143878919815, 47.701903415672604 ] } },
{ "type": "Feature", "properties": { "id": null, "Name": "Bellinzona" }, "geometry": { "type": "Point", "coordinates": [ 9.02239265898312, 46.195592862618142 ] } },
{ "type": "Feature", "properties": { "id": null, "Name": "Montebello" }, "geometry": { "type": "Point", "coordinates": [ 9.029880783434066, 46.194323993104952 ] } },
{ "type": "Feature", "properties": { "id": null, "Name": "Sasso Corbaro" }, "geometry": { "type": "Point", "coordinates": [ 9.031315331825642, 46.188920813471185 ] } },
{ "type": "Feature", "properties": { "id": null, "Name": "Christiansholm Fortress" }, "geometry": { "type": "Point", "coordinates": [ 8.003880393119982, 58.144013861802456 ] } },
{ "type": "Feature", "properties": { "id": null, "Name": "Gottorf Castle" }, "geometry": { "type": "Point", "coordinates": [ 9.540038666781651, 54.516850799987743 ] } },
{ "type": "Feature", "properties": { "id": null, "Name": "Peitz" }, "geometry": { "type": "Point", "coordinates": [ 14.400842906697736, 51.856236327525664 ] } },
{ "type": "Feature", "properties": { "id": null, "Name": "Burg Stolpen" }, "geometry": { "type": "Point", "coordinates": [ 14.084540574507351, 51.046402364052796 ] } },
{ "type": "Feature", "properties": { "id": null, "Name": "Eisenach" }, "geometry": { "type": "Point", "coordinates": [ 10.324092225229315, 50.969742533551276 ] } },
{ "type": "Feature", "properties": { "id": null, "Name": "Schmalkalden" }, "geometry": { "type": "Point", "coordinates": [ 10.453623414487867, 50.723736552230065 ] } },
{ "type": "Feature", "properties": { "id": null, "Name": "Saalfeld" }, "geometry": { "type": "Point", "coordinates": [ 11.365884053391889, 50.646254264223835 ] } },
{ "type": "Feature", "properties": { "id": null, "Name": "Dillenburg" }, "geometry": { "type": "Point", "coordinates": [ 8.285462594247839, 50.738923757069479 ] } },
{ "type": "Feature", "properties": { "id": null, "Name": "Kulmbach" }, "geometry": { "type": "Point", "coordinates": [ 11.452361445702673, 50.110447556188561 ] } },
{ "type": "Feature", "properties": { "id": null, "Name": null }, "geometry": { "type": "Point", "coordinates": [ 8.362215735589043, 49.63626223542618 ] } },
{ "type": "Feature", "properties": { "id": null, "Name": null }, "geometry": { "type": "Point", "coordinates": [ 8.704739381283622, 49.411151718185415 ] } },
{ "type": "Feature", "properties": { "id": null, "Name": "Straubing" }, "geometry": { "type": "Point", "coordinates": [ 12.571172720638611, 48.877191451111706 ] } },
{ "type": "Feature", "properties": { "id": null, "Name": "Burghausen" }, "geometry": { "type": "Point", "coordinates": [ 12.826758386951033, 48.155389861030969 ] } },
{ "type": "Feature", "properties": { "id": null, "Name": "Scharding" }, "geometry": { "type": "Point", "coordinates": [ 13.429172446941575, 48.455369681056766 ] } },
{ "type": "Feature", "properties": { "id": null, "Name": "Braunau am Inn" }, "geometry": { "type": "Point", "coordinates": [ 13.036443887853039, 48.256758301792665 ] } },
{ "type": "Feature", "properties": { "id": null, "Name": "Reutte" }, "geometry": { "type": "Point", "coordinates": [ 10.719531244336082, 47.487120892506518 ] } },
{ "type": "Feature", "properties": { "id": null, "Name": "Rattenberg" }, "geometry": { "type": "Point", "coordinates": [ 11.894285757364964, 47.440960100128095 ] } },
{ "type": "Feature", "properties": { "id": null, "Name": "Hohenasperg" }, "geometry": { "type": "Point", "coordinates": [ 9.138980901976762, 48.910725987092107 ] } },
{ "type": "Feature", "properties": { "id": null, "Name": "Isny im Allgau" }, "geometry": { "type": "Point", "coordinates": [ 10.040869404739338, 47.68758728651617 ] } },
{ "type": "Feature", "properties": { "id": null, "Name": "Höchstädt" }, "geometry": { "type": "Point", "coordinates": [ 10.565620963955196, 48.616119155112145 ] } },
{ "type": "Feature", "properties": { "id": null, "Name": "Hradec Králové" }, "geometry": { "type": "Point", "coordinates": [ 15.835545814720049, 50.206419203907565 ] } },
{ "type": "Feature", "properties": { "id": null, "Name": null }, "geometry": { "type": "Point", "coordinates": [ 33.370013802951171, 35.169812618760595 ] } },
{ "type": "Feature", "properties": { "id": null, "Name": null }, "geometry": { "type": "Point", "coordinates": [ 17.960274266789281, 50.654565237977536 ] } },
{ "type": "Feature", "properties": { "id": null, "Name": "Klosteneuburg" }, "geometry": { "type": "Point", "coordinates": [ 16.325002363652935, 48.302923396978791 ] } },
{ "type": "Feature", "properties": { "id": null, "Name": "Wiener Neustadt" }, "geometry": { "type": "Point", "coordinates": [ 16.234860776499257, 47.809519354147383 ] } },
{ "type": "Feature", "properties": { "id": null, "Name": "Cilli/Celje" }, "geometry": { "type": "Point", "coordinates": [ 15.2672311853465, 46.230319248909986 ] } },
{ "type": "Feature", "properties": { "id": null, "Name": "Villach" }, "geometry": { "type": "Point", "coordinates": [ 13.849806376112133, 46.61722350747003 ] } },
{ "type": "Feature", "properties": { "id": null, "Name": "Nauders" }, "geometry": { "type": "Point", "coordinates": [ 10.502267055445316, 46.889905469693417 ] } },
{ "type": "Feature", "properties": { "id": null, "Name": "Gradisca d'Isonzo" }, "geometry": { "type": "Point", "coordinates": [ 13.501722401984487, 45.888264325940227 ] } },
{ "type": "Feature", "properties": { "id": null, "Name": "Petrinja" }, "geometry": { "type": "Point", "coordinates": [ 16.273697215272467, 45.443337759222764 ] } },
{ "type": "Feature", "properties": { "id": null, "Name": "Sisak" }, "geometry": { "type": "Point", "coordinates": [ 16.375115602087121, 45.486554527043289 ] } },
{ "type": "Feature", "properties": { "id": null, "Name": "Kostajnica" }, "geometry": { "type": "Point", "coordinates": [ 16.550840441074271, 45.209840991116614 ] } },
{ "type": "Feature", "properties": { "id": null, "Name": "Otočac" }, "geometry": { "type": "Point", "coordinates": [ 15.234951574476472, 44.869942287583321 ] } },
{ "type": "Feature", "properties": { "id": null, "Name": "Brinje" }, "geometry": { "type": "Point", "coordinates": [ 15.131033996303469, 44.998975000772539 ] } },
{ "type": "Feature", "properties": { "id": null, "Name": "Slavonski Brod" }, "geometry": { "type": "Point", "coordinates": [ 18.01459401666721, 45.157347898342962 ] } },
{ "type": "Feature", "properties": { "id": null, "Name": "Gradiška" }, "geometry": { "type": "Point", "coordinates": [ 17.243890728489866, 45.152239994372913 ] } },
{ "type": "Feature", "properties": { "id": null, "Name": "Stone" }, "geometry": { "type": "Point", "coordinates": [ 17.75786712254185, 42.804627192101712 ] } },
{ "type": "Feature", "properties": { "id": null, "Name": null }, "geometry": { "type": "Point", "coordinates": [ 21.319977280942982, 46.200399104338445 ] } },
{ "type": "Feature", "properties": { "id": null, "Name": "Făgăraș" }, "geometry": { "type": "Point", "coordinates": [ 24.971875641883372, 45.84251585004548 ] } },
{ "type": "Feature", "properties": { "id": null, "Name": null }, "geometry": { "type": "Point", "coordinates": [ 25.583, 45.633 ] } },
{ "type": "Feature", "properties": { "id": null, "Name": null }, "geometry": { "type": "Point", "coordinates": [ 19.083, 47.5 ] } },
{ "type": "Feature", "properties": { "id": null, "Name": "Štúrovo/Párkány" }, "geometry": { "type": "Point", "coordinates": [ 18.717399650187289, 47.795781096704985 ] } },
{ "type": "Feature", "properties": { "id": null, "Name": "Visegrád" }, "geometry": { "type": "Point", "coordinates": [ 18.969962623799383, 47.785650926533805 ] } },
{ "type": "Feature", "properties": { "id": null, "Name": "Mukachevo" }, "geometry": { "type": "Point", "coordinates": [ 22.703973255791439, 48.436480032419055 ] } },
{ "type": "Feature", "properties": { "id": null, "Name": null }, "geometry": { "type": "Point", "coordinates": [ 20.37, 47.9 ] } },
{ "type": "Feature", "properties": { "id": null, "Name": "Szolnok" }, "geometry": { "type": "Point", "coordinates": [ 20.1913267503292, 47.174503346669034 ] } },
{ "type": "Feature", "properties": { "id": null, "Name": null }, "geometry": { "type": "Point", "coordinates": [ 20.145134653996386, 46.25719773059361 ] } },
{ "type": "Feature", "properties": { "id": null, "Name": "Kozarska Dubica" }, "geometry": { "type": "Point", "coordinates": [ 16.812880649330573, 45.176972352020599 ] } },
{ "type": "Feature", "properties": { "id": null, "Name": "Zvornik" }, "geometry": { "type": "Point", "coordinates": [ 19.101118307697355, 44.383648923062474 ] } },
{ "type": "Feature", "properties": { "id": null, "Name": null }, "geometry": { "type": "Point", "coordinates": [ 17.186, 44.776 ] } },
{ "type": "Feature", "properties": { "id": null, "Name": "Jajce" }, "geometry": { "type": "Point", "coordinates": [ 17.26909430096455, 44.337154603089992 ] } },
{ "type": "Feature", "properties": { "id": null, "Name": null }, "geometry": { "type": "Point", "coordinates": [ 17.67178722657416, 44.231640365603575 ] } },
{ "type": "Feature", "properties": { "id": null, "Name": "Blagaj Fortress" }, "geometry": { "type": "Point", "coordinates": [ 17.902813791686793, 43.259785217688169 ] } },
{ "type": "Feature", "properties": { "id": null, "Name": "Maglaj" }, "geometry": { "type": "Point", "coordinates": [ 18.097428965173759, 44.548856434893835 ] } },
{ "type": "Feature", "properties": { "id": null, "Name": "Doboj" }, "geometry": { "type": "Point", "coordinates": [ 18.085127648673957, 44.730243096840503 ] } },
{ "type": "Feature", "properties": { "id": null, "Name": "Tesanj" }, "geometry": { "type": "Point", "coordinates": [ 17.987876073725435, 44.609670305940043 ] } },
{ "type": "Feature", "properties": { "id": null, "Name": "Stolac" }, "geometry": { "type": "Point", "coordinates": [ 17.961047334755442, 43.080717447763675 ] } },
{ "type": "Feature", "properties": { "id": null, "Name": "Počitelj" }, "geometry": { "type": "Point", "coordinates": [ 17.732327663269302, 43.134169821110184 ] } },
{ "type": "Feature", "properties": { "id": null, "Name": "Velika Kladuša" }, "geometry": { "type": "Point", "coordinates": [ 15.803809249507836, 45.18548747992223 ] } },
{ "type": "Feature", "properties": { "id": null, "Name": "Smederevo" }, "geometry": { "type": "Point", "coordinates": [ 20.926430487285533, 44.662085749065703 ] } },
{ "type": "Feature", "properties": { "id": null, "Name": "Golubac Fortress" }, "geometry": { "type": "Point", "coordinates": [ 21.673232551461293, 44.660424148162768 ] } },
{ "type": "Feature", "properties": { "id": null, "Name": "Fetislam" }, "geometry": { "type": "Point", "coordinates": [ 22.61113868662671, 44.612297475455478 ] } },
{ "type": "Feature", "properties": { "id": null, "Name": "Užice" }, "geometry": { "type": "Point", "coordinates": [ 19.826740292615046, 43.854193991474894 ] } },
{ "type": "Feature", "properties": { "id": null, "Name": "Valjevo" }, "geometry": { "type": "Point", "coordinates": [ 19.885193854170009, 44.269862302668031 ] } },
{ "type": "Feature", "properties": { "id": null, "Name": "Pirot" }, "geometry": { "type": "Point", "coordinates": [ 22.583628916862853, 43.157106604485335 ] } },
{ "type": "Feature", "properties": { "id": null, "Name": null }, "geometry": { "type": "Point", "coordinates": [ 20.74, 42.215 ] } },
{ "type": "Feature", "properties": { "id": null, "Name": "Peja" }, "geometry": { "type": "Point", "coordinates": [ 20.290090339798638, 42.657725805803217 ] } },
{ "type": "Feature", "properties": { "id": null, "Name": "Novi Pazar" }, "geometry": { "type": "Point", "coordinates": [ 20.516210022423454, 43.138886470386353 ] } },
{ "type": "Feature", "properties": { "id": null, "Name": null }, "geometry": { "type": "Point", "coordinates": [ 21.3, 45.12 ] } },
{ "type": "Feature", "properties": { "id": null, "Name": "Tutrakan" }, "geometry": { "type": "Point", "coordinates": [ 26.61009659319485, 44.062807817667604 ] } },
{ "type": "Feature", "properties": { "id": null, "Name": "Provadia" }, "geometry": { "type": "Point", "coordinates": [ 27.439496417839248, 43.173672094941601 ] } },
{ "type": "Feature", "properties": { "id": null, "Name": "Gabrovo" }, "geometry": { "type": "Point", "coordinates": [ 25.315289588760582, 42.872547665100598 ] } },
{ "type": "Feature", "properties": { "id": null, "Name": null }, "geometry": { "type": "Point", "coordinates": [ 24.75, 42.15 ] } },
{ "type": "Feature", "properties": { "id": null, "Name": null }, "geometry": { "type": "Point", "coordinates": [ 26.25, 47.633 ] } },
{ "type": "Feature", "properties": { "id": null, "Name": "Neamț" }, "geometry": { "type": "Point", "coordinates": [ 26.375757937857713, 46.923776373630453 ] } },
{ "type": "Feature", "properties": { "id": null, "Name": null }, "geometry": { "type": "Point", "coordinates": [ 28.294797047638738, 48.159094405661193 ] } },
{ "type": "Feature", "properties": { "id": null, "Name": "Izmail" }, "geometry": { "type": "Point", "coordinates": [ 28.834304370725324, 45.338295584704746 ] } },
{ "type": "Feature", "properties": { "id": null, "Name": "Chilia" }, "geometry": { "type": "Point", "coordinates": [ 29.267163386081034, 45.441609016099349 ] } },
{ "type": "Feature", "properties": { "id": null, "Name": "Aq Kirmān" }, "geometry": { "type": "Point", "coordinates": [ 30.313600783788736, 46.163028432643017 ] } },
{ "type": "Feature", "properties": { "id": null, "Name": null }, "geometry": { "type": "Point", "coordinates": [ 28.967, 41.017 ] } },
{ "type": "Feature", "properties": { "id": null, "Name": "Rumelihisarı" }, "geometry": { "type": "Point", "coordinates": [ 29.05440142382179, 41.088770938134957 ] } },
{ "type": "Feature", "properties": { "id": null, "Name": null }, "geometry": { "type": "Point", "coordinates": [ 22.867, 43.983 ] } },
{ "type": "Feature", "properties": { "id": null, "Name": null }, "geometry": { "type": "Point", "coordinates": [ 22.93, 37.93 ] } },
{ "type": "Feature", "properties": { "id": null, "Name": "Nafplio" }, "geometry": { "type": "Point", "coordinates": [ 22.892686412292374, 37.552638923716131 ] } },
{ "type": "Feature", "properties": { "id": null, "Name": "Cephalonia" }, "geometry": { "type": "Point", "coordinates": [ 20.508594000443221, 38.280096417417191 ] } },
{ "type": "Feature", "properties": { "id": null, "Name": "Castle of Anthousa" }, "geometry": { "type": "Point", "coordinates": [ 20.409478334103955, 39.295536668613543 ] } },
{ "type": "Feature", "properties": { "id": null, "Name": "Kos" }, "geometry": { "type": "Point", "coordinates": [ 27.318158024865347, 36.904384731953535 ] } },
{ "type": "Feature", "properties": { "id": null, "Name": "Aegina" }, "geometry": { "type": "Point", "coordinates": [ 23.461565939271569, 37.734838903782943 ] } },
{ "type": "Feature", "properties": { "id": null, "Name": "Arta" }, "geometry": { "type": "Point", "coordinates": [ 20.986316258664605, 39.163377707041697 ] } },
{ "type": "Feature", "properties": { "id": null, "Name": "Astypalaia" }, "geometry": { "type": "Point", "coordinates": [ 26.388254667452596, 36.572813708246102 ] } },
{ "type": "Feature", "properties": { "id": null, "Name": "Bourtzi Castle" }, "geometry": { "type": "Point", "coordinates": [ 22.874310121840423, 37.546258153370914 ] } },
{ "type": "Feature", "properties": { "id": null, "Name": "Chalkida" }, "geometry": { "type": "Point", "coordinates": [ 23.60400459638684, 38.481491906754975 ] } },
{ "type": "Feature", "properties": { "id": null, "Name": null }, "geometry": { "type": "Point", "coordinates": [ 26.12, 38.38 ] } },
{ "type": "Feature", "properties": { "id": null, "Name": "Mytilene" }, "geometry": { "type": "Point", "coordinates": [ 26.567139617637356, 39.105515366680962 ] } },
{ "type": "Feature", "properties": { "id": null, "Name": "Castle of Kythira" }, "geometry": { "type": "Point", "coordinates": [ 23.001782249551681, 36.146042110070688 ] } },
{ "type": "Feature", "properties": { "id": null, "Name": "Fortetza" }, "geometry": { "type": "Point", "coordinates": [ 24.546154659261909, 35.265510762413719 ] } },
{ "type": "Feature", "properties": { "id": null, "Name": "Frangokastello" }, "geometry": { "type": "Point", "coordinates": [ 24.242391289707196, 35.147970736365515 ] } },
{ "type": "Feature", "properties": { "id": null, "Name": null }, "geometry": { "type": "Point", "coordinates": [ 22.933, 40.633 ] } },
{ "type": "Feature", "properties": { "id": null, "Name": "Ioannina Castle" }, "geometry": { "type": "Point", "coordinates": [ 20.431902234217304, 39.333623071062853 ] } },
{ "type": "Feature", "properties": { "id": null, "Name": "Kalamata" }, "geometry": { "type": "Point", "coordinates": [ 22.116385616695982, 37.046865280319921 ] } },
{ "type": "Feature", "properties": { "id": null, "Name": "Kritinia Castle" }, "geometry": { "type": "Point", "coordinates": [ 27.78306252219604, 36.241046639776336 ] } },
{ "type": "Feature", "properties": { "id": null, "Name": "Koroni" }, "geometry": { "type": "Point", "coordinates": [ 21.944323295228632, 36.765386345528462 ] } },
{ "type": "Feature", "properties": { "id": null, "Name": "Methoni" }, "geometry": { "type": "Point", "coordinates": [ 21.767530540309078, 36.736140138865039 ] } },
{ "type": "Feature", "properties": { "id": null, "Name": "Monemvasia" }, "geometry": { "type": "Point", "coordinates": [ 23.048240106160225, 36.682888152181157 ] } },
{ "type": "Feature", "properties": { "id": null, "Name": "Nafpaktos" }, "geometry": { "type": "Point", "coordinates": [ 21.892445053870645, 38.339530330053094 ] } },
{ "type": "Feature", "properties": { "id": null, "Name": "New Navarino" }, "geometry": { "type": "Point", "coordinates": [ 21.700502858862158, 36.904372867885037 ] } },
{ "type": "Feature", "properties": { "id": null, "Name": "Rhodes" }, "geometry": { "type": "Point", "coordinates": [ 28.220528514811559, 36.452750035097047 ] } },
{ "type": "Feature", "properties": { "id": null, "Name": "Rio" }, "geometry": { "type": "Point", "coordinates": [ 21.851548747461415, 38.26524641317107 ] } },
{ "type": "Feature", "properties": { "id": null, "Name": "Archangelos" }, "geometry": { "type": "Point", "coordinates": [ 28.115682843873991, 36.214028498333356 ] } },
{ "type": "Feature", "properties": { "id": null, "Name": null }, "geometry": { "type": "Point", "coordinates": [ 21.434, 42.001 ] } },
{ "type": "Feature", "properties": { "id": null, "Name": "Kelefa" }, "geometry": { "type": "Point", "coordinates": [ 22.402156451635992, 36.663249451355632 ] } },
{ "type": "Feature", "properties": { "id": null, "Name": "Castle of Zarnata" }, "geometry": { "type": "Point", "coordinates": [ 22.216411713387821, 36.97353413707819 ] } },
{ "type": "Feature", "properties": { "id": null, "Name": "Krujë Fortress" }, "geometry": { "type": "Point", "coordinates": [ 19.799031824478007, 41.517909054911094 ] } },
{ "type": "Feature", "properties": { "id": null, "Name": "Berat" }, "geometry": { "type": "Point", "coordinates": [ 19.959624024735646, 40.703063167318938 ] } },
{ "type": "Feature", "properties": { "id": null, "Name": "Ali Pasha Castle" }, "geometry": { "type": "Point", "coordinates": [ 19.99878364810089, 39.738436732003429 ] } },
{ "type": "Feature", "properties": { "id": null, "Name": "Fortress of Bashtovë" }, "geometry": { "type": "Point", "coordinates": [ 19.51495882168765, 41.049719294799289 ] } },
{ "type": "Feature", "properties": { "id": null, "Name": "Elbasan Castle" }, "geometry": { "type": "Point", "coordinates": [ 20.080574196733103, 41.108482152329806 ] } },
{ "type": "Feature", "properties": { "id": null, "Name": "Tepelena Castle" }, "geometry": { "type": "Point", "coordinates": [ 20.020873077472114, 40.301480138874666 ] } },
{ "type": "Feature", "properties": { "id": null, "Name": null }, "geometry": { "type": "Point", "coordinates": [ 19.433, 41.317 ] } },
{ "type": "Feature", "properties": { "id": null, "Name": "Petrela Castle" }, "geometry": { "type": "Point", "coordinates": [ 19.858461977213398, 41.254701645833038 ] } },
{ "type": "Feature", "properties": { "id": null, "Name": "Lëkurësi Castle" }, "geometry": { "type": "Point", "coordinates": [ 20.005114514162262, 39.879358727122423 ] } },
{ "type": "Feature", "properties": { "id": null, "Name": "Libohovë Castle" }, "geometry": { "type": "Point", "coordinates": [ 20.263316111729438, 40.032720236338108 ] } },
{ "type": "Feature", "properties": { "id": null, "Name": "Ishëm Castle" }, "geometry": { "type": "Point", "coordinates": [ 19.608518975610984, 41.533668812570539 ] } },
{ "type": "Feature", "properties": { "id": null, "Name": "Borsh Castle" }, "geometry": { "type": "Point", "coordinates": [ 19.907290599366309, 40.058470401123664 ] } },
{ "type": "Feature", "properties": { "id": null, "Name": "Kanina Castle" }, "geometry": { "type": "Point", "coordinates": [ 19.548212976507322, 40.432932863855434 ] } },
{ "type": "Feature", "properties": { "id": null, "Name": null }, "geometry": { "type": "Point", "coordinates": [ 26.68, 40.42 ] } },
{ "type": "Feature", "properties": { "id": null, "Name": "Sudak" }, "geometry": { "type": "Point", "coordinates": [ 34.958296077377959, 44.841419109882743 ] } },
{ "type": "Feature", "properties": { "id": null, "Name": "Baturyn" }, "geometry": { "type": "Point", "coordinates": [ 32.899273573472627, 51.333180317818936 ] } },
{ "type": "Feature", "properties": { "id": null, "Name": "Hlukhiv" }, "geometry": { "type": "Point", "coordinates": [ 33.908439304624743, 51.679208218085719 ] } },
{ "type": "Feature", "properties": { "id": null, "Name": null }, "geometry": { "type": "Point", "coordinates": [ 33.037999086168099, 49.997569873301501 ] } },
{ "type": "Feature", "properties": { "id": null, "Name": null }, "geometry": { "type": "Point", "coordinates": [ 16.967, 52.417 ] } },
{ "type": "Feature", "properties": { "id": null, "Name": "Czorsztyn Castle" }, "geometry": { "type": "Point", "coordinates": [ 20.304497037800235, 49.441782685845716 ] } },
{ "type": "Feature", "properties": { "id": null, "Name": "Koporye" }, "geometry": { "type": "Point", "coordinates": [ 29.046749451377458, 59.704306165029912 ] } },
{ "type": "Feature", "properties": { "id": null, "Name": null }, "geometry": { "type": "Point", "coordinates": [ 25.273884592405782, 54.67159312012474 ] } },
{ "type": "Feature", "properties": { "id": null, "Name": null }, "geometry": { "type": "Point", "coordinates": [ 30.338155404146242, 53.894275545962991 ] } },
{ "type": "Feature", "properties": { "id": null, "Name": null }, "geometry": { "type": "Point", "coordinates": [ 28.775845921606027, 55.474973173347124 ] } },
{ "type": "Feature", "properties": { "id": null, "Name": "Bohus Fortress" }, "geometry": { "type": "Point", "coordinates": [ 11.969523640394245, 57.870480579776761 ] } },
{ "type": "Feature", "properties": { "id": null, "Name": "Karlsvärd" }, "geometry": { "type": "Point", "coordinates": [ 18.774902660124024, 57.69912117909459 ] } },
{ "type": "Feature", "properties": { "id": null, "Name": null }, "geometry": { "type": "Point", "coordinates": [ 18.390363015756488, 57.644199983467495 ] } },
{ "type": "Feature", "properties": { "id": null, "Name": "Dalarö" }, "geometry": { "type": "Point", "coordinates": [ 18.404272114017754, 59.129033839045825 ] } },
{ "type": "Feature", "properties": { "id": null, "Name": "Zaraysk" }, "geometry": { "type": "Point", "coordinates": [ 38.881648019303775, 54.760338546956916 ] } },
{ "type": "Feature", "properties": { "id": null, "Name": "Serpukhov" }, "geometry": { "type": "Point", "coordinates": [ 37.415984889218052, 54.884876986742043 ] } },
{ "type": "Feature", "properties": { "id": null, "Name": "Kolomna" }, "geometry": { "type": "Point", "coordinates": [ 38.831394657131902, 55.076062405028708 ] } },
{ "type": "Feature", "properties": { "id": null, "Name": null }, "geometry": { "type": "Point", "coordinates": [ 37.580938499754197, 54.248297549065647 ] } },
{ "type": "Feature", "properties": { "id": null, "Name": "Ryazan" }, "geometry": { "type": "Point", "coordinates": [ 39.702666457689311, 54.606413400427968 ] } },
{ "type": "Feature", "properties": { "id": null, "Name": "Belyov" }, "geometry": { "type": "Point", "coordinates": [ 36.152656774537967, 53.808379824602518 ] } },
{ "type": "Feature", "properties": { "id": null, "Name": "Tambov" }, "geometry": { "type": "Point", "coordinates": [ 41.437006275076982, 52.721624776338409 ] } },
{ "type": "Feature", "properties": { "id": null, "Name": null }, "geometry": { "type": "Point", "coordinates": [ 36.20417687005417, 51.723899878984874 ] } },
{ "type": "Feature", "properties": { "id": null, "Name": "Livny" }, "geometry": { "type": "Point", "coordinates": [ 37.599775911182213, 52.421967566702229 ] } },
{ "type": "Feature", "properties": { "id": null, "Name": "Voronezh" }, "geometry": { "type": "Point", "coordinates": [ 39.189227625659157, 51.66351057828949 ] } },
{ "type": "Feature", "properties": { "id": null, "Name": null }, "geometry": { "type": "Point", "coordinates": [ 36.57977234518156, 50.601820830427528 ] } },
{ "type": "Feature", "properties": { "id": null, "Name": "Simbirsk" }, "geometry": { "type": "Point", "coordinates": [ 48.390691349868305, 54.316045977318062 ] } },
{ "type": "Feature", "properties": { "id": null, "Name": null }, "geometry": { "type": "Point", "coordinates": [ 31.287159685531662, 58.532115933319794 ] } },
{ "type": "Feature", "properties": { "id": null, "Name": null }, "geometry": { "type": "Point", "coordinates": [ 28.304893791443991, 57.801588369726694 ] } },
{ "type": "Feature", "properties": { "id": null, "Name": "Tobolsk" }, "geometry": { "type": "Point", "coordinates": [ 68.248040047156309, 58.188404331896685 ] } },
{ "type": "Feature", "properties": { "id": null, "Name": null }, "geometry": { "type": "Point", "coordinates": [ 34.282911176362681, 55.243474820686721 ] } },
{ "type": "Feature", "properties": { "id": null, "Name": null }, "geometry": { "type": "Point", "coordinates": [ 37.624410546513623, 55.752182360703095 ] } },
{ "type": "Feature", "properties": { "id": null, "Name": null }, "geometry": { "type": "Point", "coordinates": [ 34.455499379125143, 53.278185085164679 ] } },
{ "type": "Feature", "properties": { "id": null, "Name": "Volgograd" }, "geometry": { "type": "Point", "coordinates": [ 44.422195123923984, 48.613683435639729 ] } },
{ "type": "Feature", "properties": { "id": null, "Name": "Astrakhan" }, "geometry": { "type": "Point", "coordinates": [ 48.050723275138893, 46.338834773414042 ] } },
{ "type": "Feature", "properties": { "id": null, "Name": "Dnipro" }, "geometry": { "type": "Point", "coordinates": [ 35.058421790599724, 48.445721200615303 ] } },
{ "type": "Feature", "properties": { "id": null, "Name": null }, "geometry": { "type": "Point", "coordinates": [ -3.804, 43.465 ] } },
{ "type": "Feature", "properties": { "id": null, "Name": "Fort of Giribita" }, "geometry": { "type": "Point", "coordinates": [ -9.350903482276623, 38.64572637687953 ] } },
{ "type": "Feature", "properties": { "id": null, "Name": null }, "geometry": { "type": "Point", "coordinates": [ -6.25, 53.333 ] } }
]
}
