{
"type": "FeatureCollection",
"name": "Frankfurt",
"crs": { "type": "name", "properties": { "name": "urn:ogc:def:crs:OGC:1.3:CRS84" } },
"features": [
{ "type": "Feature", "properties": { "OBJECTID": 86.0, "YEAR": 1700.0, "OWNER_ID": 9632.0, "SHORT_NAME": "Frankfurt", "LONG_NAME": "Imperial City of Frankfurt", "VARIANTS": null, "SHAPE_LENG": 66722.23, "Shape__Are": 192121892.01513672, "Shape__Len": 66804.50714054337 }, "geometry": { "type": "MultiPolygon", "coordinates": [ [ [ [ 8.756322879792563, 50.038640077177647 ], [ 8.755183308464163, 50.036226919161393 ], [ 8.717973189459109, 50.01089221076132 ], [ 8.715883699125092, 50.009464499811301 ], [ 8.714484741055035, 50.010214840362742 ], [ 8.69019723955163, 50.009962484672961 ], [ 8.667533293803951, 50.000730652523139 ], [ 8.642214616185885, 50.014265635629137 ], [ 8.625035652409009, 50.028460629998989 ], [ 8.62692248640816, 50.029947606895441 ], [ 8.644035630624206, 50.033279860563432 ], [ 8.671460541376524, 50.024968707488419 ], [ 8.685414335891139, 50.039041057423738 ], [ 8.614153447582446, 50.069441754843133 ], [ 8.630410934812232, 50.096137515243328 ], [ 8.644753288416481, 50.098300382582906 ], [ 8.717973189459109, 50.109340619424209 ], [ 8.736578248512487, 50.092478175873019 ], [ 8.764485837541692, 50.05592240412782 ], [ 8.762840899187283, 50.052440302084591 ], [ 8.754493845195386, 50.049227434353426 ], [ 8.755758027226756, 50.039285588447378 ], [ 8.756322879792563, 50.038640077177647 ] ] ] ] } }
]
}
