{
"type": "FeatureCollection",
"name": "Genoa",
"crs": { "type": "name", "properties": { "name": "urn:ogc:def:crs:OGC:1.3:CRS84" } },
"features": [
{ "type": "Feature", "properties": { "OBJECTID": 6.0, "YEAR": 1700.0, "OWNER_ID": 1345.0, "SHORT_NAME": "Genoa", "LONG_NAME": "Republic of Genoa", "VARIANTS": null, "SHAPE_LENG": 1725859.0, "Shape__Are": 26683030805.907715, "Shape__Len": 1729133.4113381542 }, "geometry": { "type": "MultiPolygon", "coordinates": [ [ [ [ 8.55254612840473, 42.203377172786134 ], [ 8.581353254426867, 42.210878279938413 ], [ 8.602327826654619, 42.217378514005055 ], [ 8.616873999013672, 42.213942990429672 ], [ 8.649849711297659, 42.225119848198901 ], [ 8.678766536887313, 42.237278263965578 ], [ 8.668805809506191, 42.256543068169471 ], [ 8.663671866690551, 42.269372235458647 ], [ 8.631727330521159, 42.290802036387014 ], [ 8.604653458924002, 42.297213436536879 ], [ 8.604609578917309, 42.307409108090809 ], [ 8.63604949635727, 42.315380868095396 ], [ 8.620691546120389, 42.333671809101865 ], [ 8.604741218937368, 42.339692478159925 ], [ 8.588681191288472, 42.335297769126669 ], [ 8.573498760180001, 42.338581756821455 ], [ 8.56875973562787, 42.347064593052487 ], [ 8.580738937028265, 42.35939242717243 ], [ 8.618738892560343, 42.367132289662344 ], [ 8.61970425001244, 42.389831417922132 ], [ 8.636707694660901, 42.399738580558669 ], [ 8.661368173975344, 42.400510501163552 ], [ 8.687827727275563, 42.468707258358634 ], [ 8.675431668057474, 42.485283052833488 ], [ 8.648050637311847, 42.488896374510624 ], [ 8.653184581025824, 42.497663827154206 ], [ 8.654214132986402, 42.499999999702688 ], [ 8.663649926238033, 42.521579908578701 ], [ 8.698117554257697, 42.528164857702741 ], [ 8.698161434264382, 42.539472511372928 ], [ 8.710250334333992, 42.552379158066906 ], [ 8.733133680115097, 42.54075035681894 ], [ 8.761063208698477, 42.535493228709605 ], [ 8.771155576099693, 42.563876423879243 ], [ 8.790309133889116, 42.567546691376521 ], [ 8.841538866969655, 42.569664675842972 ], [ 8.868810197249442, 42.582613525895006 ], [ 8.953673840917599, 42.600827858489851 ], [ 8.999999999645505, 42.594466263390913 ], [ 9.018045591533188, 42.591988031664656 ], [ 9.052403519086976, 42.626677506578694 ], [ 9.067476249729591, 42.666093553062666 ], [ 9.168421860600809, 42.703726025537172 ], [ 9.226957590090453, 42.708484928974997 ], [ 9.291395160266919, 42.694594354005154 ], [ 9.333629522520075, 42.674002796489816 ], [ 9.36425766208219, 42.728049034739577 ], [ 9.324129532963315, 42.815068578560428 ], [ 9.343634129907906, 42.842840534563805 ], [ 9.341067158050924, 42.88189318718873 ], [ 9.361800390691075, 42.895226855530964 ], [ 9.360418175421282, 42.981479651814659 ], [ 9.382889586152448, 43.00000000005209 ], [ 9.394688342961704, 43.009801983107025 ], [ 9.448572807912585, 43.00382969440205 ], [ 9.449298481372141, 43.00000000005209 ], [ 9.481767919331682, 42.829801354960303 ], [ 9.481877618899233, 42.789845589253559 ], [ 9.460903047569797, 42.667433353428123 ], [ 9.473057768098592, 42.627840486719364 ], [ 9.499999999675717, 42.598438160874188 ], [ 9.513251716778335, 42.583971300834762 ], [ 9.523892582017288, 42.507339791258183 ], [ 9.526607856744526, 42.499999999702688 ], [ 9.555661598159912, 42.422040011019952 ], [ 9.528916826163703, 42.348577539370545 ], [ 9.563143114595757, 42.2721923653841 ], [ 9.558689308739595, 42.172443780059929 ], [ 9.529948002278344, 42.074056057140758 ], [ 9.499999999675717, 42.053522367550883 ], [ 9.473518505922982, 42.035359898332658 ], [ 9.448059408151295, 41.999999999713268 ], [ 9.431964281527627, 41.977811784620862 ], [ 9.444404221650707, 41.905569093831645 ], [ 9.460595888421331, 41.818994477864436 ], [ 9.469130520526003, 41.688669136962908 ], [ 9.464610895108974, 41.676662910249064 ], [ 9.449691744040592, 41.662297658012925 ], [ 9.436791066093125, 41.649898979671583 ], [ 9.440060115362096, 41.597226247384683 ], [ 9.426237960867539, 41.594059011199327 ], [ 9.414587858169815, 41.591392593560442 ], [ 9.401533600648115, 41.600684174191748 ], [ 9.389313060558452, 41.599456146876435 ], [ 9.390080958429623, 41.587643260767834 ], [ 9.382050944156022, 41.579238787888293 ], [ 9.380756488899596, 41.561844493453975 ], [ 9.393657166847063, 41.565401331450836 ], [ 9.406382324767796, 41.570493733156475 ], [ 9.409936593631052, 41.579513566609094 ], [ 9.420884618018473, 41.581582453496843 ], [ 9.442144408942193, 41.578317461135448 ], [ 9.432929638979717, 41.556605881762486 ], [ 9.389795738835339, 41.53064904366385 ], [ 9.350106408884981, 41.513209212315324 ], [ 9.349240423967938, 41.499999999681769 ], [ 9.347078698305296, 41.467270143295721 ], [ 9.289771605409525, 41.454817599635945 ], [ 9.250630773296923, 41.425950573733935 ], [ 9.243961034738929, 41.405546195492036 ], [ 9.252364027721868, 41.403342972297672 ], [ 9.276651528326957, 41.414068903823569 ], [ 9.284791241269794, 41.412798609682071 ], [ 9.257366331415783, 41.391955773894637 ], [ 9.248107681446623, 41.380100014765944 ], [ 9.225070756091274, 41.366069763839945 ], [ 9.194859474346863, 41.366439867011017 ], [ 9.194157396934875, 41.378539461017063 ], [ 9.143783320840566, 41.392920868366765 ], [ 9.133230215614981, 41.385778824991519 ], [ 9.122326071234244, 41.387757443165924 ], [ 9.12228219122756, 41.39858246750304 ], [ 9.128184031914383, 41.412862929154144 ], [ 9.141633208597918, 41.4272045329364 ], [ 9.12452006438189, 41.439694562927187 ], [ 9.094264902630798, 41.457983184092463 ], [ 9.076493561009464, 41.448743098101268 ], [ 9.063943921318835, 41.448003833770947 ], [ 9.053939313931004, 41.456729823987516 ], [ 9.052908137816363, 41.465824165260713 ], [ 9.054531692673757, 41.481663887241993 ], [ 9.050494745533614, 41.485486684547112 ], [ 9.031801926466876, 41.460811189136216 ], [ 9.005912810558577, 41.466370427162865 ], [ 8.999999999645505, 41.467902015019703 ], [ 8.935266241445136, 41.484667533065959 ], [ 8.924405976172748, 41.495781406725094 ], [ 8.906634634551443, 41.495139038343765 ], [ 8.907086654225989, 41.499999999681769 ], [ 8.907490291537666, 41.504374244490464 ], [ 8.88686675846504, 41.504244785414912 ], [ 8.879385242927535, 41.514066754272385 ], [ 8.85437372445794, 41.514390352341984 ], [ 8.859902586435433, 41.523482784388626 ], [ 8.839235174254457, 41.526232910825172 ], [ 8.804877245802345, 41.552854514773337 ], [ 8.796956931994609, 41.582552221258595 ], [ 8.827234033299913, 41.597323201619766 ], [ 8.871245529984698, 41.600732648373608 ], [ 8.884431426628106, 41.617583315973455 ], [ 8.921005287782052, 41.633767413115315 ], [ 8.852706290492186, 41.644877477097246 ], [ 8.794982337982091, 41.653450930211349 ], [ 8.78293731791916, 41.683505445195856 ], [ 8.766460431554247, 41.687458934566372 ], [ 8.71211522877897, 41.680875029293354 ], [ 8.701211084398251, 41.686668256137395 ], [ 8.675190328469901, 41.695784666059104 ], [ 8.705928168497881, 41.703722142552749 ], [ 8.729184492988322, 41.730334524214058 ], [ 8.713607143616303, 41.762141905437261 ], [ 8.766284911527503, 41.783525978721222 ], [ 8.78023870604212, 41.825773441260864 ], [ 8.795355317589722, 41.890435103502405 ], [ 8.740659075659321, 41.925458120545052 ], [ 8.689758441281434, 41.916374578278685 ], [ 8.619440970870654, 41.903382045402971 ], [ 8.60759340949032, 41.936179846179179 ], [ 8.593464094948999, 41.95048336989003 ], [ 8.607044910754242, 41.957055477953098 ], [ 8.633570284513654, 41.95882292111029 ], [ 8.640985980490328, 41.968880339230168 ], [ 8.648708835615476, 41.985778340710404 ], [ 8.634669316669937, 41.999999999713268 ], [ 8.630937493095804, 42.003809737461395 ], [ 8.651253867019951, 42.019586789110093 ], [ 8.739562079085498, 42.050433687814092 ], [ 8.722405054862769, 42.075785752822853 ], [ 8.693268830138015, 42.074832001314171 ], [ 8.676879703786458, 42.101402316734195 ], [ 8.660073717820593, 42.095811198377547 ], [ 8.650990587878166, 42.10073981072118 ], [ 8.636619934647532, 42.114311699798478 ], [ 8.596316286400247, 42.119287325101382 ], [ 8.590502204828457, 42.137797073487334 ], [ 8.567289760344702, 42.141172173521113 ], [ 8.585434081573675, 42.149794810759452 ], [ 8.576241251165403, 42.19521365832837 ], [ 8.55254612840473, 42.203377172786134 ] ] ], [ [ [ 9.99727220875184, 44.090371907210439 ], [ 9.997268478946777, 44.090392759048612 ], [ 9.989435924254094, 44.095080241917827 ], [ 9.969821628640267, 44.089600699306892 ], [ 9.980659953460137, 44.081970513991003 ], [ 9.977961341583104, 44.066222042350851 ], [ 9.985486737127319, 44.052054514467805 ], [ 9.982494130912306, 44.04793526376973 ], [ 9.981362030872125, 44.046376841439788 ], [ 9.981062172331971, 44.046255912326309 ], [ 9.979045278449329, 44.045442516862693 ], [ 9.970852804754909, 44.042138449621646 ], [ 9.838116238186883, 44.129093687360431 ], [ 9.825325259806968, 44.120709304916559 ], [ 9.861328681772335, 44.080159816458838 ], [ 9.866594264608034, 44.063456731527701 ], [ 9.850292898269862, 44.064750460582346 ], [ 9.818787160370711, 44.079981976807154 ], [ 9.756192545085055, 44.102611757689161 ], [ 9.717907369958674, 44.129949827983523 ], [ 9.674290791537409, 44.15267338371666 ], [ 9.663606046291774, 44.15236658542203 ], [ 9.662969788440654, 44.133600403267117 ], [ 9.642148796685451, 44.132938147739665 ], [ 9.622534500173309, 44.154885512301163 ], [ 9.573213541544456, 44.184039053351469 ], [ 9.547741284352176, 44.210322906658178 ], [ 9.503795607228259, 44.228838752353631 ], [ 9.499999999675717, 44.233850019073451 ], [ 9.493023102867571, 44.243060358586739 ], [ 9.48301849547974, 44.243415048134054 ], [ 9.475032361212822, 44.241577087766345 ], [ 9.43536497081665, 44.258680786741266 ], [ 9.429726409271613, 44.257633107245169 ], [ 9.419721801883782, 44.247622793846524 ], [ 9.39822067137246, 44.262726263937701 ], [ 9.388106364417077, 44.274216468995867 ], [ 9.263290111656788, 44.302634128765185 ], [ 9.19589065135982, 44.311572196522988 ], [ 9.182441475574599, 44.300894669786871 ], [ 9.181498058575009, 44.287959843537017 ], [ 9.187246319687597, 44.272476162458965 ], [ 9.16328791778516, 44.268721435198344 ], [ 9.118771802370988, 44.285978290565268 ], [ 9.116424230547423, 44.316596238235761 ], [ 9.095427718765489, 44.328301219170008 ], [ 9.047883893669947, 44.34061547609992 ], [ 9.019252287674563, 44.356145432619499 ], [ 8.999999999645505, 44.363312121351647 ], [ 8.996127602305847, 44.364753519277116 ], [ 8.977368963678233, 44.359669270679305 ], [ 8.918679655512669, 44.37625579762247 ], [ 8.906919853247404, 44.391197317394358 ], [ 8.877542288935039, 44.386195794095613 ], [ 8.849700520365001, 44.397147123168573 ], [ 8.837304460248612, 44.408868065510582 ], [ 8.7466047963528, 44.424508382969229 ], [ 8.718280348607577, 44.422788636873818 ], [ 8.648928234750569, 44.397725990450162 ], [ 8.637234252944468, 44.381354680770414 ], [ 8.622468680552025, 44.377655219756981 ], [ 8.601647688796815, 44.383413409362603 ], [ 8.585938699404773, 44.382319718934298 ], [ 8.570536870059497, 44.371140379927297 ], [ 8.508051953443088, 44.351671942468101 ], [ 8.499999999615302, 44.346134167952862 ], [ 8.475690559456009, 44.329412023557488 ], [ 8.459345312212855, 44.30070139386563 ], [ 8.470073937465155, 44.2860749533261 ], [ 8.457721758253751, 44.266868155433968 ], [ 8.447453871724163, 44.250766314026265 ], [ 8.44381184284752, 44.221936317643717 ], [ 8.437822243045657, 44.207935420272044 ], [ 8.376675661692355, 44.194625008111984 ], [ 8.337205730877074, 44.167639953765068 ], [ 8.310482897536744, 44.148426508325471 ], [ 8.278165383556384, 44.096728853776312 ], [ 8.292294697199411, 44.081728013185895 ], [ 8.284067224243206, 44.059769447662767 ], [ 8.258924065753586, 44.042817906969546 ], [ 8.240691985409542, 44.033498948907827 ], [ 8.213969152069204, 44.030101044995931 ], [ 8.195034994313172, 44.021605427315549 ], [ 8.179677044076257, 44.00367160398023 ], [ 8.179849445152351, 44.000000000164377 ], [ 8.1807959802043, 43.980008121395194 ], [ 8.174104302092115, 43.96565063085523 ], [ 8.147140130062473, 43.959611089773666 ], [ 8.108701375361857, 43.931236251072406 ], [ 8.106397683544984, 43.940380029670791 ], [ 8.076383861381498, 43.9811963922362 ], [ 8.040885056348877, 43.984134851625079 ], [ 8.003850457370564, 43.997027014763731 ], [ 8.001738572036516, 44.000000000164377 ], [ 7.999999999585081, 44.00246820205242 ], [ 7.980177275062402, 44.030602652951536 ], [ 7.951896706425535, 44.077184977484222 ], [ 7.982941705601987, 44.091653567363721 ], [ 7.999999999585081, 44.102681386964917 ], [ 8.010717655509456, 44.109609060493028 ], [ 8.065062858284733, 44.149007847629676 ], [ 8.11418635733266, 44.192704832507935 ], [ 8.123401127295145, 44.213936215002363 ], [ 8.126836018141969, 44.214496168891365 ], [ 8.143388402516614, 44.21719445359448 ], [ 8.211489940225588, 44.247139159995051 ], [ 8.248480660095543, 44.266352449377983 ], [ 8.267085719148895, 44.294113505829252 ], [ 8.265220825602217, 44.31382662801078 ], [ 8.261798196759012, 44.331150631604672 ], [ 8.307082209146037, 44.339987753281811 ], [ 8.341725356294111, 44.351865049366765 ], [ 8.354516334674035, 44.372186020363898 ], [ 8.353836196816232, 44.402131625952094 ], [ 8.321145703228204, 44.414189139766457 ], [ 8.32117084078479, 44.425293942809709 ], [ 8.328656713151441, 44.45395178908538 ], [ 8.32944921048837, 44.458400214951602 ], [ 8.332400886764075, 44.463823638736002 ], [ 8.347078698244854, 44.474262525918526 ], [ 8.353027545973863, 44.47925212102669 ], [ 8.373745040130254, 44.482284510786378 ], [ 8.37951811271097, 44.483129478938388 ], [ 8.404473551154009, 44.476334020076195 ], [ 8.458138616071482, 44.474888799566763 ], [ 8.476326817307131, 44.455503301912159 ], [ 8.493681300212451, 44.455422984441711 ], [ 8.499999999615302, 44.468803670353282 ], [ 8.504102766316311, 44.477490170922543 ], [ 8.511803681887242, 44.498168523256474 ], [ 8.533677790209602, 44.497590657333419 ], [ 8.555661598099467, 44.498537712873166 ], [ 8.557857432793474, 44.500000000095532 ], [ 8.569593453059907, 44.507882590642915 ], [ 8.578939863042418, 44.525476534298605 ], [ 8.588856710416881, 44.561926065804577 ], [ 8.600726211351402, 44.581282049427045 ], [ 8.639888983916503, 44.572324447509125 ], [ 8.66814761210086, 44.575881784024965 ], [ 8.683110643175933, 44.596833285533535 ], [ 8.67508062890235, 44.62013612799192 ], [ 8.675453607611686, 44.639617962525961 ], [ 8.701957041816922, 44.637582855113784 ], [ 8.722975493153022, 44.635111556366965 ], [ 8.741624432213086, 44.655960823379445 ], [ 8.740176432416723, 44.672798627299372 ], [ 8.742260690064215, 44.671879348908234 ], [ 8.778878431224836, 44.702509315121638 ], [ 8.772077052646774, 44.723092265060806 ], [ 8.764178678393215, 44.741862133012582 ], [ 8.816417648034211, 44.761367263426877 ], [ 8.849766339925868, 44.771310717058789 ], [ 8.860231686036411, 44.734977335162711 ], [ 8.93149257344677, 44.751196406258025 ], [ 8.999999999645505, 44.741983958346324 ], [ 9.006900107564848, 44.741055993046331 ], [ 9.019274227228747, 44.762866144043947 ], [ 9.058458939348032, 44.766443958465452 ], [ 9.095954277049058, 44.754226897841718 ], [ 9.10315057389062, 44.717221390949717 ], [ 9.138429978889816, 44.699298613863554 ], [ 9.203021127742199, 44.700137608396851 ], [ 9.244114614313165, 44.719156910567854 ], [ 9.250104215013351, 44.745022091682252 ], [ 9.292799315090896, 44.732993973537518 ], [ 9.336284253492108, 44.718866586684541 ], [ 9.371783057626406, 44.701993033485955 ], [ 9.409388095793298, 44.684017092203412 ], [ 9.407128283084782, 44.681951274488313 ], [ 9.419348823174445, 44.675979351785401 ], [ 9.431832642405894, 44.64147533984594 ], [ 9.431635182824975, 44.613026688561369 ], [ 9.444316461637341, 44.58873487973279 ], [ 9.469459619228653, 44.575606906773338 ], [ 9.48992957272702, 44.562508295576286 ], [ 9.491267908888442, 44.536690488047192 ], [ 9.485146668168206, 44.513402517798049 ], [ 9.468496274002801, 44.500000000095532 ], [ 9.461495425414236, 44.494412290724533 ], [ 9.441573970651939, 44.472463959637274 ], [ 9.461210206718267, 44.45388085778869 ], [ 9.498881063547708, 44.455920953539184 ], [ 9.499999999675717, 44.456059819207951 ], [ 9.55039601532421, 44.462313859307521 ], [ 9.596250466001489, 44.463229368231296 ], [ 9.651561026228846, 44.436416631968697 ], [ 9.693422409772666, 44.42328688608805 ], [ 9.709175278273085, 44.412758445770457 ], [ 9.728877333900279, 44.388608158280519 ], [ 9.74204129098953, 44.36333769708861 ], [ 9.772823011024196, 44.352154709480388 ], [ 9.810669386982056, 44.304164165476088 ], [ 9.819401478667645, 44.283593893487094 ], [ 9.845246714569262, 44.277793602232038 ], [ 9.863347155791564, 44.244011567224092 ], [ 9.912382895724447, 44.218081566215616 ], [ 9.9285087429342, 44.179616913399634 ], [ 9.966201540216144, 44.142741996001249 ], [ 9.990313521692816, 44.129271377658327 ], [ 9.999999999705929, 44.122424059298574 ], [ 10.008449101415771, 44.116460114825983 ], [ 10.02144273433389, 44.113060643988433 ], [ 10.020183352899418, 44.111402691768582 ], [ 10.018183695890446, 44.108784941487642 ], [ 10.008822663131726, 44.098054174810727 ], [ 10.002713704178053, 44.093992699884396 ], [ 9.999999999705929, 44.09218843349656 ], [ 9.99727220875184, 44.090371907210439 ] ] ], [ [ [ 7.513058159358172, 43.811798641706858 ], [ 7.531439917893153, 43.825570489926342 ], [ 7.532831843052843, 43.825409555810317 ], [ 7.555529958917308, 43.822785145276811 ], [ 7.564418448192206, 43.806047674102025 ], [ 7.567208663075372, 43.804193374797649 ], [ 7.581835933541655, 43.792314916570596 ], [ 7.611783935245948, 43.804508107535277 ], [ 7.617268918115083, 43.833201341161512 ], [ 7.614855525832325, 43.859998128337203 ], [ 7.638111849424469, 43.873657408848423 ], [ 7.667291955054249, 43.886155543374329 ], [ 7.668015972020403, 43.908362570825389 ], [ 7.667928212905369, 43.926736156395926 ], [ 7.650222689946563, 43.950325695925848 ], [ 7.631420171312293, 43.974500012237868 ], [ 7.663280336811822, 44.000000000164377 ], [ 7.673808113139684, 44.00849549774864 ], [ 7.699872748176393, 44.040423593248534 ], [ 7.7474823928328, 44.021880543042826 ], [ 7.780501985123471, 44.002004193267716 ], [ 7.785061598147066, 44.000000000164377 ], [ 7.812139362144348, 43.988197070269663 ], [ 7.847857566312071, 43.975447507566244 ], [ 7.879341363758715, 43.960092991172544 ], [ 7.888270914126907, 43.929098748687011 ], [ 7.902400227769941, 43.895081165804264 ], [ 7.919426733968383, 43.870150883130187 ], [ 7.879780162028954, 43.852354635569036 ], [ 7.861921938048271, 43.847829222109318 ], [ 7.840485750342082, 43.843020189850712 ], [ 7.836286667174641, 43.841302974529398 ], [ 7.823766208357709, 43.834365684049345 ], [ 7.803824129174806, 43.825473890617317 ], [ 7.796953640507019, 43.823234512300154 ], [ 7.784188332384644, 43.82055017409899 ], [ 7.782783738284494, 43.820595418540549 ], [ 7.778806468025288, 43.821195025433127 ], [ 7.772830908891324, 43.822874181637182 ], [ 7.762215933098842, 43.825196810347805 ], [ 7.759944272510081, 43.824990891711209 ], [ 7.735042453608028, 43.808019024210374 ], [ 7.68743280895162, 43.786579867714615 ], [ 7.65581737238324, 43.778814116225242 ], [ 7.641271199125899, 43.76060411727606 ], [ 7.620537967384053, 43.751110143482087 ], [ 7.603051844458682, 43.767824324581959 ], [ 7.553094627080376, 43.761748449928 ], [ 7.526591192875139, 43.762505953390146 ], [ 7.533734935577661, 43.762393696975451 ], [ 7.522651315887986, 43.784349707715499 ], [ 7.519114026081924, 43.794505024465749 ], [ 7.516657579344221, 43.801434913188999 ], [ 7.513058159358172, 43.811798641706858 ] ] ], [ [ [ 9.797505429892805, 43.037001677502488 ], [ 9.811195945265627, 43.054745319570181 ], [ 9.824908401090948, 43.080065937446903 ], [ 9.838620856017954, 43.057268151836674 ], [ 9.845466113704365, 43.037001677502488 ], [ 9.831753658777359, 43.019252866363409 ], [ 9.804350687579214, 43.024333728724223 ], [ 9.797505429892805, 43.037001677502488 ] ] ] ] } }
]
}
