{
"type": "FeatureCollection",
"name": "Goslar",
"crs": { "type": "name", "properties": { "name": "urn:ogc:def:crs:OGC:1.3:CRS84" } },
"features": [
{ "type": "Feature", "properties": { "OBJECTID": 13.0, "YEAR": 1700.0, "OWNER_ID": 9636.0, "SHORT_NAME": "Goslar", "LONG_NAME": "Imperial City of Goslar", "VARIANTS": null, "SHAPE_LENG": 13056.34, "Shape__Are": 12084003.569824219, "Shape__Len": 13071.443605464767 }, "geometry": { "type": "MultiPolygon", "coordinates": [ [ [ [ 10.42004959000486, 51.931859163226477 ], [ 10.413925567202186, 51.926896285449544 ], [ 10.397081030035894, 51.92465395557462 ], [ 10.383605399763871, 51.930035357782792 ], [ 10.382108107611238, 51.939451251287892 ], [ 10.38560964806226, 51.945531865320959 ], [ 10.402321552570113, 51.943486026346356 ], [ 10.41542285935482, 51.942141142040555 ], [ 10.418791767147402, 51.939451251287892 ], [ 10.42004959000486, 51.931859163226477 ] ] ] ] } }
]
}
