{
"type": "FeatureCollection",
"name": "Hamburg",
"crs": { "type": "name", "properties": { "name": "urn:ogc:def:crs:OGC:1.3:CRS84" } },
"features": [
{ "type": "Feature", "properties": { "OBJECTID": 109.0, "YEAR": 1700.0, "OWNER_ID": 15024.0, "SHORT_NAME": "Hamburg", "LONG_NAME": "Imperial City of Hamburg", "VARIANTS": null, "SHAPE_LENG": 284606.1, "Shape__Are": 836102149.13085938, "Shape__Len": 284932.35175536713 }, "geometry": { "type": "MultiPolygon", "coordinates": [ [ [ [ 9.981874306840993, 53.530143585142675 ], [ 9.9853112179989, 53.540571808272304 ], [ 9.999999999705929, 53.599608758051048 ], [ 10.0048013745253, 53.61885831170521 ], [ 10.061077441325082, 53.618407586433094 ], [ 10.062748062513471, 53.618566684212773 ], [ 10.06727418185169, 53.601263178782887 ], [ 10.066702850636045, 53.580502857205353 ], [ 10.074657531291603, 53.563741208230326 ], [ 10.103268011606453, 53.558125956633219 ], [ 10.114782520798562, 53.545273106648082 ], [ 10.104520543386885, 53.531087931964414 ], [ 10.131658748731446, 53.503939502279401 ], [ 10.170443309002369, 53.503035582996453 ], [ 10.213918668667707, 53.499999999893774 ], [ 10.246979673292985, 53.497718629415232 ], [ 10.258647967773529, 53.473721570229394 ], [ 10.276556986093619, 53.450263299610086 ], [ 10.253132429608337, 53.445593760475667 ], [ 10.245331569275509, 53.430753040749217 ], [ 10.208964177804789, 53.429226572500127 ], [ 10.166993350713275, 53.439700197516949 ], [ 10.134383556380479, 53.45405116650668 ], [ 10.117858916473386, 53.47084258481636 ], [ 10.10087764044949, 53.473037208199138 ], [ 10.088055982805992, 53.478821043644579 ], [ 10.065565533180692, 53.486238281432819 ], [ 10.052539567200551, 53.485475061183813 ], [ 10.027742497250543, 53.495537637967921 ], [ 10.009385601387672, 53.499999999893774 ], [ 10.00904240632158, 53.500084417167109 ], [ 10.008734766574435, 53.516112611767056 ], [ 10.03503794923485, 53.51377501990158 ], [ 10.0472995836555, 53.51980810784206 ], [ 10.024732023544528, 53.529480508825728 ], [ 9.999999999705929, 53.529862900577463 ], [ 9.981874306840993, 53.530143585142675 ] ] ], [ [ [ 8.79197108274176, 53.819861942627512 ], [ 8.789428903488295, 53.817510082755511 ], [ 8.7759823606652, 53.807960110065181 ], [ 8.755550582871464, 53.80821599538055 ], [ 8.753236139118927, 53.808250438947766 ], [ 8.734472015378207, 53.808540765810243 ], [ 8.684536738452408, 53.811747425064745 ], [ 8.649520612595008, 53.7940219415526 ], [ 8.634755041100853, 53.774030499574955 ], [ 8.544085615395872, 53.775844318024355 ], [ 8.544227289597636, 53.777380153052356 ], [ 8.544347856983469, 53.778687137315295 ], [ 8.547609645170008, 53.814030204977584 ], [ 8.646339323339403, 53.873694406658245 ], [ 8.702988217931555, 53.872574429427054 ], [ 8.734888874094226, 53.840807251793478 ], [ 8.805771632753725, 53.836050006510398 ], [ 8.79197108274176, 53.819861942627512 ] ] ], [ [ [ 10.14978750934308, 53.662264347781658 ], [ 10.182067689340249, 53.657920465972168 ], [ 10.171322279066844, 53.647058792983877 ], [ 10.189253271077101, 53.629687521785399 ], [ 10.203602459064014, 53.603597244895099 ], [ 10.174904082191874, 53.592721514388423 ], [ 10.146205705319733, 53.594896885545147 ], [ 10.15336931246811, 53.610121332943926 ], [ 10.139020123582879, 53.629687521785399 ], [ 10.128274713309478, 53.644886121111242 ], [ 10.14978750934308, 53.662264347781658 ] ] ], [ [ [ 10.354895204655854, 53.445107046690545 ], [ 10.341403012144937, 53.452236189520903 ], [ 10.332525413146257, 53.462861904656087 ], [ 10.350280611143619, 53.468173760666922 ], [ 10.379132808338488, 53.464189931270127 ], [ 10.385791007138341, 53.452236189520903 ], [ 10.378319760242821, 53.431950490819737 ], [ 10.354895204655854, 53.445107046690545 ] ] ], [ [ [ 8.483588933709571, 53.914085649782592 ], [ 8.499999999615302, 53.917798709744297 ], [ 8.506801378193327, 53.919337447728871 ], [ 8.52132561009987, 53.903606395753734 ], [ 8.503905307633692, 53.900103945884858 ], [ 8.499999999615302, 53.900889155320449 ], [ 8.486485004269214, 53.903606395753734 ], [ 8.483588933709571, 53.914085649782592 ] ] ], [ [ [ 8.419699861370868, 53.938548896191435 ], [ 8.42551394294261, 53.950781694588159 ], [ 8.44001623529498, 53.956015704415698 ], [ 8.451644397540223, 53.950781694588159 ], [ 8.437120164735346, 53.938548896191435 ], [ 8.431306084061889, 53.92632565313383 ], [ 8.419699861370868, 53.938548896191435 ] ] ] ] } }
]
}
