{
"type": "FeatureCollection",
"name": "Hesse-Kassel",
"crs": { "type": "name", "properties": { "name": "urn:ogc:def:crs:OGC:1.3:CRS84" } },
"features": [
{ "type": "Feature", "properties": { "OBJECTID": 75.0, "YEAR": 1700.0, "OWNER_ID": 5700.0, "SHORT_NAME": "Hesse-Kassel", "LONG_NAME": "Landgraviate of Hesse-Kassel", "VARIANTS": null, "SHAPE_LENG": 1889040.0, "Shape__Are": 20674645426.368652, "Shape__Len": 1891583.7757986796 }, "geometry": { "type": "MultiPolygon", "coordinates": [ [ [ [ 10.074607537351099, 50.836023334462247 ], [ 10.04650851104663, 50.807936799479712 ], [ 10.015195197671227, 50.814086969391496 ], [ 10.001021802798896, 50.827347976810273 ], [ 9.999999999705929, 50.82763904022373 ], [ 9.9722569604772, 50.835553390193553 ], [ 9.972300840483884, 50.853502621127717 ], [ 9.940882862598098, 50.856390203021107 ], [ 9.918569955107236, 50.841027256874952 ], [ 9.875194717171889, 50.83387812606631 ], [ 9.832346036621797, 50.835263191565843 ], [ 9.803977708869882, 50.82932690714911 ], [ 9.783595515384883, 50.834893844768693 ], [ 9.739101340423209, 50.843638657180662 ], [ 9.714857719824805, 50.842056007335252 ], [ 9.680697250953617, 50.833798978413199 ], [ 9.662509050616265, 50.815696965324591 ], [ 9.603117664140399, 50.809098267421604 ], [ 9.539140832686636, 50.78814779125144 ], [ 9.499999999675717, 50.766515978278832 ], [ 9.49943278723565, 50.766202425104673 ], [ 9.453926149863337, 50.776183171701 ], [ 9.433368437249918, 50.762431944268627 ], [ 9.40614098607851, 50.759882038707282 ], [ 9.399361547952967, 50.774994465022445 ], [ 9.406733363922948, 50.802987037266085 ], [ 9.374437789496755, 50.809243448730697 ], [ 9.354033655559258, 50.777292603483367 ], [ 9.332554465500435, 50.778771804890873 ], [ 9.297516400088844, 50.790022761357193 ], [ 9.275093793030432, 50.801376600876829 ], [ 9.281346672872406, 50.818864007330191 ], [ 9.196483029204257, 50.835579771952183 ], [ 9.147995787109128, 50.837294545569364 ], [ 9.145472696157142, 50.837386877342254 ], [ 9.100978521195472, 50.871932590185558 ], [ 9.048849251122036, 50.872051214637239 ], [ 9.051701441674988, 50.847555482133849 ], [ 9.026821562327145, 50.846909294619685 ], [ 9.010498255536472, 50.873356060162472 ], [ 8.999999999645505, 50.871162649887651 ], [ 8.964950964007645, 50.86383907074709 ], [ 8.938118431998088, 50.872855214472473 ], [ 8.914796287946752, 50.860872851072529 ], [ 8.908433708537254, 50.837888106118676 ], [ 8.911483358671125, 50.818732051462824 ], [ 8.93914960811272, 50.808451544497309 ], [ 8.96021193945554, 50.816501942082581 ], [ 8.977983281975179, 50.815195496959348 ], [ 8.981998288662821, 50.788240221319363 ], [ 8.964643804859202, 50.776830343646139 ], [ 8.940751223415939, 50.775179377261566 ], [ 8.911966036948012, 50.758362597991194 ], [ 8.908280128963021, 50.733952270826116 ], [ 8.907227012395881, 50.700997211317414 ], [ 8.922957941342098, 50.690624509556848 ], [ 8.942594177408443, 50.69184183361331 ], [ 8.963261589589385, 50.69878791337517 ], [ 8.958412865469727, 50.667118633672551 ], [ 8.925634612766631, 50.667965898076652 ], [ 8.877586168941733, 50.654169466151728 ], [ 8.864224752271545, 50.662551085786198 ], [ 8.784034314492995, 50.651229584129304 ], [ 8.756653283747323, 50.650726342950023 ], [ 8.736534368505794, 50.6602472832313 ], [ 8.724599048010425, 50.64428967064876 ], [ 8.693488229273107, 50.63716326693735 ], [ 8.65173654529684, 50.655321531226896 ], [ 8.609195023895214, 50.657162128696783 ], [ 8.595658088096618, 50.665159276895395 ], [ 8.593069176685452, 50.688798463636957 ], [ 8.637058732917726, 50.710812108480539 ], [ 8.676857763333951, 50.743033297082427 ], [ 8.658625682989943, 50.762590482664258 ], [ 8.636005616350586, 50.779181218453409 ], [ 8.6213936244307, 50.798723219465927 ], [ 8.639559885213851, 50.816567923230835 ], [ 8.613780468873111, 50.845959778226515 ], [ 8.584029925851411, 50.877678922385428 ], [ 8.591248162247158, 50.922465334883469 ], [ 8.60590403507206, 50.948171596978526 ], [ 8.628962899981582, 50.964327768551101 ], [ 8.614658066311842, 50.972548408128503 ], [ 8.633109545790989, 50.988511997716337 ], [ 8.69763487598081, 50.993586579217975 ], [ 8.701394240104889, 50.999999999968175 ], [ 8.717622150303947, 51.027975725499708 ], [ 8.701167204391567, 51.050252775135505 ], [ 8.660051778266418, 51.082361620694726 ], [ 8.660923832201522, 51.086216503030762 ], [ 8.700618705655488, 51.105924810467158 ], [ 8.744717962353647, 51.118821769599606 ], [ 8.778439632056308, 51.12126025342274 ], [ 8.831863358284505, 51.097996621185935 ], [ 8.859310208590996, 51.140008399697052 ], [ 8.878617345954661, 51.146273741826249 ], [ 8.874624278821194, 51.214831911332695 ], [ 8.909201606408436, 51.222792834763524 ], [ 8.962998310447633, 51.223665542970274 ], [ 8.959378222023501, 51.152644174521903 ], [ 8.966333180175759, 51.107621636794327 ], [ 8.982788126088176, 51.095145850630075 ], [ 8.999999999645505, 51.094561199357543 ], [ 9.003477478721644, 51.09444307553926 ], [ 9.029805392900146, 51.057737994902872 ], [ 9.033995919614522, 51.035544226433977 ], [ 9.056879264497322, 51.026408757739993 ], [ 9.070657539883509, 51.031773409368732 ], [ 9.094484301765899, 51.037163989837786 ], [ 9.101614779046594, 51.055335955731088 ], [ 9.125902279651683, 51.06358995227324 ], [ 9.140887250280933, 51.100542275490255 ], [ 9.162300620778886, 51.113493762640999 ], [ 9.181805217723477, 51.138869154477263 ], [ 9.159031571509916, 51.151995252010813 ], [ 9.137069703174205, 51.142366282053395 ], [ 9.126253318806837, 51.145757181099732 ], [ 9.081715263838483, 51.184125760209291 ], [ 9.027984378461836, 51.213363882292711 ], [ 9.022850435646186, 51.236450132003789 ], [ 9.035092915290033, 51.252891653283207 ], [ 9.050582505546981, 51.267504314923904 ], [ 9.033162202182485, 51.302959568487722 ], [ 9.052754558242128, 51.325103481405748 ], [ 9.034544417452278, 51.334680891194218 ], [ 9.041433555145373, 51.360289920134235 ], [ 9.061486649927717, 51.381075134144105 ], [ 9.05233769952611, 51.393986975134311 ], [ 9.077458917563238, 51.401890376986643 ], [ 9.063746461737917, 51.415270340068147 ], [ 9.089130959815146, 51.421945680370079 ], [ 9.085576690951891, 51.437767719708404 ], [ 9.12930296804239, 51.448216195930293 ], [ 9.144244059563269, 51.438636324509254 ], [ 9.15900963195573, 51.440807763587884 ], [ 9.158856052381497, 51.459951416360774 ], [ 9.204030365200971, 51.465831042670352 ], [ 9.24104302462511, 51.476812196447632 ], [ 9.243258957326942, 51.493482688786557 ], [ 9.24413389215916, 51.500000000093614 ], [ 9.244421773461633, 51.502167969979759 ], [ 9.308113385321111, 51.519399080104542 ], [ 9.360154896279496, 51.549434886683379 ], [ 9.420752977998422, 51.56720531774355 ], [ 9.386395050444634, 51.575471032925705 ], [ 9.386570569573051, 51.592077500128724 ], [ 9.433522016824154, 51.605615479096031 ], [ 9.449998903189062, 51.607895718973829 ], [ 9.449316560865547, 51.624546871714706 ], [ 9.465368100333317, 51.624427486502604 ], [ 9.498617784405925, 51.622449420070346 ], [ 9.499999999675717, 51.621642897529995 ], [ 9.51474363161568, 51.613039093070533 ], [ 9.522685885875914, 51.60348096459564 ], [ 9.544252835948102, 51.594517553143469 ], [ 9.579115382231278, 51.58305877001817 ], [ 9.598707738290921, 51.587223524785372 ], [ 9.628897079582835, 51.600776216972967 ], [ 9.651539085776346, 51.623310831050738 ], [ 9.678612957373522, 51.622833743802794 ], [ 9.672447837544915, 51.604952597518889 ], [ 9.718039009080409, 51.596824873567535 ], [ 9.721549397936981, 51.586268583179745 ], [ 9.715274578540823, 51.57033664897655 ], [ 9.688573685652985, 51.565705916765801 ], [ 9.653513679788892, 51.579013019584899 ], [ 9.638397069139593, 51.574170907945053 ], [ 9.645066806799271, 51.549010116371356 ], [ 9.638155729551992, 51.540606798944765 ], [ 9.611323196644104, 51.532321433354142 ], [ 9.587452554755032, 51.513899653382417 ], [ 9.581002216230456, 51.507256944035944 ], [ 9.587342855187481, 51.500905603839364 ], [ 9.588598549037712, 51.500000000093614 ], [ 9.599190416567806, 51.492444248524876 ], [ 9.614109567636188, 51.474169071355576 ], [ 9.618093859127637, 51.467063431426809 ], [ 9.619715877865893, 51.464817748986945 ], [ 9.635698457262558, 51.448953025444773 ], [ 9.641029860557444, 51.42559234577822 ], [ 9.629445578318903, 51.408291125743013 ], [ 9.595592268596183, 51.407882874659499 ], [ 9.55761425261827, 51.37878224062127 ], [ 9.531308277993951, 51.355148169801936 ], [ 9.538526514389698, 51.342080240253594 ], [ 9.561870597995203, 51.347170716766179 ], [ 9.606825511679572, 51.323243173012266 ], [ 9.649696131783852, 51.314798264968971 ], [ 9.669815046127065, 51.309031078541892 ], [ 9.704480133727635, 51.314006474693564 ], [ 9.734033217168429, 51.301032354873655 ], [ 9.748645209088339, 51.306813750558533 ], [ 9.771835714017922, 51.297454914700971 ], [ 9.795421137211024, 51.295791507402548 ], [ 9.821836810504578, 51.303804348178701 ], [ 9.847989205554663, 51.318044461538641 ], [ 9.838006537721016, 51.328058709410485 ], [ 9.796649772906582, 51.316962421484405 ], [ 9.783266416682228, 51.337965242439225 ], [ 9.756960442057911, 51.352643004106156 ], [ 9.774819543692608, 51.369767678135233 ], [ 9.808080475570891, 51.385713277813963 ], [ 9.820476535687288, 51.408923250093963 ], [ 9.843579279705185, 51.413821912033342 ], [ 9.860670484367029, 51.382827669903968 ], [ 9.8769937911577, 51.379744215339258 ], [ 9.87295684401756, 51.413334703328132 ], [ 9.910386362157716, 51.420694951745418 ], [ 9.935748919782448, 51.407896044124563 ], [ 9.941343601320801, 51.391339028917635 ], [ 9.956918600700018, 51.387946513818704 ], [ 9.93829395118693, 51.353473679567514 ], [ 9.963319071946541, 51.334168168136969 ], [ 9.965952521829495, 51.332100465235371 ], [ 9.996961319798309, 51.302682371376235 ], [ 9.999999999705929, 51.302393709808022 ], [ 10.026599835717567, 51.29987070782412 ], [ 10.034532541784646, 51.319865397113745 ], [ 10.083798820860471, 51.315180958386954 ], [ 10.086172040483714, 51.299118261412104 ], [ 10.089797792785703, 51.28154445218469 ], [ 10.09272036903611, 51.250301580928031 ], [ 10.117397457301823, 51.239040989157637 ], [ 10.170289488679638, 51.225953017142963 ], [ 10.234805901293646, 51.220320071273321 ], [ 10.224917486496238, 51.197146304769205 ], [ 10.257505299952346, 51.184588931093572 ], [ 10.253725734514148, 51.172782699548463 ], [ 10.238102039260008, 51.164760125644527 ], [ 10.19296691993638, 51.175258029257719 ], [ 10.195142370958246, 51.157901433561157 ], [ 10.205404348369925, 51.138379005718832 ], [ 10.202811386455144, 51.119245862766959 ], [ 10.147721928568666, 51.110484888866885 ], [ 10.136317290522328, 51.07757325136518 ], [ 10.139855145368712, 51.032317806782622 ], [ 10.169542364349411, 51.016912856971281 ], [ 10.161109068496996, 50.999999999968175 ], [ 10.160884507642272, 50.999554415136224 ], [ 10.149928626589375, 50.999999999968175 ], [ 10.134383556380479, 51.000639110568684 ], [ 10.109332905500494, 51.010922129141463 ], [ 10.070965856122488, 51.010882276875655 ], [ 10.0381802677768, 51.019728628600639 ], [ 10.02686352628775, 51.001834928435926 ], [ 10.02856383679628, 50.999999999968175 ], [ 10.043300269637557, 50.984265222255651 ], [ 10.026533912850439, 50.967918723676021 ], [ 10.004603606822242, 50.973653150367795 ], [ 9.999999999705929, 50.971732309329091 ], [ 9.977720002893818, 50.962420371653401 ], [ 9.999999999705929, 50.949343682537709 ], [ 10.006647212109858, 50.945447646700153 ], [ 10.040531513709878, 50.944750184626393 ], [ 10.066900619237421, 50.940473063169726 ], [ 10.095862687578059, 50.943894791981315 ], [ 10.119528960045047, 50.930917203125425 ], [ 10.128296687897958, 50.92071420973226 ], [ 10.142733773340474, 50.912365829704193 ], [ 10.140514373141647, 50.903001738912614 ], [ 10.112694966333983, 50.895308861079023 ], [ 10.065933751717338, 50.894571120430115 ], [ 10.060374265273502, 50.88385938779075 ], [ 10.035785074463393, 50.883016046366862 ], [ 10.056946281572888, 50.861545210545813 ], [ 10.072939573379317, 50.838551610634731 ], [ 10.074607537351099, 50.836023334462247 ] ], [ [ 8.90659075454476, 50.796175302117497 ], [ 8.884936045357502, 50.807342856010344 ], [ 8.87565545493586, 50.785005065314671 ], [ 8.884936045357502, 50.766382040450125 ], [ 8.903497224404198, 50.773832144804672 ], [ 8.905043989474475, 50.784306770812194 ], [ 8.905154347507128, 50.785072676034424 ], [ 8.90659075454476, 50.796175302117497 ] ] ], [ [ [ 7.680317205975417, 50.270425810505415 ], [ 7.662134453021921, 50.288053072629751 ], [ 7.650688381081435, 50.299146096425027 ], [ 7.629011408048186, 50.298680266113557 ], [ 7.613945023104755, 50.292204370669225 ], [ 7.594573955337256, 50.290261429316097 ], [ 7.576279058500349, 50.301270376354644 ], [ 7.605335659253273, 50.32069168098058 ], [ 7.615021193137005, 50.336870008974131 ], [ 7.635468430936789, 50.340105010119281 ], [ 7.654839498704289, 50.331046449033863 ], [ 7.662372690726846, 50.333634786312871 ], [ 7.663448861657464, 50.347868109226859 ], [ 7.678515247499226, 50.371796298838923 ], [ 7.724790575056782, 50.378907746865572 ], [ 7.749246300470167, 50.373466563035748 ], [ 7.726507821503355, 50.364857377928402 ], [ 7.718346168108045, 50.344564295519717 ], [ 7.729402432300672, 50.312231946511361 ], [ 7.731554005203955, 50.312650001536291 ], [ 7.746429276265659, 50.30337115616755 ], [ 7.79158164953096, 50.310960674632511 ], [ 7.840836788598944, 50.313283483206988 ], [ 7.843184361320798, 50.320686675527313 ], [ 7.852593492574787, 50.322959035898833 ], [ 7.879736282022262, 50.329513566099244 ], [ 7.888687772842926, 50.349747178832004 ], [ 7.875633515321252, 50.382334871977527 ], [ 7.887094974504258, 50.391267635123334 ], [ 7.902093069519798, 50.402954204629566 ], [ 7.925963711408849, 50.408183361638393 ], [ 7.949220035899327, 50.402018953909852 ], [ 7.949285855460185, 50.401136376645155 ], [ 7.950997169432631, 50.377089667258709 ], [ 7.956347190311778, 50.375043651953028 ], [ 7.990905899416406, 50.361825177683791 ], [ 7.999999999585081, 50.346720857047231 ], [ 8.005101033518596, 50.33824647505682 ], [ 8.018769608438918, 50.309786028478825 ], [ 8.021512099424319, 50.277082215371379 ], [ 8.002051383384753, 50.247382320336058 ], [ 8.026492463564068, 50.216063657483957 ], [ 8.059446236293871, 50.192491621377997 ], [ 8.07636192092899, 50.177723375786513 ], [ 8.075067465672573, 50.159256610967525 ], [ 8.098126329683799, 50.142372108742862 ], [ 8.122062792032045, 50.108386301122259 ], [ 8.101197920270142, 50.102222532819695 ], [ 8.082439354406093, 50.080662900812186 ], [ 8.018155291040305, 50.068420308597801 ], [ 8.002098561106816, 50.067809801945771 ], [ 7.999999999585081, 50.067730010329505 ], [ 7.989545623700788, 50.067332510824819 ], [ 7.945073389191625, 50.09721139821049 ], [ 7.932175689159324, 50.102187694083732 ], [ 7.903738563931374, 50.11315770257449 ], [ 7.910671581631161, 50.1267933238003 ], [ 7.891452204280836, 50.140862143632916 ], [ 7.862403738671126, 50.162156169208366 ], [ 7.839279054200706, 50.195005471145215 ], [ 7.795070097935032, 50.188191306822176 ], [ 7.790396881265661, 50.169199083231128 ], [ 7.746451216718167, 50.162407720439539 ], [ 7.709087518138868, 50.143286011179477 ], [ 7.693166977294038, 50.127174674642681 ], [ 7.685721494979183, 50.119638091259816 ], [ 7.683514914637766, 50.119148905980765 ], [ 7.656991838768859, 50.119620072378268 ], [ 7.630087578978794, 50.12871910408812 ], [ 7.633316089973921, 50.153407707947565 ], [ 7.650534816778543, 50.170941825496307 ], [ 7.664525031689722, 50.176135877652932 ], [ 7.719409723098751, 50.194310589874142 ], [ 7.732323767977674, 50.213127068163239 ], [ 7.744161641925984, 50.224802509763023 ], [ 7.739862575369061, 50.231834268272458 ], [ 7.73662844990342, 50.237123470446484 ], [ 7.70972418921502, 50.24684828389239 ], [ 7.69358163334098, 50.242310285764596 ], [ 7.669905883647745, 50.25721921918587 ], [ 7.675084954230019, 50.26657542010323 ], [ 7.680317205975417, 50.270425810505415 ] ] ], [ [ [ 9.00977145019966, 52.11755674944559 ], [ 9.02930077417076, 52.131934434364773 ], [ 9.055146010072377, 52.159049801766443 ], [ 9.065677175743778, 52.18580448559333 ], [ 9.09060093419999, 52.188371872766972 ], [ 9.147205949683773, 52.174712719622896 ], [ 9.143432282583731, 52.156493956599562 ], [ 9.184942626972399, 52.149659987073036 ], [ 9.196263630069156, 52.181542823523095 ], [ 9.193516312435733, 52.181178577852393 ], [ 9.186965269174546, 52.180814329183214 ], [ 9.183055792973219, 52.180973688275877 ], [ 9.177493582837442, 52.182060332778327 ], [ 9.171514513087329, 52.184647259841448 ], [ 9.169847955877286, 52.190647988649317 ], [ 9.169062945998267, 52.199205135199435 ], [ 9.166074288777244, 52.211696505841779 ], [ 9.162300620778886, 52.222501310898132 ], [ 9.181168958974041, 52.249785894110211 ], [ 9.211358301164269, 52.242966328753504 ], [ 9.245321310454539, 52.238419366395156 ], [ 9.260415980651338, 52.254331685957958 ], [ 9.267963316648052, 52.28613912129213 ], [ 9.249094977554581, 52.313384383410764 ], [ 9.271736983748093, 52.331538533472113 ], [ 9.309473661036719, 52.329269673812306 ], [ 9.328341999231876, 52.363290285074207 ], [ 9.328341999231876, 52.388222013152628 ], [ 9.290605322841563, 52.39048783278168 ], [ 9.271736983748093, 52.39048783278168 ], [ 9.264189648649694, 52.410874946963219 ], [ 9.275510651746451, 52.428988878936437 ], [ 9.294378989941606, 52.428988878936437 ], [ 9.324568332131834, 52.435779675874343 ], [ 9.362305008522146, 52.435779675874343 ], [ 9.396728326242096, 52.432608103714493 ], [ 9.396246078258232, 52.410756444442548 ], [ 9.420796858005104, 52.412283783856736 ], [ 9.429572829697378, 52.425751036168194 ], [ 9.452763333728646, 52.426066934017278 ], [ 9.4638649376903, 52.41117778485733 ], [ 9.47132451367365, 52.396112355404632 ], [ 9.479881085332504, 52.371277357421519 ], [ 9.441705609773674, 52.359520304875346 ], [ 9.432863818520534, 52.346903019195942 ], [ 9.424811864692748, 52.326407050731994 ], [ 9.428300313995138, 52.300542664239181 ], [ 9.377048640462107, 52.295790411540501 ], [ 9.368294609222332, 52.28452816614908 ], [ 9.331413589818245, 52.2848582850783 ], [ 9.309122621881569, 52.263369020757047 ], [ 9.317481734857822, 52.234731224441056 ], [ 9.295629566089664, 52.220530986722544 ], [ 9.322505979004237, 52.199089766323773 ], [ 9.356227648706906, 52.18735287637007 ], [ 9.380844248014647, 52.162241090945002 ], [ 9.386570569573051, 52.141857908362084 ], [ 9.364477062115608, 52.113552253764098 ], [ 9.326630685259431, 52.112226640153487 ], [ 9.276081090036703, 52.118589225526826 ], [ 9.23178437465595, 52.106380210066177 ], [ 9.202340990782711, 52.091873494312985 ], [ 9.172020009470748, 52.065300920207093 ], [ 9.173554261907434, 52.063947243302401 ], [ 9.154753285680487, 52.063005089217768 ], [ 9.12456394349026, 52.069852419130292 ], [ 9.128337611488616, 52.090388078477844 ], [ 9.060411592908078, 52.088106807718781 ], [ 9.030222251616166, 52.104073243109866 ], [ 9.00977145019966, 52.11755674944559 ] ] ], [ [ [ 10.667896522320031, 50.672162246073071 ], [ 10.63157304858524, 50.661584561831113 ], [ 10.547807189313421, 50.660485612942374 ], [ 10.516208210779352, 50.661160873948518 ], [ 10.49999999973614, 50.653908150897465 ], [ 10.485817815747071, 50.647561094295817 ], [ 10.455779009638894, 50.642978388019415 ], [ 10.399546891117758, 50.640859065826021 ], [ 10.386626028924171, 50.656738400128539 ], [ 10.349753229104932, 50.737045570324824 ], [ 10.365926280986235, 50.749099546232664 ], [ 10.389614528041706, 50.753077202512522 ], [ 10.399151353915006, 50.772986803184239 ], [ 10.378517528844196, 50.801178592424485 ], [ 10.395217962764187, 50.817135357122993 ], [ 10.425388614606613, 50.829010283552904 ], [ 10.421938656317518, 50.865012323045363 ], [ 10.431101916881603, 50.86314038982151 ], [ 10.432530247166506, 50.862916267039331 ], [ 10.451186389816824, 50.859027107248529 ], [ 10.491003739576636, 50.85501895360315 ], [ 10.49999999973614, 50.851764129469615 ], [ 10.507440482926441, 50.84907200898801 ], [ 10.527415080224316, 50.827163272577316 ], [ 10.49999999973614, 50.81902498929324 ], [ 10.494124084428419, 50.817280513318437 ], [ 10.49999999973614, 50.809056718500138 ], [ 10.504100395783118, 50.803317037474535 ], [ 10.540621607576565, 50.813427119021952 ], [ 10.563716549726223, 50.809309440188358 ], [ 10.567056636869548, 50.799172060782325 ], [ 10.620300256273151, 50.787249891390758 ], [ 10.627178198262859, 50.77333022521249 ], [ 10.630078799924789, 50.737283507976549 ], [ 10.676642245940057, 50.727236195358074 ], [ 10.716283801686975, 50.715255910710084 ], [ 10.71922835162755, 50.683214024795859 ], [ 10.667896522320031, 50.672162246073071 ] ] ], [ [ [ 8.659963742470241, 52.75863886941535 ], [ 8.663028806796071, 52.765047695026588 ], [ 8.667950152519978, 52.772576391107918 ], [ 8.652855481424846, 52.80664027469826 ], [ 8.603797801937779, 52.820258324466572 ], [ 8.599651736440066, 52.842652655154843 ], [ 8.612551833177561, 52.847310152447598 ], [ 8.662640689677586, 52.847020071673086 ], [ 8.657331226835193, 52.86467190377877 ], [ 8.672952456213858, 52.878930474973814 ], [ 8.685071414811219, 52.882764462513848 ], [ 8.695597752936257, 52.885279557642278 ], [ 8.707244564206805, 52.886598109411096 ], [ 8.709934838819697, 52.886384172182254 ], [ 8.715273261550173, 52.885120153679914 ], [ 8.721284363426697, 52.881604025351983 ], [ 8.726192325151187, 52.87819921199722 ], [ 8.735086333675143, 52.869798679129055 ], [ 8.741746418038778, 52.857755196346794 ], [ 8.746004519622087, 52.847661543243369 ], [ 8.74840387033864, 52.83557350586684 ], [ 8.74830645702923, 52.823823380805258 ], [ 8.748355163683916, 52.81569451195773 ], [ 8.74840387033864, 52.812658081193277 ], [ 8.767924263259186, 52.803950731014822 ], [ 8.771058162790274, 52.802624110787875 ], [ 8.783222536615131, 52.79781000447619 ], [ 8.78751574166478, 52.795686246622878 ], [ 8.789337414568202, 52.792694222872484 ], [ 8.789953706463809, 52.789804447191855 ], [ 8.787926457700886, 52.783067622310419 ], [ 8.785899208039664, 52.779998791659558 ], [ 8.764485837541692, 52.76055521628502 ], [ 8.737938524228095, 52.770278094756179 ], [ 8.707112925085044, 52.764492187850529 ], [ 8.690460518693415, 52.77251034996732 ], [ 8.662684569684268, 52.758943332769221 ], [ 8.659963742470241, 52.75863886941535 ] ] ], [ [ [ 8.917012220648584, 52.499109745053069 ], [ 8.913444787873191, 52.500000000004945 ], [ 8.871728208261587, 52.510528695656575 ], [ 8.849086202068053, 52.537946554225591 ], [ 8.811349524779427, 52.542514525214202 ], [ 8.800028521682663, 52.574476949373292 ], [ 8.815123192777794, 52.601854690378403 ], [ 8.871728208261587, 52.622376717483313 ], [ 8.92078588864695, 52.590449387010601 ], [ 8.935880558843749, 52.565347216216807 ], [ 8.947201561940513, 52.544798331584197 ], [ 8.924559555746985, 52.521954893325045 ], [ 8.917309506413792, 52.500000000004945 ], [ 8.917012220648584, 52.499109745053069 ] ] ], [ [ [ 8.598313066105346, 52.536537962597286 ], [ 8.594539151968609, 52.537083366394853 ], [ 8.571041488788893, 52.51674704323144 ], [ 8.562462976677528, 52.5175574894661 ], [ 8.538680093903519, 52.504548680729698 ], [ 8.527841769083638, 52.5120966525526 ], [ 8.499999999615302, 52.52961456862743 ], [ 8.498820437087083, 52.530356589384091 ], [ 8.499999999615302, 52.531872168707068 ], [ 8.502040413188714, 52.534493700571453 ], [ 8.506713618179951, 52.560370176410871 ], [ 8.512505759299231, 52.564577471380339 ], [ 8.528258627799659, 52.565771897400722 ], [ 8.548860220419767, 52.574171771315456 ], [ 8.572818622322197, 52.575684373181268 ], [ 8.582713530142486, 52.575710909520808 ], [ 8.594210053265957, 52.569023225061152 ], [ 8.59515346936726, 52.548369859305168 ], [ 8.598313066105346, 52.536537962597286 ] ] ] ] } }
]
}
