{
"type": "FeatureCollection",
"name": "Hesse-Darmstadt",
"crs": { "type": "name", "properties": { "name": "urn:ogc:def:crs:OGC:1.3:CRS84" } },
"features": [
{ "type": "Feature", "properties": { "OBJECTID": 53.0, "YEAR": 1700.0, "OWNER_ID": 7838.0, "SHORT_NAME": "Hesse-Darmstadt", "LONG_NAME": "Landgraviate of Hesse-Darmstadt", "VARIANTS": null, "SHAPE_LENG": 1235270.0, "Shape__Are": 9661348794.3613281, "Shape__Len": 1236990.2954671537 }, "geometry": { "type": "MultiPolygon", "coordinates": [ [ [ [ 8.660051778266418, 51.082361620694726 ], [ 8.701167204391567, 51.050252775135505 ], [ 8.717622150303947, 51.027975725499708 ], [ 8.701394240104889, 50.999999999968175 ], [ 8.69763487598081, 50.993586579217975 ], [ 8.633109545790989, 50.988511997716337 ], [ 8.614658066311842, 50.972548408128503 ], [ 8.628962899981582, 50.964327768551101 ], [ 8.60590403507206, 50.948171596978526 ], [ 8.591248162247158, 50.922465334883469 ], [ 8.584029925851411, 50.877678922385428 ], [ 8.613780468873111, 50.845959778226515 ], [ 8.639559885213851, 50.816567923230835 ], [ 8.6213936244307, 50.798723219465927 ], [ 8.636005616350586, 50.779181218453409 ], [ 8.658625682989943, 50.762590482664258 ], [ 8.676857763333951, 50.743033297082427 ], [ 8.637058732917726, 50.710812108480539 ], [ 8.593069176685452, 50.688798463636957 ], [ 8.595658088096618, 50.665159276895395 ], [ 8.609195023895214, 50.657162128696783 ], [ 8.65173654529684, 50.655321531226896 ], [ 8.693488229273107, 50.63716326693735 ], [ 8.724599048010425, 50.64428967064876 ], [ 8.736534368505794, 50.6602472832313 ], [ 8.756653283747323, 50.650726342950023 ], [ 8.784034314492995, 50.651229584129304 ], [ 8.864224752271545, 50.662551085786198 ], [ 8.877586168941733, 50.654169466151728 ], [ 8.925634612766631, 50.667965898076652 ], [ 8.958412865469727, 50.667118633672551 ], [ 8.963261589589385, 50.69878791337517 ], [ 8.960870137759141, 50.707478978704245 ], [ 8.957381689355069, 50.719381919368836 ], [ 8.96442440572411, 50.729232610660119 ], [ 8.948693477676192, 50.744592887436589 ], [ 8.962800850866707, 50.757186649426487 ], [ 8.988009828917194, 50.75453074604728 ], [ 8.999999999645505, 50.763266125021495 ], [ 9.014052524399728, 50.773501935275902 ], [ 9.037440488011914, 50.793521623782389 ], [ 9.066072094905614, 50.804742613224569 ], [ 9.100890761182105, 50.814100166087023 ], [ 9.147995787109128, 50.837294545569364 ], [ 9.196483029204257, 50.835579771952183 ], [ 9.281346672872406, 50.818864007330191 ], [ 9.275093793030432, 50.801376600876829 ], [ 9.297516400088844, 50.790022761357193 ], [ 9.332554465500435, 50.778771804890873 ], [ 9.354033655559258, 50.777292603483367 ], [ 9.374437789496755, 50.809243448730697 ], [ 9.406733363922948, 50.802987037266085 ], [ 9.399361547952967, 50.774994465022445 ], [ 9.40614098607851, 50.759882038707282 ], [ 9.433368437249918, 50.762431944268627 ], [ 9.453926149863337, 50.776183171701 ], [ 9.49943278723565, 50.766202425104673 ], [ 9.493856820299609, 50.739940395197586 ], [ 9.480451523622756, 50.708312283912726 ], [ 9.479157068366332, 50.678330401283382 ], [ 9.486923802599833, 50.648567639983895 ], [ 9.454255249464305, 50.632791515696802 ], [ 9.4201167201473, 50.638858866548595 ], [ 9.367658351371212, 50.636620132578912 ], [ 9.340650299334905, 50.623596255301287 ], [ 9.344029048171427, 50.592340060488958 ], [ 9.357368525287413, 50.533057739493124 ], [ 9.369806958935762, 50.499999999891088 ], [ 9.371980517207323, 50.494282115427907 ], [ 9.339750762342, 50.465113300154059 ], [ 9.280732354575466, 50.464955439723823 ], [ 9.245496829582956, 50.471427292654212 ], [ 9.203394107349851, 50.453048587238392 ], [ 9.176122776171757, 50.433201524065993 ], [ 9.142883783847662, 50.419759205014074 ], [ 9.114186357393093, 50.409421414940276 ], [ 9.105520086166685, 50.392849881960984 ], [ 9.068661006316781, 50.384680528717396 ], [ 9.008106803706223, 50.373016983405719 ], [ 8.999999999645505, 50.379680657346512 ], [ 8.99619342276503, 50.38280928367422 ], [ 8.975306610550636, 50.379567374647564 ], [ 8.982919766108235, 50.367691649294152 ], [ 8.971291603862994, 50.354652590335206 ], [ 8.937306654120224, 50.351369185915509 ], [ 8.932765089149012, 50.374229599287439 ], [ 8.909881743367906, 50.374796354494819 ], [ 8.899723557304165, 50.412648102720972 ], [ 8.903584984417565, 50.431885109827277 ], [ 8.918109217222407, 50.433688587897691 ], [ 8.926402509739479, 50.425763300476618 ], [ 8.941124202125273, 50.426171445896188 ], [ 8.967825095013104, 50.445929349874113 ], [ 8.981471730379251, 50.453285438198527 ], [ 8.970282367302547, 50.466783959620528 ], [ 8.999177252439717, 50.479607913445612 ], [ 8.999999999645505, 50.479191951817533 ], [ 9.015434739669521, 50.471387832607896 ], [ 9.034149498290443, 50.486695756894257 ], [ 9.052403519086976, 50.495084067903271 ], [ 9.055598645991218, 50.499999999891088 ], [ 9.065348077041127, 50.515157480076276 ], [ 9.089021259349281, 50.518012949592801 ], [ 9.087024726680866, 50.534571246686831 ], [ 9.061706049062819, 50.538168949049528 ], [ 9.046721077535256, 50.546757182308397 ], [ 9.054663331795492, 50.567537648330706 ], [ 9.034303077864678, 50.573732850262928 ], [ 9.019625266383898, 50.555450004672103 ], [ 9.007514425861785, 50.547566810701561 ], [ 8.999999999645505, 50.546889272871844 ], [ 8.943186555252872, 50.5417663755251 ], [ 8.897705083284919, 50.553101110711381 ], [ 8.857708594186111, 50.547288087703492 ], [ 8.839300993815316, 50.558634757564235 ], [ 8.816834506750229, 50.549557641575092 ], [ 8.827804471590168, 50.538952176297862 ], [ 8.810603567360756, 50.525250453892632 ], [ 8.780831084784881, 50.520244078826877 ], [ 8.742875008361153, 50.511664274524939 ], [ 8.747162098578663, 50.499999999891088 ], [ 8.751409640465798, 50.488562877121971 ], [ 8.718741087330278, 50.484986356206868 ], [ 8.711566730042918, 50.456982786958939 ], [ 8.731905044419548, 50.443652545943387 ], [ 8.802946532694806, 50.453127537499761 ], [ 8.818743281201925, 50.443191907674624 ], [ 8.815891089750641, 50.426974560352726 ], [ 8.782322999622226, 50.412740290504729 ], [ 8.796342613697709, 50.393877538697673 ], [ 8.826795235029719, 50.36510785502589 ], [ 8.816088549331559, 50.35814672585132 ], [ 8.799984641676016, 50.368008022650862 ], [ 8.77639921938122, 50.373755101306799 ], [ 8.758781456435788, 50.366109751272838 ], [ 8.750115184311085, 50.355219580659089 ], [ 8.770782597390358, 50.334078097763012 ], [ 8.74871102948708, 50.286220961818131 ], [ 8.721812677018333, 50.207731447146053 ], [ 8.737433906397033, 50.177471905030224 ], [ 8.698929331237228, 50.160368790693589 ], [ 8.658821511230304, 50.152419120553787 ], [ 8.655773492436991, 50.151814926013508 ], [ 8.612793171866837, 50.171370029643761 ], [ 8.55267776842479, 50.180343883016697 ], [ 8.501031176628258, 50.184419941464256 ], [ 8.499999999615302, 50.184242120832344 ], [ 8.467112047344655, 50.178570424078195 ], [ 8.437405384329637, 50.18656370200663 ], [ 8.435057856523537, 50.187198932423243 ], [ 8.442912305854616, 50.19778378221303 ], [ 8.450832620560684, 50.22444729359183 ], [ 8.494800237238783, 50.251254403262614 ], [ 8.499999999615302, 50.255139204475164 ], [ 8.52409004153778, 50.273132991331138 ], [ 8.525358977453616, 50.278475391309406 ], [ 8.530650080528233, 50.278019942160448 ], [ 8.557811711240431, 50.296770585371092 ], [ 8.593134996246309, 50.312913953215855 ], [ 8.634667281087486, 50.328721984071549 ], [ 8.673237674909855, 50.34345642982511 ], [ 8.680104873048746, 50.365793365191237 ], [ 8.723545931443287, 50.383639493093277 ], [ 8.72380921058507, 50.397777162073403 ], [ 8.660907435252632, 50.387012891297843 ], [ 8.6355229380737, 50.394246436197754 ], [ 8.616566839865195, 50.376799714382301 ], [ 8.602086487067011, 50.381544175021901 ], [ 8.590831303531138, 50.381043393389909 ], [ 8.577096909049949, 50.368047569386817 ], [ 8.555156980268405, 50.37575850540486 ], [ 8.527117751219143, 50.364751913338516 ], [ 8.524871876770595, 50.364992561280701 ], [ 8.525230918118288, 50.36620203007535 ], [ 8.503027710194962, 50.383389113776694 ], [ 8.503334869343428, 50.399015488727947 ], [ 8.524572719814667, 50.40274344550749 ], [ 8.537956076039031, 50.413306583015924 ], [ 8.586553017701711, 50.421721154066795 ], [ 8.585719300269671, 50.432424844305764 ], [ 8.600221593520338, 50.438203562193422 ], [ 8.617246977723008, 50.429581296496018 ], [ 8.630432874366445, 50.431871945424454 ], [ 8.635698457202155, 50.452403820569614 ], [ 8.658143004713056, 50.459311572398867 ], [ 8.665405121115459, 50.47433407504041 ], [ 8.649783891736794, 50.478516369527668 ], [ 8.656716909436581, 50.498883295989337 ], [ 8.655622204465047, 50.499999999891088 ], [ 8.640415542200074, 50.515675461827982 ], [ 8.647721538609197, 50.531902662014041 ], [ 8.636597995093348, 50.540505316729693 ], [ 8.625123412422349, 50.528596592566828 ], [ 8.617532196418969, 50.532845313624264 ], [ 8.607088790760935, 50.546770454801845 ], [ 8.610357840029904, 50.571252214666558 ], [ 8.604653458924002, 50.587632590750509 ], [ 8.576504530307187, 50.591212962824876 ], [ 8.543989556745874, 50.55985552256363 ], [ 8.535160189193114, 50.558263750249949 ], [ 8.518144320844268, 50.555808300545067 ], [ 8.499999999615302, 50.561417605641779 ], [ 8.497919405297537, 50.562060777831519 ], [ 8.496511551211229, 50.562495980511827 ], [ 8.488898396551964, 50.58350819373176 ], [ 8.496028872934343, 50.593891432657536 ], [ 8.499999999615302, 50.595822777976942 ], [ 8.509851028327196, 50.600613451407085 ], [ 8.512681278427641, 50.613312382263693 ], [ 8.536486100755861, 50.617765470775332 ], [ 8.52479211894976, 50.628525351640434 ], [ 8.503312928890956, 50.624616567537842 ], [ 8.499999999615302, 50.625296147521588 ], [ 8.468691282919183, 50.631718004151729 ], [ 8.467513923958382, 50.631959479536583 ], [ 8.448638627413027, 50.644978410447386 ], [ 8.460617828813394, 50.669183813190955 ], [ 8.480473464014834, 50.704595365225813 ], [ 8.481109721865954, 50.724644695188239 ], [ 8.470732135768777, 50.726680886065722 ], [ 8.451227538824195, 50.71042854624644 ], [ 8.42615020079373, 50.710375641158159 ], [ 8.370795761458032, 50.746932175328219 ], [ 8.365135259460489, 50.786285950133902 ], [ 8.374810768145677, 50.79794433723243 ], [ 8.4056363672887, 50.841251473479907 ], [ 8.42843195305643, 50.895466946426588 ], [ 8.452390354958887, 50.914222618966292 ], [ 8.444601680272877, 50.955276797949892 ], [ 8.457699817801279, 50.975902008779322 ], [ 8.497094048485856, 50.999999999968175 ], [ 8.499999999615302, 51.001796470620953 ], [ 8.500943416614891, 51.002379679327056 ], [ 8.521128151417278, 51.018214508533106 ], [ 8.514151253710809, 51.028174912645603 ], [ 8.501711314486071, 51.027019615787303 ], [ 8.499999999615302, 51.032417496724293 ], [ 8.497564667778368, 51.040098006252904 ], [ 8.499999999615302, 51.047080479832005 ], [ 8.502435332350522, 51.054061895395343 ], [ 8.502135524116033, 51.061843066705947 ], [ 8.501952654073644, 51.06658862642535 ], [ 8.527863709536147, 51.081857605428574 ], [ 8.575144254591578, 51.092255122009071 ], [ 8.597654621663347, 51.093156836810671 ], [ 8.617422496851418, 51.075755927784741 ], [ 8.637124553376928, 51.07453549540616 ], [ 8.660051778266418, 51.082361620694726 ] ] ], [ [ [ 8.715883699125092, 50.009464499811301 ], [ 8.732958160986689, 50.000305547281492 ], [ 8.733317045129198, 50.000000000210534 ], [ 8.752462757032937, 49.982204399029293 ], [ 8.745047061056301, 49.96997424396934 ], [ 8.771374975234796, 49.967928325458509 ], [ 8.785548168884503, 49.954881726513541 ], [ 8.797900348994206, 49.927282048114961 ], [ 8.79373176273233, 49.887400692859629 ], [ 8.810559687354074, 49.866495147842613 ], [ 8.865190109723642, 49.855588088011295 ], [ 8.898802079858751, 49.838524481401613 ], [ 8.898910303494301, 49.837112688575317 ], [ 8.900469514722838, 49.816767967498052 ], [ 8.91835055591172, 49.807028921758175 ], [ 8.957644968496854, 49.790253929402539 ], [ 8.957060326045321, 49.789378456472647 ], [ 8.953191202166584, 49.783584225773566 ], [ 8.935858619289574, 49.757619156580546 ], [ 8.896410628028502, 49.769874356652799 ], [ 8.872934904402969, 49.768417302094811 ], [ 8.855404901470905, 49.763113252202935 ], [ 8.836668202397465, 49.74438412336881 ], [ 8.800379560837822, 49.726814402121882 ], [ 8.764354198419957, 49.711805816773257 ], [ 8.712290747907378, 49.697638918146495 ], [ 8.686094473748945, 49.703490014916511 ], [ 8.654698435417343, 49.712826956921269 ], [ 8.610643059624199, 49.723883062121729 ], [ 8.581484894446927, 49.738610879325506 ], [ 8.552480308843863, 49.767237055749639 ], [ 8.535893722911432, 49.759732344368665 ], [ 8.522159327531909, 49.746687396938185 ], [ 8.525384497692531, 49.723314274275076 ], [ 8.535915663363941, 49.697565957429241 ], [ 8.523519603247529, 49.686007576597348 ], [ 8.503290989336746, 49.682460701034486 ], [ 8.499999999615302, 49.680111789727945 ], [ 8.487011562552784, 49.670840306532547 ], [ 8.477796792590299, 49.691436856912638 ], [ 8.45822637608485, 49.696208866494153 ], [ 8.441464271023964, 49.710507478688868 ], [ 8.439050878741215, 49.72666856811567 ], [ 8.431387227084873, 49.740091712442783 ], [ 8.430032856893952, 49.742207940966367 ], [ 8.439489677011411, 49.745841904277107 ], [ 8.465053925282046, 49.760046821831352 ], [ 8.494734416779593, 49.761758002943054 ], [ 8.499999999615302, 49.766669592268357 ], [ 8.520667412694577, 49.785942744343352 ], [ 8.509346409597802, 49.798598470891747 ], [ 8.499999999615302, 49.80078166823062 ], [ 8.47674367602316, 49.806213606038895 ], [ 8.463162860217869, 49.814802847804444 ], [ 8.456471182105728, 49.825791929733008 ], [ 8.479091247846714, 49.84002306274914 ], [ 8.469613198742445, 49.856737081472637 ], [ 8.424082480232311, 49.841266228681498 ], [ 8.413427286864586, 49.851571869734627 ], [ 8.418608852068393, 49.87217892417182 ], [ 8.412938459619596, 49.883645059683438 ], [ 8.406813669655646, 49.889263319412954 ], [ 8.440498913571865, 49.901526407195071 ], [ 8.431459663636122, 49.945272280030103 ], [ 8.424131727672826, 49.956100913901373 ], [ 8.401094802317488, 49.952965797572396 ], [ 8.385458930399663, 49.968061211110559 ], [ 8.362787687636931, 49.981508103835921 ], [ 8.372033392882829, 49.984009641829367 ], [ 8.378803835279109, 49.987933942146711 ], [ 8.380038833741841, 49.994000416988492 ], [ 8.379764584373797, 49.999156779966718 ], [ 8.379699612822558, 50.000000000210534 ], [ 8.379343011299177, 50.00423977529352 ], [ 8.379242633549337, 50.00543313246186 ], [ 8.385291252665379, 50.005593194274695 ], [ 8.397023190088836, 50.005800543583426 ], [ 8.432117861041428, 50.003493747646154 ], [ 8.499999999615302, 50.023667218358213 ], [ 8.545986090312605, 50.037328700573916 ], [ 8.555859057680385, 50.049858016654632 ], [ 8.581989512277989, 50.054237192180395 ], [ 8.597983720366001, 50.04660655028183 ], [ 8.625035652409009, 50.028460629998989 ], [ 8.642214616185885, 50.014265635629137 ], [ 8.667533293803951, 50.000730652523139 ], [ 8.69019723955163, 50.009962484672961 ], [ 8.714484741055035, 50.010214840362742 ], [ 8.715883699125092, 50.009464499811301 ] ] ], [ [ [ 8.35211340506941, 50.034011934452359 ], [ 8.344072928117669, 50.030571592509617 ], [ 8.328451699637334, 50.035576457673358 ], [ 8.30214156042334, 50.045141707845403 ], [ 8.313027929839551, 50.050521553734917 ], [ 8.33055793277158, 50.055696828444866 ], [ 8.34751749741338, 50.063206612889381 ], [ 8.362787687636931, 50.075556708595613 ], [ 8.376280743428836, 50.089879344196007 ], [ 8.366802694324573, 50.103839770715858 ], [ 8.400085565757029, 50.137034034858758 ], [ 8.388479343964296, 50.146716301961163 ], [ 8.386241470809965, 50.148994196553986 ], [ 8.43457513333086, 50.159110966127976 ], [ 8.463448078913865, 50.145140253349382 ], [ 8.481504640129465, 50.134768814794505 ], [ 8.498288685642857, 50.134570106176007 ], [ 8.499999999615302, 50.135360961476017 ], [ 8.515401829858867, 50.142478069437495 ], [ 8.529267864360115, 50.125614109088751 ], [ 8.499999999615302, 50.107725819112574 ], [ 8.481197480980995, 50.096230320871044 ], [ 8.452434234965569, 50.097595868908996 ], [ 8.44552315771829, 50.087532318025737 ], [ 8.443219465003093, 50.069030525853535 ], [ 8.458270256091531, 50.058443476486552 ], [ 8.44541345815075, 50.050999294743796 ], [ 8.421520875809188, 50.052512110204468 ], [ 8.396311897758663, 50.048968861705674 ], [ 8.37209021671446, 50.042558497016863 ], [ 8.35211340506941, 50.034011934452359 ] ] ] ] } }
]
}
