{
"type": "FeatureCollection",
"name": "Hohenzollern-Sigmari",
"crs": { "type": "name", "properties": { "name": "urn:ogc:def:crs:OGC:1.3:CRS84" } },
"features": [
{ "type": "Feature", "properties": { "OBJECTID": 38.0, "YEAR": 1700.0, "OWNER_ID": 4074.0, "SHORT_NAME": "Sigmaringen", "LONG_NAME": "Principality of Hohenzollern-Sigmaringen", "VARIANTS": null, "SHAPE_LENG": 210585.3, "Shape__Are": 899418572.34423828, "Shape__Len": 210974.82186632711 }, "geometry": { "type": "MultiPolygon", "coordinates": [ [ [ [ 9.337153775076427, 47.908558211128195 ], [ 9.317042936587619, 47.918782007609366 ], [ 9.285778538276066, 47.946306509520184 ], [ 9.284988700850711, 47.963148009246069 ], [ 9.267480638371165, 47.974469360689611 ], [ 9.249116918007079, 47.964860886939888 ], [ 9.236347879181348, 47.936765383327277 ], [ 9.206158537889436, 47.916893242970168 ], [ 9.202420847418207, 47.91276774152827 ], [ 9.199313280203025, 47.909337490729072 ], [ 9.181015380298122, 47.912171027886451 ], [ 9.171976248041682, 47.918430558447476 ], [ 9.1670835253377, 47.921818414723681 ], [ 9.160699006373992, 47.940004046133801 ], [ 9.162476139907305, 47.955540981389717 ], [ 9.149399942831419, 47.975702946611491 ], [ 9.141984246854754, 47.991446706654138 ], [ 9.150300106848393, 48.000000000254126 ], [ 9.154819105241355, 48.004692961235975 ], [ 9.168816779762643, 48.004121743676521 ], [ 9.171324625405942, 48.000000000254126 ], [ 9.174565040875232, 47.994725444213614 ], [ 9.197536145771396, 47.986296054323418 ], [ 9.213003795575846, 47.993013563651033 ], [ 9.211544045815566, 48.000000000254126 ], [ 9.209690866300193, 48.008954922598562 ], [ 9.193323679502836, 48.018971333241225 ], [ 9.159097391070782, 48.021826530741656 ], [ 9.144836437407706, 48.029439612205444 ], [ 9.137332982315991, 48.045847810663695 ], [ 9.13143114162917, 48.056822707427784 ], [ 9.132418438635442, 48.070954907188444 ], [ 9.131957699912741, 48.092058159254378 ], [ 9.110741788995703, 48.099426889051266 ], [ 9.09462253631845, 48.143301823188487 ], [ 9.138890717612517, 48.184864478253431 ], [ 9.172349108173401, 48.192351155175331 ], [ 9.14729370969714, 48.21901988244047 ], [ 9.143168996255422, 48.233734225976299 ], [ 9.155740582686759, 48.236125444929051 ], [ 9.179150485853128, 48.234813201638907 ], [ 9.206663156618822, 48.231342883199723 ], [ 9.233364049506662, 48.211478776401918 ], [ 9.224961056523725, 48.191548542846192 ], [ 9.233254349939111, 48.156454721156507 ], [ 9.246703525724332, 48.144245050633998 ], [ 9.261469097218477, 48.128292131813645 ], [ 9.275993330023338, 48.120854498102943 ], [ 9.281039513723936, 48.10774467530964 ], [ 9.287029114424124, 48.089718657317874 ], [ 9.269499111492078, 48.077405265696861 ], [ 9.254645779984566, 48.054174314654354 ], [ 9.262171175528781, 48.042379254199645 ], [ 9.283803945161837, 48.037476041788338 ], [ 9.314366265163086, 48.034621716365827 ], [ 9.330799271521308, 48.022295060431347 ], [ 9.344489786894128, 48.002788877755478 ], [ 9.344907523264181, 48.000000000254126 ], [ 9.345915882170605, 47.993332731686706 ], [ 9.344489786894128, 47.984845072930504 ], [ 9.354011716005074, 47.969752434341643 ], [ 9.363270365974234, 47.962465745586762 ], [ 9.38196318504097, 47.965847942782347 ], [ 9.387667566146876, 47.978503803056562 ], [ 9.380120231048476, 47.995291222838013 ], [ 9.386306758628617, 48.000000000254126 ], [ 9.387667566146876, 48.001045846639833 ], [ 9.392182137642115, 48.000000000254126 ], [ 9.413907720312011, 47.995015588248613 ], [ 9.435512868546713, 48.000000000254126 ], [ 9.437361504383379, 48.000430645573147 ], [ 9.437515212416699, 48.000000000254126 ], [ 9.44361438422535, 47.983074820025614 ], [ 9.443833783360455, 47.963902843685176 ], [ 9.431130564095589, 47.952230701024149 ], [ 9.411450448920894, 47.9490073285262 ], [ 9.402784176796173, 47.941717695760616 ], [ 9.41116522932661, 47.909032330753135 ], [ 9.383477039432497, 47.899949375631721 ], [ 9.373040234595171, 47.901684826702549 ], [ 9.361888149806127, 47.903539151304543 ], [ 9.337153775076427, 47.908558211128195 ] ] ] ] } }
]
}
