{
"type": "FeatureCollection",
"name": "Hohenzollern-Hechingen",
"crs": { "type": "name", "properties": { "name": "urn:ogc:def:crs:OGC:1.3:CRS84" } },
"features": [
{ "type": "Feature", "properties": { "OBJECTID": 66.0, "YEAR": 1700.0, "OWNER_ID": 8583.0, "SHORT_NAME": "Hechingen", "LONG_NAME": "Principality of Hohenzollern-Hechingen", "VARIANTS": null, "SHAPE_LENG": 179744.2, "Shape__Are": 798539814.390625, "Shape__Len": 179926.23126111837 }, "geometry": { "type": "MultiPolygon", "coordinates": [ [ [ [ 9.248502599710143, 48.38557201378206 ], [ 9.245891748744793, 48.36178323048766 ], [ 9.211314421157585, 48.358568851778514 ], [ 9.187597358842748, 48.354830607614929 ], [ 9.173292525172991, 48.346451283151751 ], [ 9.201353693776438, 48.337837755468456 ], [ 9.22504881653709, 48.315875366526065 ], [ 9.231850194216818, 48.292155786699574 ], [ 9.201222053756387, 48.285237307736665 ], [ 9.169672436748867, 48.277181554025091 ], [ 9.14448539915087, 48.275025366557088 ], [ 9.12480528307786, 48.274937951693865 ], [ 9.09376028390141, 48.2760014898763 ], [ 9.045580201853065, 48.294719025359711 ], [ 9.04413216612409, 48.32947017352086 ], [ 9.022696856071951, 48.32634107130071 ], [ 9.002424362154505, 48.340413237173273 ], [ 8.999999999645505, 48.33682232004513 ], [ 8.989918602470556, 48.321887224459523 ], [ 8.999999999645505, 48.301548715438919 ], [ 9.002446301708687, 48.296612243841679 ], [ 8.999999999645505, 48.296976869542341 ], [ 8.961703855191182, 48.30268462968165 ], [ 8.930176177737843, 48.35491788489449 ], [ 8.901631555611429, 48.350132159052023 ], [ 8.882456833513887, 48.356576125829349 ], [ 8.863939533575586, 48.356445213840445 ], [ 8.836865661978383, 48.360197883817868 ], [ 8.815627810608856, 48.367527878925749 ], [ 8.798053928568441, 48.374144323810256 ], [ 8.791159659698453, 48.370318789577254 ], [ 8.787851861599709, 48.372937432230401 ], [ 8.7491278882031, 48.359339739874336 ], [ 8.737302266376973, 48.365695479628897 ], [ 8.721702977450782, 48.377953840533543 ], [ 8.754678689734769, 48.396066930912525 ], [ 8.766262971973321, 48.41071547298106 ], [ 8.763909589846504, 48.412176617363365 ], [ 8.761905065765323, 48.413421133336222 ], [ 8.804051998585138, 48.420066219703408 ], [ 8.846919956082912, 48.422904635425354 ], [ 8.883454241956986, 48.435634485578341 ], [ 8.887644515346464, 48.437094321963599 ], [ 8.951946451593134, 48.438513071166163 ], [ 8.979263237524613, 48.437221542892857 ], [ 8.999999999645505, 48.429393836271572 ], [ 9.020766142066089, 48.421553823740027 ], [ 9.057098663632424, 48.415466617743206 ], [ 9.086827267099949, 48.412023171901922 ], [ 9.0998008361462, 48.397620585568887 ], [ 9.088736040653311, 48.376819739690113 ], [ 9.126297197915203, 48.359281560117857 ], [ 9.161401083785981, 48.366480801819506 ], [ 9.172041949024932, 48.38132691396001 ], [ 9.195780982334988, 48.38693851046299 ], [ 9.248502599710143, 48.38557201378206 ] ] ] ] } }
]
}
