{
"type": "FeatureCollection",
"name": "House of Nassau",
"crs": { "type": "name", "properties": { "name": "urn:ogc:def:crs:OGC:1.3:CRS84" } },
"features": [
{ "type": "Feature", "properties": { "OBJECTID": 92.0, "YEAR": 1700.0, "OWNER_ID": 7709.0, "SHORT_NAME": "Nassau", "LONG_NAME": "Lordships of the House of Nassau", "VARIANTS": null, "SHAPE_LENG": 1546851.0, "Shape__Are": 11762983989.663086, "Shape__Len": 1549293.7023741468 }, "geometry": { "type": "MultiPolygon", "coordinates": [ [ [ [ 8.178383145775307, 51.006684169824403 ], [ 8.190317909315217, 51.002419538937296 ], [ 8.192151719356461, 50.999999999968175 ], [ 8.206772856125957, 50.980912228820166 ], [ 8.199576559284385, 50.94634248848611 ], [ 8.199422979710151, 50.896507664148899 ], [ 8.228932184042575, 50.879866558908404 ], [ 8.264562627298588, 50.867833280820719 ], [ 8.317393975682347, 50.824880792383119 ], [ 8.348022115244444, 50.758098342839496 ], [ 8.370795761458032, 50.746932175328219 ], [ 8.42615020079373, 50.710375641158159 ], [ 8.451227538824195, 50.71042854624644 ], [ 8.470732135768777, 50.726680886065722 ], [ 8.481109721865954, 50.724644695188239 ], [ 8.480473464014834, 50.704595365225813 ], [ 8.460617828813394, 50.669183813190955 ], [ 8.448638627413027, 50.644978410447386 ], [ 8.467513923958382, 50.631959479536583 ], [ 8.468691282919183, 50.631718004151729 ], [ 8.46581759118993, 50.629214323727837 ], [ 8.448792206987271, 50.603476976804473 ], [ 8.382029004541396, 50.592538957361292 ], [ 8.334726519033456, 50.578972263200477 ], [ 8.318249632668568, 50.554521077563031 ], [ 8.334507119898355, 50.516379376366686 ], [ 8.355284231646882, 50.501236240609138 ], [ 8.401587424046236, 50.499999999891088 ], [ 8.402060158871251, 50.499987511721699 ], [ 8.406140986018086, 50.484447224425018 ], [ 8.461583185367159, 50.462508531288364 ], [ 8.46210974365073, 50.441191368195419 ], [ 8.477445753435138, 50.428040969642176 ], [ 8.499999999615302, 50.43126599045663 ], [ 8.508381053044037, 50.432464336465692 ], [ 8.53029904137308, 50.4450475949983 ], [ 8.525208977665789, 50.454811780669935 ], [ 8.515182430723764, 50.466244619643867 ], [ 8.502106232749574, 50.478792545560751 ], [ 8.499999999615302, 50.483844951308967 ], [ 8.493263808184141, 50.499999999891088 ], [ 8.491509247517305, 50.504251974122639 ], [ 8.499999999615302, 50.516542495002732 ], [ 8.501120272436452, 50.518163870165822 ], [ 8.500099059536627, 50.53361549553027 ], [ 8.50864383721412, 50.53131736252594 ], [ 8.524783972128459, 50.53486897486971 ], [ 8.530653111443973, 50.541083649310956 ], [ 8.533587682000082, 50.541971393066618 ], [ 8.537989536486714, 50.550847903142241 ], [ 8.535160189193114, 50.558263750249949 ], [ 8.543989556745874, 50.55985552256363 ], [ 8.576504530307187, 50.591212962824876 ], [ 8.604653458924002, 50.587632590750509 ], [ 8.610357840029904, 50.571252214666558 ], [ 8.607088790760935, 50.546770454801845 ], [ 8.617532196418969, 50.532845313624264 ], [ 8.625123412422349, 50.528596592566828 ], [ 8.636597995093348, 50.540505316729693 ], [ 8.647721538609197, 50.531902662014041 ], [ 8.640415542200074, 50.515675461827982 ], [ 8.655622204465047, 50.499999999891088 ], [ 8.656716909436581, 50.498883295989337 ], [ 8.649783891736794, 50.478516369527668 ], [ 8.665405121115459, 50.47433407504041 ], [ 8.658143004713056, 50.459311572398867 ], [ 8.635698457202155, 50.452403820569614 ], [ 8.630432874366445, 50.431871945424454 ], [ 8.617246977723008, 50.429581296496018 ], [ 8.600221593520338, 50.438203562193422 ], [ 8.585719300269671, 50.432424844305764 ], [ 8.586553017701711, 50.421721154066795 ], [ 8.537956076039031, 50.413306583015924 ], [ 8.524572719814667, 50.40274344550749 ], [ 8.503334869343428, 50.399015488727947 ], [ 8.503027710194962, 50.383389113776694 ], [ 8.525230918118288, 50.36620203007535 ], [ 8.524871876770595, 50.364992561280701 ], [ 8.522444547126204, 50.356815029031303 ], [ 8.542278241875142, 50.347267906194318 ], [ 8.548969919987318, 50.340251386427965 ], [ 8.536924899924388, 50.319208769089506 ], [ 8.527490730826811, 50.287449011026922 ], [ 8.525358977453616, 50.278475391309406 ], [ 8.52409004153778, 50.273132991331138 ], [ 8.499999999615302, 50.255139204475164 ], [ 8.494800237238783, 50.251254403262614 ], [ 8.450832620560684, 50.22444729359183 ], [ 8.442912305854616, 50.19778378221303 ], [ 8.435057856523537, 50.187198932423243 ], [ 8.437405384329637, 50.18656370200663 ], [ 8.396026679062704, 50.186034387304474 ], [ 8.366539415182789, 50.18011889603715 ], [ 8.365157199912996, 50.172045112827973 ], [ 8.386241470809965, 50.148994196553986 ], [ 8.388479343964296, 50.146716301961163 ], [ 8.400085565757029, 50.137034034858758 ], [ 8.366802694324573, 50.103839770715858 ], [ 8.376280743428836, 50.089879344196007 ], [ 8.362787687636931, 50.075556708595613 ], [ 8.34751749741338, 50.063206612889381 ], [ 8.33055793277158, 50.055696828444866 ], [ 8.313027929839551, 50.050521553734917 ], [ 8.30214156042334, 50.045141707845403 ], [ 8.271753492027646, 50.030640977106849 ], [ 8.226922377867531, 50.040091081230173 ], [ 8.20465143697178, 50.038341203065833 ], [ 8.179457644941163, 50.061150163694606 ], [ 8.142839904678869, 50.0668151347517 ], [ 8.099640184973605, 50.067558032076022 ], [ 8.082439354406093, 50.080662900812186 ], [ 8.101197920270142, 50.102222532819695 ], [ 8.122062792032045, 50.108386301122259 ], [ 8.098126329683799, 50.142372108742862 ], [ 8.075067465672573, 50.159256610967525 ], [ 8.07636192092899, 50.177723375786513 ], [ 8.059446236293871, 50.192491621377997 ], [ 8.026492463564068, 50.216063657483957 ], [ 8.002051383384753, 50.247382320336058 ], [ 8.021512099424319, 50.277082215371379 ], [ 8.018769608438918, 50.309786028478825 ], [ 8.005101033518596, 50.33824647505682 ], [ 7.999999999585081, 50.346720857047231 ], [ 7.990905899416406, 50.361825177683791 ], [ 7.956347190311778, 50.375043651953028 ], [ 7.979842962537831, 50.376968366973045 ], [ 7.999214029407033, 50.37761483598679 ], [ 7.999999999585081, 50.375523889181935 ], [ 8.014280415248786, 50.337517027269257 ], [ 8.074545958615847, 50.336870008974131 ], [ 8.091764684522142, 50.329105102890409 ], [ 8.099297877443043, 50.33428184891163 ], [ 8.106831070363897, 50.33298771542821 ], [ 8.119745115242818, 50.320044432295518 ], [ 8.118668945210533, 50.30774503041205 ], [ 8.156334909814948, 50.309039855102938 ], [ 8.170325124726119, 50.304507813878871 ], [ 8.18969619249361, 50.286375307293298 ], [ 8.22305120044002, 50.294050552474921 ], [ 8.219761293188474, 50.30507395400079 ], [ 8.218362102454742, 50.305394584936167 ], [ 8.221981304241696, 50.327163676996776 ], [ 8.240276201078578, 50.331693546501228 ], [ 8.24888556493006, 50.34204590436574 ], [ 8.240276201078578, 50.346574347881251 ], [ 8.223057475172288, 50.352395993987592 ], [ 8.190772362525905, 50.369856627196953 ], [ 8.169248954693833, 50.393127426364778 ], [ 8.134811501084581, 50.39506614136539 ], [ 8.131582990089418, 50.376968366973045 ], [ 8.07992681057384, 50.380847046461561 ], [ 8.077044211150207, 50.382289925873948 ], [ 8.051660429030267, 50.401156026756354 ], [ 8.04871786885804, 50.403466318970374 ], [ 8.009491994135821, 50.401619193766294 ], [ 7.999999999585081, 50.401172210072879 ], [ 7.993833177449011, 50.400881808093658 ], [ 7.984147643565271, 50.414448907912899 ], [ 7.994909348379593, 50.431240858811499 ], [ 7.999999999585081, 50.432195385984606 ], [ 8.012128074285918, 50.434469393919876 ], [ 8.014280415248786, 50.438343343622137 ], [ 8.033651483016286, 50.44738132020391 ], [ 8.031499142053418, 50.47448483903635 ], [ 8.01750892624395, 50.492545176671662 ], [ 8.007263086168019, 50.499999999891088 ], [ 7.999999999585081, 50.505340409966195 ], [ 7.991427424439438, 50.511642881614002 ], [ 7.999967089804647, 50.533748117211118 ], [ 7.999999999585081, 50.533771607014678 ], [ 8.01389894476506, 50.543691084715839 ], [ 7.999999999585081, 50.553950176001109 ], [ 7.993670330854315, 50.55862148842872 ], [ 7.950097632439724, 50.555609247683947 ], [ 7.918526075878039, 50.563743180339692 ], [ 7.920478729438083, 50.586571687658747 ], [ 7.939105728943936, 50.601753579704294 ], [ 7.969975208093644, 50.615936574991068 ], [ 7.976315847050668, 50.644991655124336 ], [ 7.999999999585081, 50.652908655562243 ], [ 8.02263103645066, 50.660472372656834 ], [ 8.031494767257984, 50.693019432177685 ], [ 8.014579082622864, 50.712928257930514 ], [ 7.999999999585081, 50.723203064321872 ], [ 7.963766208258344, 50.748729514300095 ], [ 7.952028346445586, 50.78268089666976 ], [ 7.96813225410114, 50.806577317053879 ], [ 7.949351675021054, 50.829129017796738 ], [ 7.903497224343766, 50.826358480013241 ], [ 7.876993791036861, 50.847449982804221 ], [ 7.853145088701956, 50.85235544987826 ], [ 7.848603523730743, 50.86975776065448 ], [ 7.882303253879218, 50.888233974168386 ], [ 7.884143653961369, 50.888381091697333 ], [ 7.934717742648634, 50.892423702470602 ], [ 7.952445205161615, 50.919647702585813 ], [ 7.957732727551499, 50.954526855978486 ], [ 7.951633427283752, 50.988840679449929 ], [ 7.961457501147239, 50.999999999968175 ], [ 7.967430175790862, 51.006857023530806 ], [ 7.999999999585081, 51.011569391694408 ], [ 8.007646064923106, 51.012675593055739 ], [ 8.041038635923112, 51.001755208170998 ], [ 8.056190763263798, 50.999999999968175 ], [ 8.069714122823497, 50.998450292430434 ], [ 8.095007453577495, 50.999999999968175 ], [ 8.132572018149244, 51.002326533126435 ], [ 8.168641260573784, 51.010164930770706 ], [ 8.178383145775307, 51.006684169824403 ] ] ], [ [ [ 7.046517442814245, 49.166785499821358 ], [ 7.024693389517823, 49.215158608148059 ], [ 7.024232650795112, 49.216179664764844 ], [ 7.021775379404003, 49.22796403517993 ], [ 7.010115684495685, 49.230772907325886 ], [ 7.005320432593299, 49.231580453602113 ], [ 7.000000000422981, 49.231406261628173 ], [ 6.991351017274216, 49.231123091798239 ], [ 6.987505210965274, 49.230997178467938 ], [ 6.982919765987369, 49.234977893938016 ], [ 6.964512165616618, 49.237208704041372 ], [ 6.949417494521487, 49.238185562661201 ], [ 6.93907061104411, 49.237998365812032 ], [ 6.92846486364455, 49.237806485477627 ], [ 6.882478772947239, 49.239424832648915 ], [ 6.869676712051654, 49.256785759762607 ], [ 6.841319467713695, 49.251946997191972 ], [ 6.85080397750149, 49.243231329663402 ], [ 6.853035389073971, 49.241305547823956 ], [ 6.855364818522086, 49.23530383925614 ], [ 6.858213211896306, 49.22796403517993 ], [ 6.867406042304616, 49.214035421780586 ], [ 6.845553873536467, 49.205603411334891 ], [ 6.843732859098155, 49.197286690162322 ], [ 6.814157836103163, 49.198293525648779 ], [ 6.78370521477115, 49.19426605884528 ], [ 6.776903837091423, 49.202364434403158 ], [ 6.76174334643546, 49.198877189612979 ], [ 6.747394633657325, 49.191887363822602 ], [ 6.736336932160244, 49.191580898333058 ], [ 6.733704118284494, 49.203196083998506 ], [ 6.726090962726929, 49.209848773785851 ], [ 6.7188288463245, 49.217463247725782 ], [ 6.714791900082671, 49.224055670871245 ], [ 6.72126417905972, 49.236960841125352 ], [ 6.721922376465052, 49.254701736129526 ], [ 6.716130235345782, 49.278365715101543 ], [ 6.742480089078451, 49.288664139600876 ], [ 6.756741042741535, 49.287236764275207 ], [ 6.758956975443366, 49.276442714007764 ], [ 6.773678667829135, 49.273048142789158 ], [ 6.781226002927534, 49.282226056771812 ], [ 6.780611685528922, 49.294271282968118 ], [ 6.766701770122691, 49.301916354056019 ], [ 6.762313784725714, 49.315689032697755 ], [ 6.772318392113518, 49.323840168368868 ], [ 6.796781412745369, 49.32792978098653 ], [ 6.816702867507646, 49.332528367119409 ], [ 6.835615085709494, 49.335569599714219 ], [ 6.832916474730776, 49.349245535305208 ], [ 6.814618573927569, 49.349987418194061 ], [ 6.795552776151486, 49.367018537174204 ], [ 6.793819521726541, 49.383142454624547 ], [ 6.827255972733232, 49.397357329824217 ], [ 6.89801224231253, 49.438771975579925 ], [ 6.90970622411863, 49.450996446363888 ], [ 6.93116347462326, 49.448209188718245 ], [ 6.964819324765088, 49.451635170875917 ], [ 6.964885144325955, 49.419732285907223 ], [ 6.97313455773463, 49.392968311036164 ], [ 6.99184931635556, 49.380598456783204 ], [ 7.000000000422981, 49.380608083624622 ], [ 7.016465916561619, 49.380627532020277 ], [ 7.036782290485768, 49.386064254456358 ], [ 7.045141402563697, 49.402995622632169 ], [ 7.029673753657564, 49.413427653992166 ], [ 7.000000000422981, 49.413154154237816 ], [ 6.999725751054945, 49.413151626340735 ], [ 6.993911669483158, 49.434110770816432 ], [ 7.000000000422981, 49.44656908448232 ], [ 7.001305425905656, 49.449239911969755 ], [ 7.017233813534493, 49.453057753788478 ], [ 7.047642554859822, 49.452520660935384 ], [ 7.061837688063723, 49.465060957697709 ], [ 7.101987757635072, 49.465641448701881 ], [ 7.118157484851518, 49.492452597749441 ], [ 7.121236810830808, 49.499999999800124 ], [ 7.130246385819428, 49.522303632501206 ], [ 7.146701331731843, 49.524588203110262 ], [ 7.162739419826565, 49.506074233816989 ], [ 7.182134316305263, 49.50956078882141 ], [ 7.193060400240185, 49.521102725306505 ], [ 7.199444920102226, 49.557321919452228 ], [ 7.224697777261108, 49.568691576552695 ], [ 7.251267031027204, 49.565062940480075 ], [ 7.274720814200237, 49.534457485700244 ], [ 7.290649202727408, 49.52927416548701 ], [ 7.305831632937545, 49.509736574932766 ], [ 7.30254236798143, 49.499999999800124 ], [ 7.301575286662329, 49.497166235836339 ], [ 7.28413304374364, 49.491103688055041 ], [ 7.256839773011346, 49.494802221758071 ], [ 7.239551108768594, 49.491683868698196 ], [ 7.205324820336548, 49.451765817827493 ], [ 7.195671252103859, 49.424757975179574 ], [ 7.189857171430414, 49.402341730403556 ], [ 7.201638912351549, 49.380394931398008 ], [ 7.270859387086829, 49.377690868572138 ], [ 7.292996774550965, 49.363368472323643 ], [ 7.302321244081, 49.341811538415094 ], [ 7.300149191385853, 49.312937718290627 ], [ 7.248612299156845, 49.317013684990712 ], [ 7.211928739333684, 49.308191701762404 ], [ 7.19632945040749, 49.291984810701571 ], [ 7.201968011952535, 49.267613424959727 ], [ 7.232793611095548, 49.265485999263859 ], [ 7.260854779699025, 49.27661753556518 ], [ 7.306577590356254, 49.275000414437322 ], [ 7.32722306298301, 49.266418580619252 ], [ 7.33367340240592, 49.248754804221775 ], [ 7.317635314311198, 49.233986390908825 ], [ 7.284506022452976, 49.221882602550664 ], [ 7.275664231199827, 49.197651488052422 ], [ 7.275466771618909, 49.171890103064307 ], [ 7.281741591913391, 49.141718279639214 ], [ 7.307959805626036, 49.141513761021493 ], [ 7.31019767878035, 49.161245911910704 ], [ 7.320443625755791, 49.176444938311469 ], [ 7.343897408928862, 49.184429481496018 ], [ 7.368228789540617, 49.179072536251965 ], [ 7.372395319558809, 49.141119367707688 ], [ 7.365376598987665, 49.14125080676056 ], [ 7.361383531854196, 49.125266414746839 ], [ 7.335604115513457, 49.121057595801737 ], [ 7.326718287946765, 49.121499190214806 ], [ 7.319479774778425, 49.121858915734421 ], [ 7.304273897641047, 49.109539963661661 ], [ 7.266800500392503, 49.121101439861349 ], [ 7.235163123371616, 49.112346538420404 ], [ 7.22605805297668, 49.117769206169683 ], [ 7.210261304469597, 49.120063794915112 ], [ 7.193586958523754, 49.112478092537586 ], [ 7.165750876289473, 49.131197061710473 ], [ 7.153458829404888, 49.128247444527624 ], [ 7.140163233193893, 49.135070985034702 ], [ 7.120768336715194, 49.131841975425417 ], [ 7.11897195857354, 49.132036665111677 ], [ 7.101219859763927, 49.133960580380823 ], [ 7.095603238671354, 49.140827155965049 ], [ 7.085949669540377, 49.142302614206265 ], [ 7.083338818575036, 49.150161242290807 ], [ 7.074343447747652, 49.150088212498886 ], [ 7.071162157593723, 49.142083489555645 ], [ 7.066664472629194, 49.127034596395546 ], [ 7.059972794517008, 49.123863515213188 ], [ 7.044549024719268, 49.110329328602297 ], [ 7.02851093662454, 49.106630897725012 ], [ 7.008282322713802, 49.106572422406558 ], [ 7.000000000422981, 49.108188381582657 ], [ 6.989326224505261, 49.110270857667629 ], [ 6.982546787278033, 49.127370689496502 ], [ 6.987592970080317, 49.157799562701307 ], [ 6.984872419547424, 49.190471766762435 ], [ 6.988163408370569, 49.214166704483596 ], [ 7.000000000422981, 49.212959637327884 ], [ 7.009905877571195, 49.211949436226568 ], [ 7.012582548995738, 49.191216054825617 ], [ 7.02056868326263, 49.15749288429344 ], [ 7.03489545648658, 49.1483062517894 ], [ 7.049661027980735, 49.156558233444784 ], [ 7.046517442814245, 49.166785499821358 ] ] ], [ [ [ 7.178931086597187, 48.955632137522109 ], [ 7.161576603691874, 48.949651090491514 ], [ 7.165767129507926, 48.92245146293336 ], [ 7.137135522614233, 48.914897400908252 ], [ 7.134283332061282, 48.901791283321991 ], [ 7.179786743583409, 48.894277681226811 ], [ 7.202626209357831, 48.884000955001433 ], [ 7.212257838036336, 48.857099893631947 ], [ 7.188650475289031, 48.84575346423086 ], [ 7.172634327646819, 48.855252638140065 ], [ 7.151374536723107, 48.857041713490972 ], [ 7.137705960904488, 48.844575033208692 ], [ 7.135336448628422, 48.823751481216895 ], [ 7.121338774107114, 48.808947061113535 ], [ 7.105037407768941, 48.803894792339982 ], [ 7.09974988448076, 48.817987451010829 ], [ 7.089789157099611, 48.835001064210914 ], [ 7.069999341459033, 48.852983475062246 ], [ 7.07271989289025, 48.867949315283177 ], [ 7.092531648085012, 48.866335140893881 ], [ 7.098543188339384, 48.87670275375141 ], [ 7.094374602077508, 48.887242641306024 ], [ 7.080267227988658, 48.886966452002028 ], [ 7.059906974956149, 48.881558648641821 ], [ 7.010827355016573, 48.888536349568966 ], [ 7.000000000422981, 48.891934180824599 ], [ 6.960387459361425, 48.904363376977926 ], [ 6.954858597383939, 48.91364796412374 ], [ 6.940400184139929, 48.913618907424599 ], [ 6.940553763714163, 48.921347479106331 ], [ 6.95303758294562, 48.925385615549899 ], [ 6.964051426893907, 48.938078911709162 ], [ 6.985486736946028, 48.95146580476014 ], [ 6.996325061765916, 48.968651485178263 ], [ 6.989282344498578, 48.975312237744163 ], [ 6.990554676046213, 48.976850099935717 ], [ 7.000000000422981, 48.978510949827914 ], [ 7.014403563434022, 48.981043540923956 ], [ 7.045975119995744, 48.985221895891151 ], [ 7.048858737210579, 49.000000000276607 ], [ 7.049595208419868, 49.003811893722101 ], [ 7.054728058884114, 49.011043507451788 ], [ 7.05531574572614, 49.019227882368355 ], [ 7.055654509402924, 49.023945034732471 ], [ 7.055036310383986, 49.026483813343624 ], [ 7.055014370829777, 49.04318818525396 ], [ 7.046304218698388, 49.064232636941824 ], [ 7.052776497675472, 49.079388455997879 ], [ 7.070876938897754, 49.084829371732894 ], [ 7.091741810659657, 49.094247174942964 ], [ 7.100803001047899, 49.106718610867624 ], [ 7.110741788874845, 49.106221567860963 ], [ 7.120965795397788, 49.102566688970469 ], [ 7.135446148195973, 49.087286362950344 ], [ 7.130026985786029, 49.068695016574523 ], [ 7.126209438679312, 49.046745004950417 ], [ 7.127394194368179, 49.017140959834897 ], [ 7.139724434923698, 49.001262850451191 ], [ 7.147005638729294, 49.000000000276607 ], [ 7.159996928841164, 48.997769351956038 ], [ 7.153831808114224, 48.985903746932493 ], [ 7.15567476210672, 48.97821424597435 ], [ 7.171186291917871, 48.971045976154642 ], [ 7.199795958359054, 48.979868314679216 ], [ 7.23226705281198, 48.9880652976032 ], [ 7.245825928164751, 48.979824787464999 ], [ 7.248063801319089, 48.970958906190546 ], [ 7.240209307072223, 48.95744663298219 ], [ 7.219651593560501, 48.954064359793954 ], [ 7.207738212619298, 48.965574757151408 ], [ 7.178931086597187, 48.955632137522109 ] ] ], [ [ [ 7.939457477768172, 49.50474828015038 ], [ 7.939237368065663, 49.506455130415624 ], [ 7.952796244316766, 49.518422545414197 ], [ 7.952796244316766, 49.549989493123135 ], [ 7.947026042751672, 49.591335159598898 ], [ 7.944722350036464, 49.604246630649413 ], [ 7.931755852528131, 49.605927939506159 ], [ 7.927060884950802, 49.612206613489377 ], [ 7.925524913138656, 49.614260522758691 ], [ 7.944590710914738, 49.647854071087878 ], [ 7.943054916070713, 49.695741901366056 ], [ 7.970765045518998, 49.699929831193991 ], [ 7.994372408266292, 49.685161020872918 ], [ 7.999999999585081, 49.686643390530563 ], [ 8.009554838476468, 49.689160136034971 ], [ 8.025746506145396, 49.70839213435405 ], [ 8.065084797838917, 49.685876215152312 ], [ 8.063900041251717, 49.655931165499332 ], [ 8.081100945481131, 49.645838238842948 ], [ 8.092816867739701, 49.611877842964553 ], [ 8.086676709397905, 49.606245379930535 ], [ 8.078314574489037, 49.598573610247669 ], [ 8.081803022893109, 49.56433132796537 ], [ 8.06460211956203, 49.535643421913839 ], [ 8.053183930429611, 49.499999999800124 ], [ 8.053017837323479, 49.499486627851169 ], [ 8.038120625809302, 49.479469604178753 ], [ 8.02486695487095, 49.47716768471502 ], [ 7.999999999585081, 49.472848457733839 ], [ 7.990840079855539, 49.47125734281294 ], [ 7.966201540095304, 49.478265419204163 ], [ 7.941563000335043, 49.488536304882551 ], [ 7.940069759584359, 49.499999999800124 ], [ 7.939457477768172, 49.50474828015038 ] ] ], [ [ [ 7.749246300470167, 50.373466563035748 ], [ 7.751958138243145, 50.374493207087262 ], [ 7.793424603523454, 50.377709106305183 ], [ 7.816593168000529, 50.37165934419253 ], [ 7.840397990328751, 50.357276512670502 ], [ 7.832740955662801, 50.340950447345286 ], [ 7.852593492574787, 50.322959035898833 ], [ 7.843184361320798, 50.320686675527313 ], [ 7.840836788598944, 50.313283483206988 ], [ 7.79158164953096, 50.310960674632511 ], [ 7.746429276265659, 50.30337115616755 ], [ 7.731554005203955, 50.312650001536291 ], [ 7.729402432300672, 50.312231946511361 ], [ 7.718346168108045, 50.344564295519717 ], [ 7.726507821503355, 50.364857377928402 ], [ 7.749246300470167, 50.373466563035748 ] ] ], [ [ [ 7.908478340373416, 49.748716726314925 ], [ 7.910079202888399, 49.746075144971513 ], [ 7.905976436187381, 49.746075144971513 ], [ 7.888095394998499, 49.746075144971513 ], [ 7.8546589439918, 49.746075144971513 ], [ 7.840727089031394, 49.733113992064858 ], [ 7.835154347047215, 49.714592019542188 ], [ 7.821222492985108, 49.694209641274462 ], [ 7.80450426703261, 49.697916167750627 ], [ 7.797878408481301, 49.697040636314277 ], [ 7.786294126242751, 49.709034042077143 ], [ 7.780721385156896, 49.723853894050571 ], [ 7.777320695867868, 49.727499814128308 ], [ 7.778247219150213, 49.72838966828251 ], [ 7.78221329999424, 49.731262114576587 ], [ 7.787786041978419, 49.764585038529312 ], [ 7.775477741875371, 49.771724752215228 ], [ 7.784999670986324, 49.773837321780213 ], [ 7.80450426703261, 49.790486955299144 ], [ 7.821222492985108, 49.799734265613665 ], [ 7.843513460023487, 49.790486955299144 ], [ 7.8546589439918, 49.77753773758031 ], [ 7.903409465228723, 49.757079914882297 ], [ 7.908478340373416, 49.748716726314925 ] ] ], [ [ [ 7.859034572163739, 50.114409917014733 ], [ 7.85042453727073, 50.118710482254123 ], [ 7.819533118566847, 50.132543230639008 ], [ 7.796605892779059, 50.145219719123766 ], [ 7.78765440195836, 50.163586022828483 ], [ 7.790396881265661, 50.169199083231128 ], [ 7.795070097935032, 50.188191306822176 ], [ 7.839279054200706, 50.195005471145215 ], [ 7.862403738671126, 50.162156169208366 ], [ 7.891452204280836, 50.140862143632916 ], [ 7.910671581631161, 50.1267933238003 ], [ 7.903738563931374, 50.11315770257449 ], [ 7.932175689159324, 50.102187694083732 ], [ 7.918822784924771, 50.103532330855558 ], [ 7.887387842354871, 50.099575351886649 ], [ 7.868087414508028, 50.100947345450919 ], [ 7.864870860987637, 50.105731149999265 ], [ 7.859034572163739, 50.114409917014733 ] ] ] ] } }
]
}
