{
"type": "FeatureCollection",
"name": "Kartli-Kakheti",
"crs": { "type": "name", "properties": { "name": "urn:ogc:def:crs:OGC:1.3:CRS84" } },
"features": [
{ "type": "Feature", "properties": { "OBJECTID": 49.0, "YEAR": 1700.0, "OWNER_ID": 343.0, "SHORT_NAME": "Georgia", "LONG_NAME": "Kingdoms of Kartli and Kakheti", "VARIANTS": null, "SHAPE_LENG": 1408323.9999999998, "Shape__Are": 75045948988.490234, "Shape__Len": 1410576.9827111585 }, "geometry": { "type": "MultiPolygon", "coordinates": [ [ [ [ 46.671577353405688, 40.948487133812122 ], [ 46.596615363007295, 40.957207660317543 ], [ 46.505059058470053, 40.933050528355849 ], [ 46.500000000114795, 40.931210498993259 ], [ 46.406715147426375, 40.897272625038447 ], [ 46.326355120298579, 40.903882956454773 ], [ 46.240058665548894, 40.936812103807021 ], [ 46.17539088770782, 40.953254407865785 ], [ 46.148502361909962, 40.939657255589047 ], [ 46.106641815595985, 40.961465978500492 ], [ 46.075497394477154, 40.957561191814797 ], [ 46.006184712169535, 40.999999999862673 ], [ 46.000000000084583, 41.003814489184805 ], [ 45.972701161594173, 41.020648687823837 ], [ 45.950854234495694, 41.019192717783078 ], [ 45.939832558136445, 41.006022803030447 ], [ 45.828218984345732, 41.031211588832257 ], [ 45.740089220814752, 41.045039452552622 ], [ 45.687010572521501, 41.032052665348992 ], [ 45.676589363335815, 40.999999999862673 ], [ 45.6674116300142, 40.971974001611351 ], [ 45.633015268939289, 40.922423714624124 ], [ 45.623150322628682, 40.849806673426968 ], [ 45.601521645720055, 40.761606102630211 ], [ 45.541175237807764, 40.633137321330793 ], [ 45.523169528423743, 40.577238611091815 ], [ 45.516491047461422, 40.543919332901503 ], [ 45.500000000054371, 40.523780782962163 ], [ 45.480532830517774, 40.499999999920512 ], [ 45.457410495141843, 40.471954581822089 ], [ 45.418161726854592, 40.499999999920512 ], [ 45.399770400363508, 40.513236600655638 ], [ 45.337241481569535, 40.527148291454893 ], [ 45.268557884963805, 40.541978830714072 ], [ 45.143281797185985, 40.585755704615799 ], [ 45.043017276386777, 40.629713668564094 ], [ 45.000000000024151, 40.635972382723104 ], [ 44.951003821896393, 40.643100436093803 ], [ 44.893976198478768, 40.647653581518291 ], [ 44.788912678005794, 40.647023909394036 ], [ 44.668681075214373, 40.664604028318955 ], [ 44.598536879940426, 40.679500693831343 ], [ 44.513792042061858, 40.67086652361963 ], [ 44.499999999993946, 40.672278415025843 ], [ 44.420142776100349, 40.680452804554747 ], [ 44.364511926050007, 40.678919738577406 ], [ 44.284786741028455, 40.688537123205123 ], [ 44.218832864958038, 40.677112288539689 ], [ 44.146877230388405, 40.680259155701762 ], [ 44.094956558107086, 40.707590258364696 ], [ 44.04379974666805, 40.744712761967833 ], [ 43.999999999963734, 40.830341283818328 ], [ 43.985222577894362, 40.859206044934247 ], [ 43.974768605353638, 40.912165035576677 ], [ 43.942708298802032, 40.959987650543439 ], [ 43.87631793133508, 40.977516544987935 ], [ 43.793973797035882, 40.978624997491686 ], [ 43.731424555655231, 40.963297773629044 ], [ 43.658923305941563, 40.960164408348056 ], [ 43.614422990994932, 40.954266848775127 ], [ 43.612153234834537, 40.95767367839975 ], [ 43.592545884096175, 40.958453063695458 ], [ 43.560407159111854, 40.959730546564074 ], [ 43.521799479815314, 40.978962348816886 ], [ 43.505009650049836, 40.999999999862673 ], [ 43.499999999933515, 41.006323934856695 ], [ 43.495457214151841, 41.012057994985746 ], [ 43.484457626467105, 41.052865858312202 ], [ 43.491332368657773, 41.090852632900926 ], [ 43.499999999933515, 41.096666574269598 ], [ 43.525519211167378, 41.1137809501557 ], [ 43.534719630543201, 41.119950079556439 ], [ 43.584741564351184, 41.13700506100907 ], [ 43.65853046368467, 41.131498211390188 ], [ 43.719311914909284, 41.140541472074069 ], [ 43.774724519261341, 41.177508877019037 ], [ 43.83255965176258, 41.20863236501777 ], [ 43.884502148613727, 41.230985604531782 ], [ 43.919356000103271, 41.280212972978966 ], [ 43.922389617105942, 41.327986087536352 ], [ 43.955977642647156, 41.36185365713245 ], [ 43.955170133563541, 41.421674067938099 ], [ 43.91896315784637, 41.465277898045954 ], [ 43.878300624558229, 41.499999999681769 ], [ 43.874833860586797, 41.502982545255826 ], [ 43.823022311154624, 41.519648588473935 ], [ 43.768111671908606, 41.511542635685728 ], [ 43.749572109022594, 41.499999999681769 ], [ 43.737208069354509, 41.492360722600608 ], [ 43.693907732947551, 41.499999999681769 ], [ 43.68059387129189, 41.502367062300451 ], [ 43.670032016475439, 41.504244785414912 ], [ 43.660014535331271, 41.564027121604262 ], [ 43.645850384123214, 41.611799982068895 ], [ 43.597312521063508, 41.641793335980701 ], [ 43.526797309000798, 41.636270575411423 ], [ 43.499999999933515, 41.63117849306127 ], [ 43.446482859695571, 41.621007837552519 ], [ 43.40939906178577, 41.631491034678028 ], [ 43.374549049695766, 41.641341197880855 ], [ 43.367599513774536, 41.659261060364528 ], [ 43.359446441086796, 41.680277925984221 ], [ 43.351153101857328, 41.713320009110319 ], [ 43.33498108932681, 41.752631985616425 ], [ 43.301065694339854, 41.771682635465901 ], [ 43.219245349716523, 41.766300034798547 ], [ 43.17640370207679, 41.792113037908621 ], [ 43.153451729499544, 41.815749179686115 ], [ 43.150847120927104, 41.818430873062958 ], [ 43.184806165053701, 41.844737816562208 ], [ 43.250519970856004, 41.85286597218348 ], [ 43.318110689663484, 41.868652543702481 ], [ 43.362261812391196, 41.891239338355994 ], [ 43.423326982125246, 41.938542561059116 ], [ 43.440895768023061, 41.978357911231782 ], [ 43.486021432578326, 41.999999999713268 ], [ 43.495042547325106, 42.004359977769106 ], [ 43.499999999933515, 42.005877766716743 ], [ 43.540765039080412, 42.01835712987544 ], [ 43.536640193586358, 42.04218560161766 ], [ 43.499999999933515, 42.059361453346881 ], [ 43.48341004711537, 42.067136800190198 ], [ 43.499999999933515, 42.082072571652418 ], [ 43.505998484971862, 42.087472077215679 ], [ 43.570490114863816, 42.107930045268205 ], [ 43.574112994353527, 42.150424507334975 ], [ 43.586443881696056, 42.202038171051257 ], [ 43.617172887691545, 42.252400426484471 ], [ 43.668438822878016, 42.29576367970899 ], [ 43.732974101011308, 42.347821070796542 ], [ 43.775750274043247, 42.386501872334861 ], [ 43.834458390235909, 42.49570490683039 ], [ 43.841557675314995, 42.499999999702688 ], [ 43.881141163961949, 42.524136310693933 ], [ 43.943406685934846, 42.532921117722616 ], [ 43.952644083561005, 42.541985603966268 ], [ 43.954253501630774, 42.543564759056402 ], [ 43.971342146094059, 42.557068876920667 ], [ 43.999999999963734, 42.580179012950765 ], [ 44.02629643447974, 42.601377275846673 ], [ 44.060975689410654, 42.66062105522375 ], [ 44.11265629142386, 42.68938256395797 ], [ 44.157964116352439, 42.688156196163789 ], [ 44.186816208444419, 42.663833583123939 ], [ 44.25842265079514, 42.669273514011984 ], [ 44.2610634246426, 42.600569308003429 ], [ 44.300129419905517, 42.575791872771653 ], [ 44.341617943317615, 42.540232752156761 ], [ 44.365734102858667, 42.526320494900638 ], [ 44.468549690842771, 42.517275853777988 ], [ 44.499999999993946, 42.515083945069435 ], [ 44.59439021077484, 42.508505014635695 ], [ 44.726712628844062, 42.516046069458817 ], [ 44.819314315453852, 42.599680530389961 ], [ 44.883434926760422, 42.566414913784726 ], [ 44.975032682259815, 42.614271024433897 ], [ 45.000000000024151, 42.617550739857201 ], [ 45.05190009369894, 42.624367633781141 ], [ 45.125756240016273, 42.659200386207871 ], [ 45.231018708578603, 42.631700777021855 ], [ 45.300706260549227, 42.606887339383931 ], [ 45.315067177838799, 42.579218958566912 ], [ 45.352191676617501, 42.554174229974322 ], [ 45.335822850394749, 42.518780688990013 ], [ 45.328016165385613, 42.499999999702688 ], [ 45.324124595302841, 42.490710985702655 ], [ 45.395470855004575, 42.457943473523919 ], [ 45.435672693587449, 42.404450362786882 ], [ 45.500000000054371, 42.357135846379443 ], [ 45.51902275954518, 42.343137199160253 ], [ 45.619090853826052, 42.299371900631691 ], [ 45.634346600038135, 42.243034144203129 ], [ 45.731970283209492, 42.191873733113141 ], [ 45.860541960981351, 42.129867298961514 ], [ 46.000000000084583, 42.084769617653073 ], [ 46.009432809132818, 42.081718086399661 ], [ 46.101098239214153, 42.011156670634804 ], [ 46.093060157170981, 41.999999999713268 ], [ 46.054938147541229, 41.947478291317616 ], [ 46.044047421295886, 41.926085077443751 ], [ 46.022593346335782, 41.905150987427746 ], [ 46.000000000084583, 41.887134464200635 ], [ 45.99441713857874, 41.882681755805791 ], [ 45.977851885837651, 41.867799750912639 ], [ 45.949632028940947, 41.85787111016365 ], [ 45.944939631443638, 41.835079249748844 ], [ 45.934594532918723, 41.823132791115455 ], [ 45.903821139368425, 41.823454827118361 ], [ 45.919447912250725, 41.814678750842077 ], [ 45.897579159684106, 41.785024367451584 ], [ 45.892515735516575, 41.759724263938516 ], [ 45.895767676370966, 41.72081985702755 ], [ 45.923049054307192, 41.701415213771647 ], [ 45.969907549282581, 41.703560822095923 ], [ 45.998607558393594, 41.674112910478598 ], [ 46.000000000084583, 41.673934573700123 ], [ 46.060481723923068, 41.666187893438391 ], [ 46.104917632358784, 41.644199301789904 ], [ 46.164020009248183, 41.64407012475764 ], [ 46.193876749306149, 41.613641658849723 ], [ 46.245034789640478, 41.598325048061632 ], [ 46.296367430126693, 41.594317566934045 ], [ 46.328101129003933, 41.580515692213702 ], [ 46.337573223176172, 41.535582459792955 ], [ 46.367429963234137, 41.500247606533293 ], [ 46.36824635036772, 41.499999999681769 ], [ 46.444799951532005, 41.476957359099139 ], [ 46.461408854311067, 41.453162435204383 ], [ 46.500000000114795, 41.439296888267712 ], [ 46.516517237903955, 41.433361439980658 ], [ 46.517193815738288, 41.434663478082435 ], [ 46.53100316025688, 41.432740629402637 ], [ 46.564903489598201, 41.431287769545008 ], [ 46.698735017157624, 41.349557789644265 ], [ 46.721913275354936, 41.317406883511318 ], [ 46.72112757197651, 41.300656966016689 ], [ 46.720237266071464, 41.287692407461634 ], [ 46.720189093016046, 41.286625574116279 ], [ 46.696094028612805, 41.264307193237251 ], [ 46.688608169720865, 41.257054652944909 ], [ 46.686373976065944, 41.254053053019874 ], [ 46.658904205244966, 41.215423015632936 ], [ 46.666164115385058, 41.15761288075317 ], [ 46.6678816483942, 41.14392877451661 ], [ 46.66802709821512, 41.142769797384645 ], [ 46.64070207024092, 41.117107148147362 ], [ 46.640370124777135, 41.115733127563196 ], [ 46.612435610543912, 40.999999999862673 ], [ 46.611718333637313, 40.997048262403183 ], [ 46.671577353405688, 40.948487133812122 ] ] ] ] } }
]
}
