{
"type": "FeatureCollection",
"name": "Kaufbeuren",
"crs": { "type": "name", "properties": { "name": "urn:ogc:def:crs:OGC:1.3:CRS84" } },
"features": [
{ "type": "Feature", "properties": { "OBJECTID": 46.0, "YEAR": 1700.0, "OWNER_ID": 9639.0, "SHORT_NAME": "Kaufbeuren", "LONG_NAME": "Imperial City of Kaufbeuren", "VARIANTS": null, "SHAPE_LENG": 57096.91, "Shape__Are": 122910246.57470703, "Shape__Len": 57188.30465087817 }, "geometry": { "type": "MultiPolygon", "coordinates": [ [ [ [ 10.613782583628138, 47.952082076317758 ], [ 10.62971033614807, 47.947404480149231 ], [ 10.63208082668948, 47.933304744948217 ], [ 10.648674264970923, 47.917633835479755 ], [ 10.696084086578901, 47.905093668525801 ], [ 10.698454578018627, 47.886277685837157 ], [ 10.681861139737183, 47.875298519280804 ], [ 10.648674264970923, 47.886277685837157 ], [ 10.601264442464631, 47.894118514755668 ], [ 10.598893951024907, 47.8847093766177 ], [ 10.587041495622911, 47.869023658709942 ], [ 10.563336584818924, 47.853333163272843 ], [ 10.546743147435794, 47.870592445666034 ], [ 10.542002164556344, 47.8847093766177 ], [ 10.539631674014933, 47.897254511564824 ], [ 10.603634933904354, 47.933304744948217 ], [ 10.613782583628138, 47.952082076317758 ] ] ] ] } }
]
}
