{
"type": "FeatureCollection",
"name": "Kempten",
"crs": { "type": "name", "properties": { "name": "urn:ogc:def:crs:OGC:1.3:CRS84" } },
"features": [
{ "type": "Feature", "properties": { "OBJECTID": 104.0, "YEAR": 1700.0, "OWNER_ID": 15015.0, "SHORT_NAME": "Kempten", "LONG_NAME": "Imperial City of Kempten", "VARIANTS": null, "SHAPE_LENG": 29020.67, "Shape__Are": 55396773.23828125, "Shape__Len": 29063.479461008334 }, "geometry": { "type": "MultiPolygon", "coordinates": [ [ [ [ 10.306794743884399, 47.740801231617077 ], [ 10.345251402906943, 47.716624218920153 ], [ 10.357103858308937, 47.699313417852494 ], [ 10.32628747408409, 47.685145732302033 ], [ 10.271766179055252, 47.689868724222748 ], [ 10.269395687615527, 47.705608923932978 ], [ 10.283618634457248, 47.719771015563424 ], [ 10.302582563280099, 47.737074980765392 ], [ 10.306794743884399, 47.740801231617077 ] ] ] ] } }
]
}
