{
"type": "FeatureCollection",
"name": "Laabeck",
"crs": { "type": "name", "properties": { "name": "urn:ogc:def:crs:OGC:1.3:CRS84" } },
"features": [
{ "type": "Feature", "properties": { "OBJECTID": 108.0, "YEAR": 1700.0, "OWNER_ID": 15011.0, "SHORT_NAME": "LÃ?Â¼beck", "LONG_NAME": "Imperial City of LÃ?Â¼beck", "VARIANTS": null, "SHAPE_LENG": 186080.5, "Shape__Are": 650223410.17285168, "Shape__Len": 186300.73201117173 }, "geometry": { "type": "MultiPolygon", "coordinates": [ [ [ [ 10.826765788375539, 53.80481517667414 ], [ 10.817716962398865, 53.804159252852081 ], [ 10.811586145637698, 53.812050922995468 ], [ 10.801587859694521, 53.81429410225325 ], [ 10.790600732541098, 53.810454234321746 ], [ 10.796797472169393, 53.798272520387691 ], [ 10.778207252386199, 53.796543300028254 ], [ 10.75324449896182, 53.797823722011287 ], [ 10.745839174933426, 53.806508434287139 ], [ 10.719799682843195, 53.808276832140699 ], [ 10.721601571250792, 53.790246219977519 ], [ 10.686948171630378, 53.790312231928155 ], [ 10.684135466525742, 53.812064118923665 ], [ 10.671324476376242, 53.818621777262955 ], [ 10.647020949826484, 53.815996198907762 ], [ 10.644814123346686, 53.816044199647159 ], [ 10.645229314789537, 53.832629855009785 ], [ 10.653327561498861, 53.841268774583959 ], [ 10.66998404624189, 53.84507943604337 ], [ 10.668841385607228, 53.855428435820812 ], [ 10.6610405252744, 53.864285664755762 ], [ 10.665237607893721, 53.883140541138204 ], [ 10.688134781442002, 53.911018503176813 ], [ 10.719865605710318, 53.911189637423441 ], [ 10.752607245777364, 53.923535776261943 ], [ 10.773988195178397, 53.944139600471736 ], [ 10.815717305389892, 53.950479206209323 ], [ 10.837164178556369, 53.951071028844197 ], [ 10.857424441911224, 53.955279300841866 ], [ 10.899153552122721, 53.958211688142491 ], [ 10.902911149260643, 53.965311678340122 ], [ 10.90392196505937, 53.977168581979548 ], [ 10.906538751193802, 53.986495047153483 ], [ 10.900296212757381, 53.988575350958079 ], [ 10.92934617765531, 53.993817732450111 ], [ 10.947321118842526, 53.983384871560069 ], [ 10.928357336445064, 53.965916436173224 ], [ 10.922841798279871, 53.941995490322363 ], [ 10.860193197838901, 53.927141525317367 ], [ 10.868916976514853, 53.911558232155137 ], [ 10.876465567458018, 53.913407785121152 ], [ 10.879838149360117, 53.908912219690578 ], [ 10.881046765201253, 53.890753856433847 ], [ 10.871839552765261, 53.871823369568034 ], [ 10.853469075273608, 53.857801092106925 ], [ 10.839493449900967, 53.843694980004273 ], [ 10.836131388169163, 53.830217204754156 ], [ 10.824616878977055, 53.81818639116841 ], [ 10.826616535986028, 53.805558219515973 ], [ 10.826765788375539, 53.80481517667414 ] ] ], [ [ [ 10.527832591117232, 53.632748885290944 ], [ 10.576659385609974, 53.630071861106131 ], [ 10.592195184306821, 53.623378554027674 ], [ 10.601072783305504, 53.600613330332507 ], [ 10.583317585308142, 53.589896016599958 ], [ 10.554465388113272, 53.595255014905412 ], [ 10.543368389814079, 53.618023140373992 ], [ 10.527832591117232, 53.632748885290944 ] ] ], [ [ [ 10.678751774094801, 53.659509742914977 ], [ 10.714262170089523, 53.656834424972331 ], [ 10.738675567785052, 53.663522399963483 ], [ 10.763088964582266, 53.647469468656496 ], [ 10.747104452011108, 53.640056027578396 ], [ 10.741841838107423, 53.637861394810272 ], [ 10.72535916928703, 53.632748885290944 ], [ 10.722186087039862, 53.632571836092197 ], [ 10.715289247191523, 53.633147111113601 ], [ 10.705219545183258, 53.635337219965372 ], [ 10.696506972092163, 53.638102422257298 ], [ 10.669874175096119, 53.650145383725125 ], [ 10.678751774094801, 53.659509742914977 ] ] ] ] } }
]
}
