{
"type": "FeatureCollection",
"name": "Laghouat",
"crs": { "type": "name", "properties": { "name": "urn:ogc:def:crs:OGC:1.3:CRS84" } },
"features": [
{ "type": "Feature", "properties": { "OBJECTID": 36.0, "YEAR": 1700.0, "OWNER_ID": 1331.0, "SHORT_NAME": "Laghouat", "LONG_NAME": "City of Laghouat", "VARIANTS": "Lordship of Sidi Hadj Aissa", "SHAPE_LENG": 398500.2, "Shape__Are": 12150431172.561584, "Shape__Len": 399342.63433488156 }, "geometry": { "type": "MultiPolygon", "coordinates": [ [ [ [ 2.816697939108308, 34.131579377647469 ], [ 3.000000000181255, 34.124616451596701 ], [ 3.098153510605516, 34.120887746145051 ], [ 3.264412239136453, 34.05998300077853 ], [ 3.342194257705687, 34.000000000147317 ], [ 3.409182789964124, 33.948612580167605 ], [ 3.500000000211477, 33.77392491342404 ], [ 3.523412884886282, 33.728831591033945 ], [ 3.500000000211477, 33.665049202836201 ], [ 3.449896074472571, 33.528393504533163 ], [ 3.414992683590039, 33.500000000094566 ], [ 3.221347998850783, 33.343219148165062 ], [ 3.000000000181255, 33.295497602577193 ], [ 2.875779440947126, 33.268704707659779 ], [ 2.507755957296098, 33.28777309234183 ], [ 2.500000000151079, 33.295819623558124 ], [ 2.351516256808267, 33.449721714568469 ], [ 2.340646506224795, 33.500000000094566 ], [ 2.314120676121227, 33.62328832076723 ], [ 2.37742071594162, 33.860343658936621 ], [ 2.449348086817474, 34.000000000147317 ], [ 2.457946450798293, 34.016778741713189 ], [ 2.500000000151079, 34.030244018754907 ], [ 2.816697939108308, 34.131579377647469 ] ] ] ] } }
]
}
