{
"type": "FeatureCollection",
"name": "Lindau",
"crs": { "type": "name", "properties": { "name": "urn:ogc:def:crs:OGC:1.3:CRS84" } },
"features": [
{ "type": "Feature", "properties": { "OBJECTID": 5.0, "YEAR": 1700.0, "OWNER_ID": 9633.0, "SHORT_NAME": "Lindau", "LONG_NAME": "Imperial City of Lindau", "VARIANTS": null, "SHAPE_LENG": 67154.91, "Shape__Are": 206704389.32080078, "Shape__Len": 67277.298561099858 }, "geometry": { "type": "MultiPolygon", "coordinates": [ [ [ [ 9.68738298671019, 47.58248967581671 ], [ 9.689848024935253, 47.587418450863638 ], [ 9.714587114023562, 47.624185467949872 ], [ 9.746938230385457, 47.614045439947098 ], [ 9.758356272194149, 47.640658794324914 ], [ 9.761571467461836, 47.657780793939523 ], [ 9.787281423369873, 47.670719182819546 ], [ 9.781096804709708, 47.676562890013386 ], [ 9.830670533089839, 47.682452237324107 ], [ 9.85679314988657, 47.662463878021477 ], [ 9.824667061503346, 47.624888422323927 ], [ 9.814179775838628, 47.595335501676892 ], [ 9.778329288457122, 47.545922756454615 ], [ 9.777833652880577, 47.545239291976905 ], [ 9.776778111760484, 47.543783710078287 ], [ 9.765209855466612, 47.550155200135265 ], [ 9.749040128250176, 47.556476073481903 ], [ 9.717929309512858, 47.565078251087598 ], [ 9.68738298671019, 47.58248967581671 ] ] ] ] } }
]
}
