{
"type": "FeatureCollection",
"name": "Lippe",
"crs": { "type": "name", "properties": { "name": "urn:ogc:def:crs:OGC:1.3:CRS84" } },
"features": [
{ "type": "Feature", "properties": { "OBJECTID": 68.0, "YEAR": 1700.0, "OWNER_ID": 8584.0, "SHORT_NAME": "Lippe", "LONG_NAME": "County of Lippe", "VARIANTS": null, "SHAPE_LENG": 268958.3, "Shape__Are": 2836133246.0737305, "Shape__Len": 269236.1639214785 }, "geometry": { "type": "MultiPolygon", "coordinates": [ [ [ [ 9.173554261907434, 52.063947243302401 ], [ 9.199905658047461, 52.040690867283793 ], [ 9.215724347007063, 52.006407905106933 ], [ 9.205144116253161, 51.999999999749583 ], [ 9.204076877271437, 51.999360793880221 ], [ 9.199173742194997, 51.995967223387169 ], [ 9.192533842077482, 51.989790529496673 ], [ 9.18991443465905, 51.970162139428659 ], [ 9.189890738898486, 51.966800537732858 ], [ 9.190144583933154, 51.954574227655435 ], [ 9.190845994795204, 51.953037159747737 ], [ 9.1904495493957, 51.949497603111269 ], [ 9.194618135657578, 51.924296030592004 ], [ 9.21723820139859, 51.902662660984795 ], [ 9.21175321942779, 51.89576095299379 ], [ 9.236435639194713, 51.891519298500761 ], [ 9.302628403350308, 51.891519298500761 ], [ 9.303593759904082, 51.892678548241896 ], [ 9.35144474414809, 51.897828943070103 ], [ 9.385649093025961, 51.90012074336196 ], [ 9.388511267454982, 51.900182156334942 ], [ 9.389335001010952, 51.886341827237622 ], [ 9.417838526111444, 51.865132841049395 ], [ 9.383760503718717, 51.850827460557539 ], [ 9.37070712385105, 51.845990775808772 ], [ 9.347539437027999, 51.838886706688648 ], [ 9.341670725310539, 51.836364509360692 ], [ 9.339596744389906, 51.835089178384628 ], [ 9.33351082722327, 51.833214168464259 ], [ 9.322198819855767, 51.836512629279476 ], [ 9.289884376317033, 51.836314651970355 ], [ 9.28246473134638, 51.836257936130266 ], [ 9.251069571567125, 51.835998229600271 ], [ 9.23851993277481, 51.814520060466016 ], [ 9.219717414140522, 51.83978354716286 ], [ 9.182679303647754, 51.843552324213732 ], [ 9.176089207926223, 51.844265503835402 ], [ 9.150716338540345, 51.847353222724628 ], [ 9.137761249636119, 51.848856060228186 ], [ 9.135073388796407, 51.849125186281675 ], [ 9.113593979548654, 51.852469282607878 ], [ 9.114776541551606, 51.857334271364223 ], [ 9.113939752779611, 51.860409093424785 ], [ 9.11153140723213, 51.861527098101867 ], [ 9.10903530167128, 51.861795093457758 ], [ 9.107361943316219, 51.861707958990692 ], [ 9.102927224863215, 51.860876415118845 ], [ 9.099947344182517, 51.859957717923862 ], [ 9.094264902630798, 51.852403357539735 ], [ 9.060806512069913, 51.841049644911493 ], [ 8.999999999645505, 51.835308900416472 ], [ 8.993889730049831, 51.834731989070406 ], [ 8.970896684701158, 51.825893690011156 ], [ 8.970896684701158, 51.804410677450605 ], [ 8.949987932932608, 51.800622371422939 ], [ 8.901895609999313, 51.799355131244383 ], [ 8.864246692724054, 51.798101056832877 ], [ 8.832894534399134, 51.806944836356386 ], [ 8.808640382850635, 51.815963430923382 ], [ 8.80656135519475, 51.816714920490604 ], [ 8.78271791878406, 51.824627164456224 ], [ 8.771458346978008, 51.830322687421614 ], [ 8.765562210593213, 51.834583467572749 ], [ 8.75342811358674, 51.844834535627548 ], [ 8.734625594952442, 51.868815656906285 ], [ 8.699082910811461, 51.90538880511194 ], [ 8.680258452622981, 51.925559737628717 ], [ 8.646800061163781, 51.938168525641146 ], [ 8.627975602975299, 51.940681960869782 ], [ 8.613759744739506, 51.946392161094387 ], [ 8.626878606401513, 51.969596016352057 ], [ 8.64493516761711, 51.9947062977039 ], [ 8.644175753435484, 51.999999999749583 ], [ 8.63973540434227, 52.031289258594839 ], [ 8.706674125916553, 52.052771937968458 ], [ 8.802990411803201, 52.05551959086177 ], [ 8.873593101808263, 52.05072767986443 ], [ 8.900184295128543, 52.074244240030893 ], [ 8.898078061994253, 52.091329732114382 ], [ 8.908675048124866, 52.107467359610425 ], [ 8.938359770687365, 52.105597976198496 ], [ 8.9746922922537, 52.105253258403359 ], [ 8.999999999645505, 52.113105456785767 ], [ 9.006439368842146, 52.115103172040783 ], [ 9.00977145019966, 52.11755674944559 ], [ 9.030222251616166, 52.104073243109866 ], [ 9.060411592908078, 52.088106807718781 ], [ 9.128337611488616, 52.090388078477844 ], [ 9.12456394349026, 52.069852419130292 ], [ 9.154753285680487, 52.063005089217768 ], [ 9.173554261907434, 52.063947243302401 ] ] ] ] } }
]
}
