{
"type": "FeatureCollection",
"name": "Lorraine",
"crs": { "type": "name", "properties": { "name": "urn:ogc:def:crs:OGC:1.3:CRS84" } },
"features": [
{ "type": "Feature", "properties": { "OBJECTID": 22.0, "YEAR": 1700.0, "OWNER_ID": 2514.0, "SHORT_NAME": "Lorraine", "LONG_NAME": "Duchy of Lorraine", "VARIANTS": null, "SHAPE_LENG": 2599675.0, "Shape__Are": 23607643178.044189, "Shape__Len": 2603424.968284844 }, "geometry": { "type": "MultiPolygon", "coordinates": [ [ [ [ 5.944455654480832, 48.099136097161669 ], [ 5.941782399349314, 48.111822672615624 ], [ 5.973617235951119, 48.112319610952966 ], [ 5.977237324375215, 48.124566144418054 ], [ 5.966464819116232, 48.142959652380121 ], [ 5.939676166215035, 48.141864116555844 ], [ 5.938996029255527, 48.160791663686105 ], [ 5.956218873039115, 48.161989003577084 ], [ 5.966771978264709, 48.186922329168844 ], [ 5.989128765762244, 48.193051606848464 ], [ 6.000000000362556, 48.193051606848464 ], [ 6.012626428941988, 48.193051606848464 ], [ 6.022587156323109, 48.182631396536991 ], [ 6.045009763381539, 48.178559054432405 ], [ 6.053610215047078, 48.161375735745565 ], [ 6.081298404941189, 48.163565945335442 ], [ 6.102404616290658, 48.185229351639713 ], [ 6.102185217155556, 48.205731032245936 ], [ 6.088450821776078, 48.213798113788492 ], [ 6.082746440670173, 48.226457790181456 ], [ 6.093321485449934, 48.243021457256717 ], [ 6.082439281521696, 48.261211943739937 ], [ 6.064843459028773, 48.271135257429194 ], [ 6.041345794950723, 48.2815373552586 ], [ 6.033513241156363, 48.272869088150401 ], [ 6.033513241156363, 48.258996784091266 ], [ 6.012626428941988, 48.255528115944919 ], [ 6.009467079240568, 48.234711136599401 ], [ 6.002907040250117, 48.226239043548524 ], [ 6.000000000362556, 48.226690554346305 ], [ 5.970326247127973, 48.231299137909154 ], [ 5.948627657035698, 48.244756247361153 ], [ 5.930768555401018, 48.247015759490601 ], [ 5.904747800370965, 48.236650332525251 ], [ 5.904133482972361, 48.241519868334791 ], [ 5.899957483812759, 48.253905229359091 ], [ 5.895511090854304, 48.266691134963054 ], [ 5.856392198295885, 48.283780665455403 ], [ 5.825391079126127, 48.294500572967095 ], [ 5.813104719475589, 48.311915594011495 ], [ 5.790418833275411, 48.302102178507802 ], [ 5.767623247507673, 48.303383562864617 ], [ 5.743072467760779, 48.304868763238254 ], [ 5.735590952223247, 48.296219042685912 ], [ 5.741273393774976, 48.283256264435892 ], [ 5.735876170919207, 48.260833041303819 ], [ 5.729030913232824, 48.247059490663794 ], [ 5.735744531797481, 48.185521248227055 ], [ 5.7038877556415, 48.18439743628997 ], [ 5.683746900845798, 48.238108326403676 ], [ 5.618168454987122, 48.270027905975965 ], [ 5.627138670291587, 48.316833937353962 ], [ 5.657024068403756, 48.333894249801105 ], [ 5.673259615181071, 48.375307565300673 ], [ 5.635632637459994, 48.399060926828902 ], [ 5.572160424735609, 48.408317936697678 ], [ 5.586465258405377, 48.444936982714928 ], [ 5.64379429085534, 48.451281972211802 ], [ 5.666897035771538, 48.455187301796613 ], [ 5.669046352106854, 48.463564154585448 ], [ 5.674049452606425, 48.465304909220762 ], [ 5.681355449015549, 48.469412340251644 ], [ 5.693400469078477, 48.484605476534476 ], [ 5.709781975919777, 48.500000000192749 ], [ 5.719179885419226, 48.50891760251001 ], [ 5.754503170425095, 48.500539085124466 ], [ 5.763524869076816, 48.500000000192749 ], [ 5.793973101240343, 48.498198509395635 ], [ 5.794828759124889, 48.479570627057882 ], [ 5.804789486506046, 48.445953396201752 ], [ 5.787676342290001, 48.431402212872982 ], [ 5.788159020566887, 48.420943683800054 ], [ 5.810428048051082, 48.408666676097134 ], [ 5.826773294395911, 48.417122875412602 ], [ 5.84140722676834, 48.423718309881195 ], [ 5.854395664729192, 48.41511792525381 ], [ 5.850051558440564, 48.393334392586326 ], [ 5.858344851855931, 48.376630720212624 ], [ 5.879473002759619, 48.368138663554632 ], [ 5.902970665939373, 48.349099066802303 ], [ 5.931690032846441, 48.345636552603722 ], [ 5.968241953547867, 48.338710814869863 ], [ 5.999572171420278, 48.342173801761177 ], [ 5.999572171420278, 48.356023384683887 ], [ 5.998233836157168, 48.365884539344655 ], [ 5.999440531400219, 48.383551274620785 ], [ 5.999067552690883, 48.401647828229336 ], [ 5.963129950286392, 48.413592366430699 ], [ 5.944437131219646, 48.438111962072476 ], [ 5.946565303908101, 48.456276094615987 ], [ 5.90777551095066, 48.46022458532623 ], [ 5.897200465272565, 48.483546313439746 ], [ 5.878683165334264, 48.496356338354083 ], [ 5.879156572997402, 48.500000000192749 ], [ 5.880153140617423, 48.507745865495387 ], [ 5.888775532735472, 48.512959885207117 ], [ 5.877015731368512, 48.516416072753046 ], [ 5.88462888602777, 48.531541424381722 ], [ 5.870784791080705, 48.541685894642335 ], [ 5.879955681036506, 48.555398904700212 ], [ 5.89956997754864, 48.561149352870437 ], [ 5.912887514212135, 48.569707963083772 ], [ 5.931141534110353, 48.564719275070942 ], [ 5.978071041807254, 48.566899144121734 ], [ 6.000000000362556, 48.573006742126019 ], [ 6.016465916501222, 48.57759229904989 ], [ 6.029849272725548, 48.564236473041333 ], [ 6.023925491586245, 48.552925862906321 ], [ 6.035092916007074, 48.54332521329475 ], [ 6.063263784178063, 48.534615722062661 ], [ 6.075001645092515, 48.538714493757645 ], [ 6.091566291470806, 48.533034677743515 ], [ 6.095998156874477, 48.547130567791868 ], [ 6.079060532685173, 48.552969764497711 ], [ 6.0531275367702, 48.570351629032785 ], [ 6.034895456426155, 48.567455068850315 ], [ 6.02243357674891, 48.58057602955197 ], [ 6.030573290590035, 48.593781296584382 ], [ 6.03399591943325, 48.606983092833275 ], [ 6.027792051673169, 48.611047874250794 ], [ 6.008413962673428, 48.623308752526199 ], [ 6.000000000362556, 48.622032683887348 ], [ 5.991937076308504, 48.620809823856447 ], [ 5.986474033891876, 48.634179835079834 ], [ 5.968614932257204, 48.631272343311878 ], [ 5.960321639740133, 48.657535924616859 ], [ 5.96319576984726, 48.667917783489862 ], [ 5.98078481544968, 48.66803324470068 ], [ 5.98318304506873, 48.690907911922913 ], [ 5.98803176918841, 48.701297445497659 ], [ 5.99398909701372, 48.707970040682973 ], [ 5.995469404719259, 48.709627943079184 ], [ 6.000000000362556, 48.71270744697356 ], [ 6.002358542412362, 48.714310503853824 ], [ 6.00442089553996, 48.715419082956274 ], [ 6.029739573157997, 48.728297224534849 ], [ 6.054158713783164, 48.715550360441213 ], [ 6.079367690935319, 48.714368850672365 ], [ 6.110566269686003, 48.724024324168752 ], [ 6.097811317342241, 48.744303100715179 ], [ 6.099387408813292, 48.745100367653954 ], [ 6.127544291113641, 48.759930778433329 ], [ 6.098674828299011, 48.81479948157974 ], [ 6.106200223843198, 48.81541088890318 ], [ 6.12761359434118, 48.816109630522419 ], [ 6.126911516030868, 48.825119612939865 ], [ 6.124190965497966, 48.837649367177995 ], [ 6.12765747344953, 48.844575033208692 ], [ 6.137508502161434, 48.842392679096335 ], [ 6.148434586096355, 48.832352619829251 ], [ 6.152054674520487, 48.815381774184566 ], [ 6.167237104730661, 48.816124187671271 ], [ 6.165372211183982, 48.828612544253936 ], [ 6.178163189563915, 48.827957638434391 ], [ 6.180488821833289, 48.839017117250314 ], [ 6.166578907325365, 48.844676873764151 ], [ 6.162849119333682, 48.853448952830178 ], [ 6.174455341126408, 48.86146321629208 ], [ 6.201112354007554, 48.875321499739087 ], [ 6.207891792133108, 48.892620757485524 ], [ 6.226716251219877, 48.905758355225871 ], [ 6.256993352525182, 48.91924112695893 ], [ 6.267963316466796, 48.921986630785163 ], [ 6.286217337263313, 48.919575243996107 ], [ 6.300873209189916, 48.915783610134518 ], [ 6.307652647315432, 48.905758355225871 ], [ 6.312874350144449, 48.897111764706551 ], [ 6.359891616956428, 48.873882046322102 ], [ 6.375973584159508, 48.851848854729212 ], [ 6.36607867633922, 48.834695481365017 ], [ 6.367614471183247, 48.819384852801008 ], [ 6.381721845272096, 48.819996203873963 ], [ 6.416694092021147, 48.812179079782425 ], [ 6.38503477454776, 48.800895220842747 ], [ 6.337776169046505, 48.792594494924984 ], [ 6.342076394430107, 48.77485252336249 ], [ 6.39282344923376, 48.778756881161712 ], [ 6.429770289097041, 48.769286828874485 ], [ 6.472926127897278, 48.776498801290408 ], [ 6.499736721250983, 48.767042892022666 ], [ 6.500000000392768, 48.767186514512886 ], [ 6.51533601017714, 48.775551834010805 ], [ 6.529794422522818, 48.789565113894049 ], [ 6.55226090958794, 48.780199085585345 ], [ 6.547170845880649, 48.763225052313047 ], [ 6.536157001932351, 48.749554211783611 ], [ 6.52628403456457, 48.734304916350077 ], [ 6.553599244851049, 48.724272249663983 ], [ 6.581813993028723, 48.719269746984786 ], [ 6.586070339303966, 48.734406982860371 ], [ 6.601143069946589, 48.758430482345901 ], [ 6.62727352544249, 48.755909140305079 ], [ 6.642455955652628, 48.742629917290266 ], [ 6.640591062105957, 48.724301417568213 ], [ 6.651912065202723, 48.704988712721409 ], [ 6.72547664532829, 48.691958636740623 ], [ 6.751826499060987, 48.670209971544978 ], [ 6.789014677613542, 48.670312168282031 ], [ 6.816702867507646, 48.670268369790953 ], [ 6.806522740991388, 48.650511253614098 ], [ 6.819555058060597, 48.641031497906162 ], [ 6.848822922805447, 48.636590441456455 ], [ 6.878266306678669, 48.648758583378324 ], [ 6.898520337522092, 48.627086272839676 ], [ 6.903315480728336, 48.613686061365733 ], [ 6.90321200558737, 48.611616787301109 ], [ 6.900918991145965, 48.605328731884498 ], [ 6.892455452611176, 48.601889258461739 ], [ 6.884411283583669, 48.600016332116212 ], [ 6.873151770168092, 48.599356218791613 ], [ 6.867685865718979, 48.599492958094132 ], [ 6.865563088312112, 48.599629696428508 ], [ 6.847594287109852, 48.584861175796298 ], [ 6.85637025790381, 48.556189081473981 ], [ 6.889894468923913, 48.563797557323568 ], [ 6.919996051100764, 48.554111182286164 ], [ 6.942967155996912, 48.560856725448744 ], [ 6.964665745190852, 48.547584264407192 ], [ 6.999594111034886, 48.548637994366914 ], [ 7.000000000422981, 48.5485811650125 ], [ 7.03816450575556, 48.543237393836129 ], [ 7.043024244118913, 48.542470406538278 ], [ 7.053169763038861, 48.540869153143525 ], [ 7.051028532439426, 48.537565581643477 ], [ 7.03810492140108, 48.517621943479057 ], [ 7.03603664298586, 48.517797159591524 ], [ 7.032460123751322, 48.517968350938332 ], [ 7.013416266427741, 48.522229548006834 ], [ 7.000000000422981, 48.522189350411658 ], [ 6.993867790374807, 48.522170976778554 ], [ 6.950975229818022, 48.513120984188859 ], [ 6.928684262779643, 48.528100915969148 ], [ 6.889477610207885, 48.526168271554418 ], [ 6.862008819448847, 48.525480115120139 ], [ 6.85626055833626, 48.505124005790968 ], [ 6.880065380664481, 48.503615276406585 ], [ 6.903080365567313, 48.502560603152446 ], [ 6.91878935495939, 48.503205128419275 ], [ 6.920993978770091, 48.500000000192749 ], [ 6.9306588558939, 48.486085365133704 ], [ 6.925371333504016, 48.479091782355603 ], [ 6.903146186026512, 48.458453609194009 ], [ 6.89812194188008, 48.437502021487511 ], [ 6.893404857780458, 48.427465992597583 ], [ 6.884190469601968, 48.422640648295491 ], [ 6.857752474071927, 48.439404430503082 ], [ 6.841341407267906, 48.476857113825673 ], [ 6.812744796042702, 48.500000000192749 ], [ 6.805864542687795, 48.505622023402395 ], [ 6.796320674022666, 48.545959720414231 ], [ 6.759944272449647, 48.554272149018168 ], [ 6.744410803084322, 48.572077782278775 ], [ 6.710557493361604, 48.575398266930172 ], [ 6.695133723563828, 48.562729513907037 ], [ 6.666480177115952, 48.559861778285047 ], [ 6.646712301927881, 48.571302483684391 ], [ 6.619221571614696, 48.563578098027875 ], [ 6.592564557835225, 48.55055514154207 ], [ 6.582647710460761, 48.527398144657333 ], [ 6.540698566903564, 48.510060019606335 ], [ 6.540201808432914, 48.500000000192749 ], [ 6.539777090356484, 48.49148223922856 ], [ 6.566083064980803, 48.465145250076127 ], [ 6.58383246704796, 48.451252935192507 ], [ 6.605487176235182, 48.449380011268083 ], [ 6.620845126472099, 48.439825564763453 ], [ 6.599212356839016, 48.434466732903786 ], [ 6.623412097430757, 48.383798419304071 ], [ 6.629357818124261, 48.359281560117857 ], [ 6.62769038415851, 48.33401066756813 ], [ 6.638462888519197, 48.29458795415686 ], [ 6.671701879944969, 48.284071997614504 ], [ 6.724467407869535, 48.285834518801003 ], [ 6.741953530794881, 48.273918099906524 ], [ 6.756741042741535, 48.264913377000738 ], [ 6.784692511777423, 48.273422736226799 ], [ 6.815913030082291, 48.279264809532116 ], [ 6.813960376522245, 48.29602972296852 ], [ 6.819291778918813, 48.308508777306869 ], [ 6.815364532244537, 48.331420307840261 ], [ 6.80770749668029, 48.367513336045469 ], [ 6.813894556961377, 48.378055617817196 ], [ 6.821419952505602, 48.392389597167231 ], [ 6.815101253102751, 48.41414447902325 ], [ 6.835615085709494, 48.420987265169678 ], [ 6.873439523011497, 48.422309225485336 ], [ 6.915366726116185, 48.399177194846786 ], [ 6.943822812983133, 48.373838968346888 ], [ 6.969163430155382, 48.357216133663037 ], [ 6.977895521840945, 48.348138897567331 ], [ 6.999199192771376, 48.339743915323034 ], [ 7.000000000422981, 48.339618893142074 ], [ 7.010849294570784, 48.337925062025576 ], [ 7.042706070726765, 48.307416800927008 ], [ 7.088209482248892, 48.289199162461124 ], [ 7.113023541137544, 48.292680095801622 ], [ 7.129763706644244, 48.283139730140505 ], [ 7.113725619447856, 48.271324670588946 ], [ 7.112518923306482, 48.255309494327186 ], [ 7.145297176009543, 48.255120021457778 ], [ 7.216250905169794, 48.245164424454636 ], [ 7.261183878401668, 48.225597382213344 ], [ 7.298503696974275, 48.196816368741921 ], [ 7.324326992423375, 48.185054212884587 ], [ 7.387053248627396, 48.169318448226448 ], [ 7.384222997628618, 48.157389312356294 ], [ 7.309363961348303, 48.180106291016301 ], [ 7.26927971223612, 48.174106838818098 ], [ 7.238125013492118, 48.18826499620905 ], [ 7.182134316305263, 48.185054212884587 ], [ 7.171164352363695, 48.202856916515664 ], [ 7.14064591147078, 48.196524536870626 ], [ 7.120154018418248, 48.194423296231612 ], [ 7.109688672307704, 48.203425916657679 ], [ 7.097863051379877, 48.177989776462425 ], [ 7.081057065414012, 48.151022070609969 ], [ 7.101899997621696, 48.12083988449767 ], [ 7.093694464219704, 48.096268992082898 ], [ 7.056155246511994, 48.075606268102646 ], [ 7.037330788323513, 48.047603952317161 ], [ 7.039085982302641, 48.027155806184588 ], [ 7.000000000422981, 48.012388509079862 ], [ 6.973551416450658, 48.002393405344392 ], [ 6.972831523649965, 48.000000000254126 ], [ 6.96591632133891, 47.977226747536449 ], [ 6.965609162190442, 47.92806500407125 ], [ 6.939917505863042, 47.872530928017746 ], [ 6.916222383102397, 47.849462542826593 ], [ 6.932370170764643, 47.819688197470285 ], [ 6.91194409727297, 47.801081424877609 ], [ 6.885747822216211, 47.791542490209466 ], [ 6.872869084721243, 47.791717265019734 ], [ 6.836558502709083, 47.792227021959299 ], [ 6.823855284342535, 47.804619848784668 ], [ 6.791055091186956, 47.820532477429801 ], [ 6.754832269188181, 47.833704363113924 ], [ 6.705291910525903, 47.862976109864206 ], [ 6.656124531471284, 47.885369696799941 ], [ 6.638857807681013, 47.904149533405871 ], [ 6.575056495355677, 47.965514087534437 ], [ 6.53938217119464, 47.950836835002889 ], [ 6.52365124314672, 47.92688837858438 ], [ 6.500000000392768, 47.917336770755668 ], [ 6.490412250822614, 47.913464231153107 ], [ 6.442232167875989, 47.919421266175455 ], [ 6.437098225060302, 47.942429279365001 ], [ 6.421959674856847, 47.963220590055663 ], [ 6.37871607514491, 47.96911380167554 ], [ 6.346201101583626, 47.969781463184646 ], [ 6.311360494854643, 47.95999790724408 ], [ 6.242820157977141, 47.943707199938451 ], [ 6.217282081224001, 47.946945425866005 ], [ 6.178865266975894, 47.962349614776379 ], [ 6.160911396671955, 48.000000000254126 ], [ 6.160479607057617, 48.000914018762579 ], [ 6.14986068137283, 48.012894358297224 ], [ 6.13860549783696, 48.019264181718235 ], [ 6.092136729761068, 48.015398452014267 ], [ 6.058217600477454, 48.00135344470695 ], [ 6.055364698458808, 48.000000000254126 ], [ 6.031911625853145, 47.988980262055023 ], [ 6.015961297771827, 47.96597858117515 ], [ 6.000000000362556, 47.949337146262053 ], [ 5.99740011872513, 47.94662596868627 ], [ 5.979480368232348, 47.949308749190784 ], [ 5.953366681587838, 47.953217999653724 ], [ 5.954070128032329, 47.956982716795139 ], [ 5.957732727430632, 47.978692456264305 ], [ 5.961623073109668, 47.988278592691593 ], [ 5.965897979477015, 48.000000000254126 ], [ 5.966355119548681, 48.001265559819281 ], [ 5.949198095325952, 48.028707634159403 ], [ 5.92368195902533, 48.036026942773958 ], [ 5.932216591130002, 48.049842945531374 ], [ 5.962735031124548, 48.090581361355461 ], [ 5.944455654480832, 48.099136097161669 ] ], [ [ 6.434970052371846, 48.749320988323284 ], [ 6.440548278570835, 48.741084575345006 ], [ 6.442407687902695, 48.732846805173246 ], [ 6.467199807237191, 48.731199087842924 ], [ 6.499429562102515, 48.731199087842924 ], [ 6.500000000392768, 48.731461559621849 ], [ 6.53165931696783, 48.746026586181664 ], [ 6.514304833164212, 48.757556042976269 ], [ 6.500000000392768, 48.759017917382572 ], [ 6.48207507829886, 48.760849684804299 ], [ 6.439928476059078, 48.759202890746629 ], [ 6.434970052371846, 48.749320988323284 ] ], [ [ 6.318820070837964, 48.731213669776643 ], [ 6.315737702264807, 48.722120026713945 ], [ 6.316326730291568, 48.719342910579982 ], [ 6.32393207409943, 48.706593527122585 ], [ 6.348724193433898, 48.71019687595291 ], [ 6.38095394829925, 48.71019687595291 ], [ 6.38948858040393, 48.728530546130308 ], [ 6.372134096600275, 48.741813516089934 ], [ 6.35043550740637, 48.73286138662634 ], [ 6.318820070837964, 48.731213669776643 ] ], [ [ 6.203437987175261, 48.818569706963608 ], [ 6.216974922973857, 48.816182415630855 ], [ 6.236742798161901, 48.823795145954165 ], [ 6.249226617393358, 48.836267028873905 ], [ 6.248173500826208, 48.84735375826169 ], [ 6.240889444869594, 48.845971689334746 ], [ 6.233605388014682, 48.837649367177995 ], [ 6.219059215655639, 48.833502236567959 ], [ 6.205522279857042, 48.836965478055262 ], [ 6.198238223900419, 48.835568569304527 ], [ 6.198238223900419, 48.828641650649978 ], [ 6.207606573437137, 48.826560476454254 ], [ 6.203437987175261, 48.818569706963608 ] ] ], [ [ [ 7.488949526800861, 49.15071478118773 ], [ 7.489816482796737, 49.140902295888857 ], [ 7.499999999554868, 49.138924554358361 ], [ 7.506495736238959, 49.137662975204947 ], [ 7.499999999554868, 49.130342408218709 ], [ 7.49746114047471, 49.127480867703994 ], [ 7.498470408476194, 49.126775380986551 ], [ 7.499999999554868, 49.125706165658201 ], [ 7.505993403721979, 49.12151642969954 ], [ 7.565697535969048, 49.080177544438101 ], [ 7.578009897355495, 49.083516564174111 ], [ 7.579210208271803, 49.076963741222485 ], [ 7.608602645990342, 49.082767159905913 ], [ 7.624136115355679, 49.082211371449169 ], [ 7.657024068524624, 49.060925826973509 ], [ 7.63769499070845, 49.044168897690767 ], [ 7.638311906933161, 49.040065409257039 ], [ 7.632802387480383, 49.033921688990503 ], [ 7.622556440504968, 49.020479987974255 ], [ 7.619250215356279, 49.016198563099316 ], [ 7.618190394662165, 49.014812293901123 ], [ 7.598094401731741, 49.000000000276607 ], [ 7.563249632209732, 48.974564417198003 ], [ 7.562945654893983, 48.962730065422846 ], [ 7.557460672923178, 48.953425621699203 ], [ 7.547938743812253, 48.949781752103583 ], [ 7.538909555007676, 48.948013687426489 ], [ 7.537188179005749, 48.947676606328777 ], [ 7.530961107761871, 48.947199969527581 ], [ 7.499999999554868, 48.951030526412374 ], [ 7.49929792214288, 48.951117384661174 ], [ 7.469352366551088, 48.965059735906131 ], [ 7.467782763611333, 48.965289378246219 ], [ 7.444206761948941, 48.968738559786694 ], [ 7.442956185800875, 48.968680510261912 ], [ 7.43298241308517, 48.968729560580059 ], [ 7.42610632072665, 48.968724047264047 ], [ 7.391484845434788, 48.955756589481993 ], [ 7.358619101314621, 48.956633747167658 ], [ 7.342011242377921, 48.968611618539391 ], [ 7.318490971297421, 48.961017365659664 ], [ 7.3062819592878, 48.965158542779974 ], [ 7.300531889866555, 48.967108790778425 ], [ 7.299534873088906, 48.967446939868289 ], [ 7.280148451316562, 48.981827715781421 ], [ 7.274555302304084, 48.985865777224411 ], [ 7.253702362864137, 48.984220863720822 ], [ 7.245825928164751, 48.979824787464999 ], [ 7.23226705281198, 48.9880652976032 ], [ 7.199795958359054, 48.979868314679216 ], [ 7.171186291917871, 48.971045976154642 ], [ 7.15567476210672, 48.97821424597435 ], [ 7.153831808114224, 48.985903746932493 ], [ 7.159996928841164, 48.997769351956038 ], [ 7.147005638729294, 49.000000000276607 ], [ 7.139724434923698, 49.001262850451191 ], [ 7.127394194368179, 49.017140959834897 ], [ 7.126209438679312, 49.046745004950417 ], [ 7.130026985786029, 49.068695016574523 ], [ 7.135446148195973, 49.087286362950344 ], [ 7.120965795397788, 49.102566688970469 ], [ 7.110741788874845, 49.106221567860963 ], [ 7.100803001047899, 49.106718610867624 ], [ 7.091741810659657, 49.094247174942964 ], [ 7.070876938897754, 49.084829371732894 ], [ 7.052776497675472, 49.079388455997879 ], [ 7.046304218698388, 49.064232636941824 ], [ 7.055014370829777, 49.04318818525396 ], [ 7.055036310383986, 49.026483813343624 ], [ 7.055654509402924, 49.023945034732471 ], [ 7.05531574572614, 49.019227882368355 ], [ 7.054728058884114, 49.011043507451788 ], [ 7.049595208419868, 49.003811893722101 ], [ 7.048858737210579, 49.000000000276607 ], [ 7.045975119995744, 48.985221895891151 ], [ 7.014403563434022, 48.981043540923956 ], [ 7.000000000422981, 48.978510949827914 ], [ 6.990554676046213, 48.976850099935717 ], [ 6.989282344498578, 48.975312237744163 ], [ 6.964183066913966, 48.998944153015188 ], [ 6.931646152900147, 48.998654081007942 ], [ 6.906722394443952, 48.990429838391215 ], [ 6.889367910640342, 48.977343661229412 ], [ 6.871355229431392, 48.969231978298815 ], [ 6.879056144104034, 48.949346212255506 ], [ 6.909684284564456, 48.948025050594872 ], [ 6.964051426893907, 48.938078911709162 ], [ 6.95303758294562, 48.925385615549899 ], [ 6.940553763714163, 48.921347479106331 ], [ 6.940400184139929, 48.913618907424599 ], [ 6.954858597383939, 48.91364796412374 ], [ 6.960387459361425, 48.904363376977926 ], [ 7.000000000422981, 48.891934180824599 ], [ 7.010827355016573, 48.888536349568966 ], [ 7.059906974956149, 48.881558648641821 ], [ 7.080267227988658, 48.886966452002028 ], [ 7.094374602077508, 48.887242641306024 ], [ 7.098543188339384, 48.87670275375141 ], [ 7.092531648085012, 48.866335140893881 ], [ 7.07271989289025, 48.867949315283177 ], [ 7.069999341459033, 48.852983475062246 ], [ 7.089789157099611, 48.835001064210914 ], [ 7.09974988448076, 48.817987451010829 ], [ 7.105037407768941, 48.803894792339982 ], [ 7.121338774107114, 48.808947061113535 ], [ 7.135336448628422, 48.823751481216895 ], [ 7.137705960904488, 48.844575033208692 ], [ 7.151374536723107, 48.857041713490972 ], [ 7.172634327646819, 48.855252638140065 ], [ 7.188650475289031, 48.84575346423086 ], [ 7.191107746680139, 48.812513916567767 ], [ 7.161050045408304, 48.806646667835842 ], [ 7.158373373983761, 48.795157673688465 ], [ 7.157144737389878, 48.789929232160766 ], [ 7.121097435417846, 48.787380350262275 ], [ 7.085313411689257, 48.794094552576745 ], [ 7.070350380614184, 48.78002427482398 ], [ 7.053478575985749, 48.761709493471841 ], [ 7.036343491317241, 48.740311886747833 ], [ 7.030990149366488, 48.697708047395032 ], [ 7.048081353130025, 48.693826537779877 ], [ 7.068485487067514, 48.706082909752986 ], [ 7.078380394887803, 48.694454020385535 ], [ 7.082768380284782, 48.680034531833364 ], [ 7.060477413246403, 48.670312168282031 ], [ 7.033908159480308, 48.679757193195073 ], [ 7.000230368886008, 48.682034243229538 ], [ 7.000000000422981, 48.682071517900468 ], [ 6.961440575928565, 48.688310191686604 ], [ 6.972959037707924, 48.700597095628041 ], [ 6.987154171810114, 48.708679707640677 ], [ 6.951721187236694, 48.719313502617524 ], [ 6.926248930044422, 48.727261845183378 ], [ 6.931690032906829, 48.749160646117119 ], [ 6.943449834273799, 48.772113463403798 ], [ 6.937920972296313, 48.793235301667636 ], [ 6.913655411245415, 48.805962353674943 ], [ 6.839959191998114, 48.809034415901053 ], [ 6.82422826305187, 48.801739779037952 ], [ 6.83388183128455, 48.785239188280208 ], [ 6.824337962619413, 48.760893404045021 ], [ 6.802178634702805, 48.757658061404634 ], [ 6.763147502157761, 48.788516439386356 ], [ 6.704589833113914, 48.798798325576662 ], [ 6.66415454484657, 48.798186714490448 ], [ 6.624509094004581, 48.795317867616831 ], [ 6.588812830289367, 48.816633680456484 ], [ 6.581616534346129, 48.829645822463199 ], [ 6.596952544130501, 48.845884399289368 ], [ 6.603600342235994, 48.862626703994295 ], [ 6.580826696920774, 48.8720644954143 ], [ 6.552019570000329, 48.871846385292677 ], [ 6.538526514208425, 48.860750566032372 ], [ 6.541663924355663, 48.851528829055191 ], [ 6.563867131380666, 48.835539466362818 ], [ 6.55384058443865, 48.825730893657038 ], [ 6.526591193713038, 48.822805410815867 ], [ 6.508139713335605, 48.812892424801618 ], [ 6.500000000392768, 48.813239978573606 ], [ 6.491092388680427, 48.813620317492365 ], [ 6.488240198127476, 48.833967896489703 ], [ 6.475822198456913, 48.84386214111602 ], [ 6.471609732188352, 48.859077980326823 ], [ 6.471324513492383, 48.883928268984199 ], [ 6.455856863687916, 48.886530360316208 ], [ 6.426325719801318, 48.898652275840284 ], [ 6.40116062265582, 48.91549305131953 ], [ 6.388391583830098, 48.942740051512246 ], [ 6.387645626411427, 48.960233568402607 ], [ 6.400524363906403, 48.965937589034404 ], [ 6.419348822993172, 48.9672292476846 ], [ 6.432073981812203, 48.973295241591288 ], [ 6.435321090628702, 48.97922990894623 ], [ 6.428037034672087, 48.984090292841984 ], [ 6.410309572159105, 48.981812500517833 ], [ 6.388698742978576, 48.983190795346829 ], [ 6.375622545902682, 48.990067186371661 ], [ 6.365223019352998, 48.999190712530748 ], [ 6.365083226223455, 49.000000000276607 ], [ 6.363050966657849, 49.011882998776144 ], [ 6.363862743637388, 49.013508778768553 ], [ 6.370247262601097, 49.026073818904436 ], [ 6.398944689055684, 49.023760216820598 ], [ 6.454123609262971, 49.034741543803257 ], [ 6.458379955538224, 49.046510818874225 ], [ 6.450086663021153, 49.069104657702155 ], [ 6.457743697687104, 49.082430762237017 ], [ 6.459893810828067, 49.090386677743673 ], [ 6.437339564647912, 49.088105333440794 ], [ 6.424153667106171, 49.086920747053895 ], [ 6.405175629343455, 49.088661054962678 ], [ 6.396619056786311, 49.097405538823665 ], [ 6.398900809947297, 49.1075957325369 ], [ 6.422442353133734, 49.116029924613528 ], [ 6.446685973732124, 49.121145283292414 ], [ 6.443263344888917, 49.136239804888568 ], [ 6.42691809854408, 49.133945969510158 ], [ 6.403639834499429, 49.135187868031686 ], [ 6.392977028807995, 49.14891972110329 ], [ 6.404671010614068, 49.177729559342723 ], [ 6.411472388293796, 49.189304232983034 ], [ 6.424767985403116, 49.198687499422611 ], [ 6.441266811322179, 49.186516635314817 ], [ 6.463491958799691, 49.182896900280959 ], [ 6.482799096163356, 49.202977230267564 ], [ 6.483084314859316, 49.218396742191615 ], [ 6.471324513492383, 49.223924414584367 ], [ 6.455988503707975, 49.22897024305334 ], [ 6.449318765149974, 49.239993428294362 ], [ 6.456931920707574, 49.246786911261339 ], [ 6.466735344997616, 49.257062802422141 ], [ 6.477532017632717, 49.259594031321733 ], [ 6.480956142170852, 49.260414776299704 ], [ 6.485146667986949, 49.262396695692658 ], [ 6.477386317181857, 49.26994633379384 ], [ 6.463667478826433, 49.266928578614163 ], [ 6.447058952441459, 49.263839366466215 ], [ 6.427049737665815, 49.264291103109358 ], [ 6.428914632110782, 49.289639974316309 ], [ 6.435672129783826, 49.309429204193528 ], [ 6.467419206372291, 49.328832068802967 ], [ 6.483391474007785, 49.354991197382517 ], [ 6.446312995022788, 49.384814152716082 ], [ 6.415311875853021, 49.389073089656613 ], [ 6.447673270738396, 49.426036102769935 ], [ 6.458950393828477, 49.456164065727712 ], [ 6.460376489104953, 49.470067465757353 ], [ 6.429453555704265, 49.475997102558068 ], [ 6.424197547112863, 49.49642658750961 ], [ 6.422919498686768, 49.499999999800124 ], [ 6.419552140488066, 49.509511074264253 ], [ 6.42141117612077, 49.512329345993393 ], [ 6.450525461291347, 49.510073496439652 ], [ 6.446817613752183, 49.522962654146959 ], [ 6.463639283404603, 49.534148240645813 ], [ 6.464610823062467, 49.534794314290735 ], [ 6.500000000392768, 49.530557440500068 ], [ 6.580673117346539, 49.520897689178277 ], [ 6.583305908764388, 49.502265106731024 ], [ 6.570317470803538, 49.500668114810289 ], [ 6.570248223271555, 49.499999999800124 ], [ 6.568847465875974, 49.486621500535577 ], [ 6.595570328860708, 49.481935914048641 ], [ 6.648643015035455, 49.447236514271708 ], [ 6.650420149467046, 49.43212127370041 ], [ 6.660775796010047, 49.423741259146453 ], [ 6.683000943487523, 49.418860725966091 ], [ 6.718719146756948, 49.428345361865809 ], [ 6.749149827636453, 49.460866703623267 ], [ 6.821573532079835, 49.454073858768687 ], [ 6.824034331155082, 49.445514058786848 ], [ 6.835527326594451, 49.44696067787109 ], [ 6.842284824267496, 49.453856123770564 ], [ 6.888117334492275, 49.459502404630811 ], [ 6.892834419490204, 49.46376933992925 ], [ 6.908316341727879, 49.465335161214391 ], [ 6.910108174394195, 49.45245965028181 ], [ 6.90970622411863, 49.450996446363888 ], [ 6.89801224231253, 49.438771975579925 ], [ 6.827255972733232, 49.397357329824217 ], [ 6.793819521726541, 49.383142454624547 ], [ 6.795552776151486, 49.367018537174204 ], [ 6.814618573927569, 49.349987418194061 ], [ 6.832916474730776, 49.349245535305208 ], [ 6.835615085709494, 49.335569599714219 ], [ 6.816702867507646, 49.332528367119409 ], [ 6.796781412745369, 49.32792978098653 ], [ 6.772318392113518, 49.323840168368868 ], [ 6.762313784725714, 49.315689032697755 ], [ 6.766701770122691, 49.301916354056019 ], [ 6.780611685528922, 49.294271282968118 ], [ 6.781226002927534, 49.282226056771812 ], [ 6.773678667829135, 49.273048142789158 ], [ 6.758956975443366, 49.276442714007764 ], [ 6.756741042741535, 49.287236764275207 ], [ 6.742480089078451, 49.288664139600876 ], [ 6.716130235345782, 49.278365715101543 ], [ 6.721922376465052, 49.254701736129526 ], [ 6.72126417905972, 49.236960841125352 ], [ 6.714791900082671, 49.224055670871245 ], [ 6.709911387280041, 49.226794705713957 ], [ 6.705972048383707, 49.225805723348493 ], [ 6.686577151904973, 49.217171527215939 ], [ 6.683789757731788, 49.217520912422962 ], [ 6.676933773262561, 49.217870295146149 ], [ 6.670030561663902, 49.217444479453768 ], [ 6.663547236103777, 49.215963197428295 ], [ 6.649378003126166, 49.21138233919234 ], [ 6.63482086054089, 49.207470832464715 ], [ 6.625447011518009, 49.205669622865408 ], [ 6.60895368508507, 49.203152312977082 ], [ 6.587935233748969, 49.212868447962443 ], [ 6.57176550563419, 49.208550402625775 ], [ 6.558820948578363, 49.195593991838379 ], [ 6.576614230652204, 49.186969082880537 ], [ 6.597632681988305, 49.174021584583755 ], [ 6.625123412301527, 49.169700128191806 ], [ 6.662311590854074, 49.170780527563856 ], [ 6.689802321167251, 49.168619704518086 ], [ 6.717293051480472, 49.177247830164724 ], [ 6.73670988841168, 49.18804910377925 ], [ 6.736336932160244, 49.191580898333058 ], [ 6.747394633657325, 49.191887363822602 ], [ 6.76174334643546, 49.198877189612979 ], [ 6.776903837091423, 49.202364434403158 ], [ 6.78370521477115, 49.19426605884528 ], [ 6.814157836103163, 49.198293525648779 ], [ 6.843732859098155, 49.197286690162322 ], [ 6.845553873536467, 49.205603411334891 ], [ 6.867406042304616, 49.214035421780586 ], [ 6.858213211896306, 49.22796403517993 ], [ 6.855364818522086, 49.23530383925614 ], [ 6.853035389073971, 49.241305547823956 ], [ 6.85080397750149, 49.243231329663402 ], [ 6.841319467713695, 49.251946997191972 ], [ 6.869676712051654, 49.256785759762607 ], [ 6.882478772947239, 49.239424832648915 ], [ 6.92846486364455, 49.237806485477627 ], [ 6.93907061104411, 49.237998365812032 ], [ 6.949417494521487, 49.238185562661201 ], [ 6.964512165616618, 49.237208704041372 ], [ 6.982919765987369, 49.234977893938016 ], [ 6.987505210965274, 49.230997178467938 ], [ 6.991351017274216, 49.231123091798239 ], [ 7.000000000422981, 49.231406261628173 ], [ 7.005320432593299, 49.231580453602113 ], [ 7.010115684495685, 49.230772907325886 ], [ 7.021775379404003, 49.22796403517993 ], [ 7.024232650795112, 49.216179664764844 ], [ 7.024693389517823, 49.215158608148059 ], [ 7.046517442814245, 49.166785499821358 ], [ 7.049661027980735, 49.156558233444784 ], [ 7.03489545648658, 49.1483062517894 ], [ 7.02056868326263, 49.15749288429344 ], [ 7.012582548995738, 49.191216054825617 ], [ 7.009905877571195, 49.211949436226568 ], [ 7.000000000422981, 49.212959637327884 ], [ 6.988163408370569, 49.214166704483596 ], [ 6.984872419547424, 49.190471766762435 ], [ 6.987592970080317, 49.157799562701307 ], [ 6.982546787278033, 49.127370689496502 ], [ 6.989326224505261, 49.110270857667629 ], [ 7.000000000422981, 49.108188381582657 ], [ 7.008282322713802, 49.106572422406558 ], [ 7.02851093662454, 49.106630897725012 ], [ 7.044549024719268, 49.110329328602297 ], [ 7.059972794517008, 49.123863515213188 ], [ 7.066664472629194, 49.127034596395546 ], [ 7.071162157593723, 49.142083489555645 ], [ 7.074343447747652, 49.150088212498886 ], [ 7.083338818575036, 49.150161242290807 ], [ 7.085949669540377, 49.142302614206265 ], [ 7.095603238671354, 49.140827155965049 ], [ 7.101219859763927, 49.133960580380823 ], [ 7.11897195857354, 49.132036665111677 ], [ 7.120768336715194, 49.131841975425417 ], [ 7.140163233193893, 49.135070985034702 ], [ 7.153458829404888, 49.128247444527624 ], [ 7.165750876289473, 49.131197061710473 ], [ 7.193586958523754, 49.112478092537586 ], [ 7.210261304469597, 49.120063794915112 ], [ 7.22605805297668, 49.117769206169683 ], [ 7.235163123371616, 49.112346538420404 ], [ 7.266800500392503, 49.121101439861349 ], [ 7.304273897641047, 49.109539963661661 ], [ 7.319479774778425, 49.121858915734421 ], [ 7.326718287946765, 49.121499190214806 ], [ 7.335604115513457, 49.121057595801737 ], [ 7.361383531854196, 49.125266414746839 ], [ 7.365376598987665, 49.14125080676056 ], [ 7.372395319558809, 49.141119367707688 ], [ 7.383903846869431, 49.140679453706952 ], [ 7.395300715386896, 49.139976797505589 ], [ 7.395914382405241, 49.141202635781639 ], [ 7.400859421194723, 49.151079542584831 ], [ 7.404335311151142, 49.158020881041267 ], [ 7.439778723368379, 49.15940861339682 ], [ 7.442217705060312, 49.154213505972429 ], [ 7.4467284120032, 49.144604115599869 ], [ 7.488949526800861, 49.15071478118773 ] ], [ [ 6.758496237618997, 48.950522161601889 ], [ 6.734910814425867, 48.96944966168828 ], [ 6.735437372709447, 48.979360492633035 ], [ 6.750159064196909, 48.981638397671233 ], [ 6.752067838648596, 48.968927220420717 ], [ 6.769839180269901, 48.958346597741382 ], [ 6.789958094613133, 48.981986603344069 ], [ 6.762862283461756, 48.989646506135323 ], [ 6.767886526709855, 48.997247208615164 ], [ 6.77954628270364, 49.000000000276607 ], [ 6.782630158649835, 49.000735445784407 ], [ 6.785449491524648, 49.000000000276607 ], [ 6.806105882275369, 48.994665421566282 ], [ 6.813997819201593, 49.000000000276607 ], [ 6.814881853069362, 49.000603593887753 ], [ 6.781862260778655, 49.020538565269632 ], [ 6.771001996404592, 49.020187099275553 ], [ 6.757596700626091, 49.016159711409287 ], [ 6.742216809936665, 49.023701643338882 ], [ 6.716196054906639, 49.038987003081075 ], [ 6.695440882712296, 49.038357527283303 ], [ 6.678744597212306, 49.02582489203045 ], [ 6.677340441490006, 49.012146642146973 ], [ 6.690120252912616, 49.000000000276607 ], [ 6.699148731149795, 48.991503273849609 ], [ 6.708473200679832, 48.98259595723583 ], [ 6.711764189502977, 48.965879536229892 ], [ 6.722690274336196, 48.962730065422846 ], [ 6.740220277268261, 48.944264628127677 ], [ 6.753142894769912, 48.943727401651095 ], [ 6.758496237618997, 48.950522161601889 ] ], [ [ 6.504124706647962, 49.089743232484068 ], [ 6.517047324149614, 49.073522710974807 ], [ 6.544494175354439, 49.085414380648203 ], [ 6.583240088305189, 49.096235797662075 ], [ 6.605860154944518, 49.11353051402326 ], [ 6.610708879064199, 49.124331153022894 ], [ 6.599387875967461, 49.134062855175081 ], [ 6.599468779140263, 49.134970632154193 ], [ 6.589712367282273, 49.148101760516916 ], [ 6.583272858846771, 49.150789815287695 ], [ 6.580092611636879, 49.147824495713856 ], [ 6.579936781782876, 49.146126570910106 ], [ 6.58001491904291, 49.144858997050939 ], [ 6.563867131380666, 49.131900420787289 ], [ 6.542870620497045, 49.112448858057519 ], [ 6.525121218429879, 49.099481760293344 ], [ 6.518648939452804, 49.092989621530236 ], [ 6.504124706647962, 49.089743232484068 ] ], [ [ 6.507262115896874, 49.030920318674028 ], [ 6.500000000392768, 49.030855024539733 ], [ 6.49260624397027, 49.030788546576872 ], [ 6.490631650856049, 49.020728941148391 ], [ 6.489095855113689, 49.00624361754759 ], [ 6.473540446194215, 49.003020825635566 ], [ 6.471943735692447, 49.000000000276607 ], [ 6.470249457371033, 48.996826589947261 ], [ 6.480648983022384, 48.992402621023814 ], [ 6.49365936053741, 48.993650074982781 ], [ 6.494756357111243, 48.98294415558842 ], [ 6.485651286716308, 48.979302455547142 ], [ 6.470622436080368, 48.981333715478584 ], [ 6.462373022671684, 48.975123600819025 ], [ 6.448375348150384, 48.969493198606344 ], [ 6.441288751774687, 48.959319122611276 ], [ 6.456449241532353, 48.955109550649517 ], [ 6.487318721580385, 48.966489088174697 ], [ 6.500000000392768, 48.964621740121267 ], [ 6.506538098930711, 48.963658962324295 ], [ 6.512396059610849, 48.972018251959263 ], [ 6.530211281238847, 48.990081692645269 ], [ 6.549277079014928, 48.990545887020652 ], [ 6.562024177388169, 48.994868488385308 ], [ 6.559401333015443, 49.000000000276607 ], [ 6.556605015876532, 49.005525831711417 ], [ 6.536025362810626, 49.000574293155893 ], [ 6.516345246737633, 49.002508089493048 ], [ 6.509609688618765, 49.015193089575561 ], [ 6.507262115896874, 49.030920318674028 ] ], [ [ 7.032372364636281, 48.821713769303287 ], [ 7.035531714337702, 48.84476416592657 ], [ 7.000000000422981, 48.84644710485113 ], [ 6.991300818517815, 48.846859127762222 ], [ 6.975504070010695, 48.848954000854491 ], [ 6.953388622100771, 48.84476416592657 ], [ 6.95022927239935, 48.828001298892445 ], [ 6.95970732150362, 48.813329162047559 ], [ 6.997619517920656, 48.813329162047559 ], [ 7.000000000422981, 48.813903531430398 ], [ 7.032372364636281, 48.821713769303287 ] ], [ [ 6.830985760724914, 48.923003445642649 ], [ 6.818128962784122, 48.912020744439815 ], [ 6.838116238005619, 48.901137339435991 ], [ 6.85794993275452, 48.905642108682557 ], [ 6.890947585491017, 48.913546264714221 ], [ 6.894194695205813, 48.926474984709188 ], [ 6.863522674738698, 48.932023133161152 ], [ 6.830985760724914, 48.923003445642649 ] ], [ [ 6.762511244306639, 49.062710947011858 ], [ 6.736666008404995, 49.060545383277045 ], [ 6.731817284285315, 49.048633089183774 ], [ 6.747965071947587, 49.041065681798962 ], [ 6.75233645917306, 49.043825945581446 ], [ 6.762268811469329, 49.046586055277992 ], [ 6.764112858711525, 49.046466909119822 ], [ 6.772798958451197, 49.045017998802528 ], [ 6.775611006887354, 49.044475981223677 ], [ 6.786732925350845, 49.042148901724275 ], [ 6.801257158155723, 49.048633089183774 ], [ 6.801257158155723, 49.061628177007883 ], [ 6.762511244306639, 49.062710947011858 ] ], [ [ 6.7412733938354, 48.879814070399853 ], [ 6.765758354021399, 48.880017607701589 ], [ 6.765604774447166, 48.897780294259846 ], [ 6.753055134756545, 48.921274847699742 ], [ 6.738333443269082, 48.919633351000229 ], [ 6.728723754144789, 48.896138021048053 ], [ 6.7412733938354, 48.879814070399853 ] ], [ [ 6.548575001602949, 49.26845854137666 ], [ 6.523782882268446, 49.261872077675008 ], [ 6.532953772224247, 49.251495146904965 ], [ 6.556868295018308, 49.242165695541793 ], [ 6.57832554462465, 49.247049301311925 ], [ 6.588242391999113, 49.261872077675008 ], [ 6.56854033637191, 49.26783199085483 ], [ 6.548575001602949, 49.26845854137666 ] ], [ [ 6.682649904332399, 48.951669048638379 ], [ 6.671745759951652, 48.946515107963748 ], [ 6.656168410579642, 48.936205620209137 ], [ 6.662399350867441, 48.92589399048309 ], [ 6.679534434637661, 48.92589399048309 ], [ 6.685765374027136, 48.93826768899573 ], [ 6.698227253704381, 48.947545939171988 ], [ 6.690368507731283, 48.949381365235951 ], [ 6.688806073347497, 48.949772460727765 ], [ 6.682649904332399, 48.951669048638379 ] ], [ [ 6.673303495248188, 48.998030421266478 ], [ 6.672026591275756, 49.000000000276607 ], [ 6.668630290256915, 49.005291451036229 ], [ 6.653052940884906, 49.004251370596876 ], [ 6.649869457045062, 49.000000000276607 ], [ 6.646822001495432, 48.995970836167423 ], [ 6.660841615570906, 48.992881299103914 ], [ 6.673303495248188, 48.998030421266478 ] ] ], [ [ [ 6.717490511061389, 48.513267436656271 ], [ 6.71777572975735, 48.501388718289348 ], [ 6.71611476276331, 48.500000000192749 ], [ 6.695594462286531, 48.483009469009879 ], [ 6.700267667277803, 48.469601012970863 ], [ 6.718324228493437, 48.450860933498276 ], [ 6.741053993801975, 48.437618201100641 ], [ 6.741734131659779, 48.426928551341859 ], [ 6.721286118613931, 48.421931526323213 ], [ 6.706718005802379, 48.431649124347089 ], [ 6.68234274518393, 48.42672519381334 ], [ 6.658625682869084, 48.457190661978785 ], [ 6.648533315467868, 48.496153260424954 ], [ 6.65043118527033, 48.500000000192749 ], [ 6.658537922855709, 48.516591804523976 ], [ 6.667379714108858, 48.517792623373659 ], [ 6.675541367504194, 48.510777678444107 ], [ 6.690284999444137, 48.512989176186416 ], [ 6.685019416608465, 48.523049530291459 ], [ 6.704260734411262, 48.522683468538688 ], [ 6.717490511061389, 48.513267436656271 ] ] ], [ [ [ 5.829866824536474, 48.708081580759071 ], [ 5.851850633324672, 48.709292415698521 ], [ 5.845597753482726, 48.691243562592014 ], [ 5.855733999992292, 48.672823229832815 ], [ 5.845290594334258, 48.655608254400121 ], [ 5.828045810996486, 48.651080857919695 ], [ 5.801915355500586, 48.654264682701495 ], [ 5.787610522729142, 48.664822433244289 ], [ 5.800116281514773, 48.683085154294076 ], [ 5.829866824536474, 48.708081580759071 ] ] ] ] } }
]
}
