{
"type": "FeatureCollection",
"name": "Lucca",
"crs": { "type": "name", "properties": { "name": "urn:ogc:def:crs:OGC:1.3:CRS84" } },
"features": [
{ "type": "Feature", "properties": { "OBJECTID": 42.0, "YEAR": 1700.0, "OWNER_ID": 4974.0, "SHORT_NAME": "Lucca", "LONG_NAME": "Lordship of Lucca", "VARIANTS": null, "SHAPE_LENG": 267520.0, "Shape__Are": 2459333783.253418, "Shape__Len": 268029.07393527526 }, "geometry": { "type": "MultiPolygon", "coordinates": [ [ [ [ 10.606340339739884, 44.152974554226077 ], [ 10.603211932508424, 44.132874110649965 ], [ 10.598567717948008, 44.109415150951364 ], [ 10.62482695232978, 44.086707165525652 ], [ 10.703406888670349, 44.072690098018427 ], [ 10.712745946840592, 44.040375059143756 ], [ 10.719667837108943, 44.006520662828713 ], [ 10.713903406321243, 44.000000000164377 ], [ 10.698616501145221, 43.982850296860043 ], [ 10.711295646458785, 43.949988310303027 ], [ 10.729929814520622, 43.913024826475358 ], [ 10.744931854038583, 43.888828635311128 ], [ 10.756408791193934, 43.870311257068991 ], [ 10.722326721890852, 43.828049819187378 ], [ 10.69802544562088, 43.823946089025668 ], [ 10.697803126062789, 43.824865063754402 ], [ 10.661084473553045, 43.820096277989336 ], [ 10.567210456293962, 43.819725945481359 ], [ 10.529722376980432, 43.780473687775498 ], [ 10.49999999973614, 43.774205384918524 ], [ 10.499925287752276, 43.774189627266523 ], [ 10.476808371014139, 43.778008482072842 ], [ 10.442660378843934, 43.811094931682774 ], [ 10.35533469013725, 43.804588635544029 ], [ 10.317934508279324, 43.802366024065826 ], [ 10.287917675861314, 43.798017196148088 ], [ 10.234814951820134, 43.79114186862833 ], [ 10.226279890320756, 43.823364765708057 ], [ 10.184858419856406, 43.907783782690288 ], [ 10.182934487232624, 43.910810812614095 ], [ 10.194093519592078, 43.921018088525621 ], [ 10.215563832499262, 43.940308323194095 ], [ 10.218967511381548, 43.943365816671673 ], [ 10.220165245031332, 43.94444169233126 ], [ 10.235069592762146, 43.957828022452745 ], [ 10.253857580248397, 43.976073809933268 ], [ 10.262653996698223, 44.000000000164377 ], [ 10.265108398870321, 44.006731099262524 ], [ 10.245924874181318, 44.006617787479961 ], [ 10.233598532314124, 44.000000000164377 ], [ 10.228587187076872, 43.997332025320461 ], [ 10.220627452499524, 43.99080006620175 ], [ 10.218967511381548, 43.989437785628802 ], [ 10.200416192243418, 43.974210942220154 ], [ 10.158987467883152, 43.948475004411435 ], [ 10.151853089219175, 43.959691406946767 ], [ 10.142954334895554, 43.96687956528352 ], [ 10.184151381049103, 44.000000000164377 ], [ 10.194593015229396, 44.008463124130735 ], [ 10.218967511381548, 44.041222489264541 ], [ 10.227246757840836, 44.052345662630444 ], [ 10.237398479627801, 44.073541250860892 ], [ 10.266207112124652, 44.074112974763686 ], [ 10.315517339479122, 44.080515493499703 ], [ 10.314967983750272, 44.061289671646264 ], [ 10.335404040219705, 44.035019851944924 ], [ 10.35588193123192, 44.020118212115825 ], [ 10.363311344482973, 44.014710939023942 ], [ 10.400026388460223, 44.000000000164377 ], [ 10.405084402973113, 43.997990200957602 ], [ 10.407083547044058, 44.000000000164377 ], [ 10.444747933308511, 44.038174791388556 ], [ 10.467535235711022, 44.068275727312468 ], [ 10.479401333827237, 44.133148132072314 ], [ 10.482389832046454, 44.164169083002903 ], [ 10.49999999973614, 44.17799046177214 ], [ 10.505836362221903, 44.182570423226949 ], [ 10.539786585790734, 44.167849813818563 ], [ 10.577648227718536, 44.153351563313485 ], [ 10.606340339739884, 44.152974554226077 ] ] ] ] } }
]
}
