{
"type": "FeatureCollection",
"name": "Mahlhausen",
"crs": { "type": "name", "properties": { "name": "urn:ogc:def:crs:OGC:1.3:CRS84" } },
"features": [
{ "type": "Feature", "properties": { "OBJECTID": 10.0, "YEAR": 1700.0, "OWNER_ID": 9635.0, "SHORT_NAME": "MÃ?Â¼hlhausen", "LONG_NAME": "Imperial City of MÃ?Â¼hlhausen", "VARIANTS": null, "SHAPE_LENG": 73158.67, "Shape__Are": 381638736.06103516, "Shape__Len": 73256.72559339249 }, "geometry": { "type": "MultiPolygon", "coordinates": [ [ [ [ 10.577394595584584, 51.2555854151856 ], [ 10.575406852931227, 51.255005889484792 ], [ 10.571407538913283, 51.235961025408997 ], [ 10.538907615726259, 51.22964182422281 ], [ 10.503770782345807, 51.230276427652981 ], [ 10.49999999973614, 51.227438619716892 ], [ 10.483620390136721, 51.215109640912765 ], [ 10.46507411953049, 51.212583559381351 ], [ 10.443289440291313, 51.217796042373877 ], [ 10.424817284289281, 51.227777625239405 ], [ 10.376122334632475, 51.265575605126642 ], [ 10.364717696586135, 51.288424261705245 ], [ 10.398931611623466, 51.315827571396575 ], [ 10.410336249669806, 51.331805241164339 ], [ 10.444550164707135, 51.345495933436247 ], [ 10.47542399349946, 51.343741960474006 ], [ 10.49999999973614, 51.337455514892667 ], [ 10.516208210779352, 51.333309044123034 ], [ 10.540072250949398, 51.319970956465959 ], [ 10.554795002448898, 51.306694962594179 ], [ 10.566199640495235, 51.281570864202322 ], [ 10.576615437331327, 51.256551862953842 ], [ 10.577394595584584, 51.2555854151856 ] ] ] ] } }
]
}
