{
"type": "FeatureCollection",
"name": "Mainz",
"crs": { "type": "name", "properties": { "name": "urn:ogc:def:crs:OGC:1.3:CRS84" } },
"features": [
{ "type": "Feature", "properties": { "OBJECTID": 114.0, "YEAR": 1700.0, "OWNER_ID": 15204.0, "SHORT_NAME": "Mainz", "LONG_NAME": "Electorate of Mainz", "VARIANTS": "Archbishopric of Mainz", "SHAPE_LENG": 907455.3, "Shape__Are": 7383203254.3564453, "Shape__Len": 908635.26554859395 }, "geometry": { "type": "MultiPolygon", "coordinates": [ [ [ [ 9.208814138430665, 49.42031882312056 ], [ 9.199864993111181, 49.401355371314196 ], [ 9.181958796399398, 49.419035039316825 ], [ 9.133135196315804, 49.430171796658961 ], [ 9.133737814954481, 49.434559417510059 ], [ 9.135219465641388, 49.44534553679712 ], [ 9.119356768216019, 49.470531276548442 ], [ 9.103431160872985, 49.483695690464195 ], [ 9.104871036305919, 49.487503761152141 ], [ 9.109596803521086, 49.499999999800124 ], [ 9.111393964993658, 49.504800426195779 ], [ 9.131300974846186, 49.518091436079651 ], [ 9.107412562484164, 49.526064298554502 ], [ 9.107412562484164, 49.542006101548552 ], [ 9.119356768216019, 49.557942676271999 ], [ 9.131300974846186, 49.573874022644375 ], [ 9.123338170725512, 49.595107685302217 ], [ 9.103431160872985, 49.595107685302217 ], [ 9.09546835675231, 49.616332055216191 ], [ 9.119356768216019, 49.624288798248841 ], [ 9.111393964993658, 49.64284945181916 ], [ 9.099449758363491, 49.650801839905547 ], [ 9.099449758363491, 49.677300366617274 ], [ 9.115375366604837, 49.698488738593902 ], [ 9.125124027798549, 49.705692286786189 ], [ 9.124270363275626, 49.706584337229494 ], [ 9.1425976722263, 49.716204817183289 ], [ 9.133748399803473, 49.738892408087025 ], [ 9.109728944801065, 49.737212211271128 ], [ 9.0924071138597, 49.73986857679985 ], [ 9.034223025396447, 49.800588274638862 ], [ 9.042069812996493, 49.798846018663006 ], [ 9.041325979195152, 49.802073062752115 ], [ 9.036716470147425, 49.822066111996982 ], [ 9.035773053147835, 49.829532011888425 ], [ 9.034017859168708, 49.843500173970625 ], [ 9.023311174368887, 49.854206350145539 ], [ 9.020206450321581, 49.854664774463259 ], [ 9.043598106009581, 49.876510682682245 ], [ 9.042492318522388, 49.926310352844609 ], [ 9.023693937528298, 49.957043152654435 ], [ 8.999999999645505, 49.972508395595256 ], [ 8.957861845162638, 50.000000000210534 ], [ 8.939654114552713, 50.01087853767519 ], [ 8.882153183184908, 50.024264768165317 ], [ 8.839027484659082, 50.040323294854097 ], [ 8.764590613443181, 50.029190744859378 ], [ 8.756322879792563, 50.038640077177647 ], [ 8.755758027226756, 50.039285588447378 ], [ 8.754493845195386, 50.049227434353426 ], [ 8.762840899187283, 50.052440302084591 ], [ 8.768399844845302, 50.054579878001157 ], [ 8.787362572620658, 50.057638148205911 ], [ 8.808853664458669, 50.065282965033113 ], [ 8.82402384703825, 50.067576171841573 ], [ 8.832873119461057, 50.073690849665581 ], [ 8.829080574265321, 50.079040549315927 ], [ 8.846779120009307, 50.088974114229551 ], [ 8.891025484818377, 50.089738149225774 ], [ 8.936536031658814, 50.088210067563296 ], [ 8.947913668144334, 50.095086048372401 ], [ 8.96561221388831, 50.095849985387275 ], [ 8.998760980323578, 50.097231442287175 ], [ 8.999999999645505, 50.096445163472133 ], [ 9.092077118638393, 50.037976913576628 ], [ 9.277733335287641, 50.031369037399841 ], [ 9.379777336918005, 50.020471190951071 ], [ 9.395148154623032, 50.000000000210534 ], [ 9.409790278732521, 49.978705104089315 ], [ 9.397785101647386, 49.954885017948733 ], [ 9.499999999675717, 49.951944923928615 ], [ 9.535844633634833, 49.950913851414384 ], [ 9.541017432179782, 49.951635503825194 ], [ 9.550198649168081, 49.918649757776798 ], [ 9.558068262959495, 49.88129639593771 ], [ 9.55295186693629, 49.879177635250464 ], [ 9.499999999675717, 49.867481021319271 ], [ 9.481821338548366, 49.863464854022467 ], [ 9.415792866376771, 49.863464854022467 ], [ 9.386224967021999, 49.845263345855422 ], [ 9.394073505438534, 49.817500327055889 ], [ 9.425924721022913, 49.793721505942102 ], [ 9.417961916902239, 49.775218746555986 ], [ 9.390092102929039, 49.756708880380664 ], [ 9.366942242274487, 49.756708880380664 ], [ 9.337931896673847, 49.715827640090389 ], [ 9.345588681608149, 49.713282284620291 ], [ 9.384936752361853, 49.711538136122734 ], [ 9.417726810724394, 49.702816449996945 ], [ 9.470190905362106, 49.704560913431145 ], [ 9.499999999675717, 49.712489484629792 ], [ 9.516096987608655, 49.716770392660209 ], [ 9.55413345606379, 49.709793925221796 ], [ 9.588290038823056, 49.709707607109067 ], [ 9.590408143193818, 49.709908805696053 ], [ 9.607533309563291, 49.682400347063364 ], [ 9.612346362481356, 49.677742450450829 ], [ 9.620399792241153, 49.66836415773205 ], [ 9.627096354493528, 49.658500292925638 ], [ 9.641923210852987, 49.636653556325456 ], [ 9.660103671305851, 49.617762959363567 ], [ 9.640739943672539, 49.591956081833537 ], [ 9.672465673594882, 49.576093423677179 ], [ 9.702169485357196, 49.551330208589242 ], [ 9.686061302619187, 49.531625427776994 ], [ 9.652637092056548, 49.539060383618626 ], [ 9.601082780595876, 49.560225578857363 ], [ 9.561425617519211, 49.554935144767242 ], [ 9.537631319852878, 49.560225578857363 ], [ 9.529699887596871, 49.584025401056969 ], [ 9.533665603724874, 49.615740345171332 ], [ 9.513837023084855, 49.621024152923425 ], [ 9.499999999675717, 49.593363686823963 ], [ 9.497974157674527, 49.589312666027155 ], [ 9.499999999675717, 49.577157572359063 ], [ 9.501939873802531, 49.565515437180345 ], [ 9.499999999675717, 49.563359179232556 ], [ 9.478145576136196, 49.539060383618626 ], [ 9.470343763589165, 49.499999999800124 ], [ 9.470214143880192, 49.499357420007804 ], [ 9.442454130085851, 49.486249095486386 ], [ 9.442454130085851, 49.483001146848018 ], [ 9.421795454919337, 49.472267235973248 ], [ 9.340899795625285, 49.457998145707492 ], [ 9.334420123513421, 49.403312589014568 ], [ 9.308458568358926, 49.396761954801661 ], [ 9.299447114094704, 49.400815947227954 ], [ 9.296844773768356, 49.400454774456904 ], [ 9.292250356417401, 49.41870964220989 ], [ 9.271928330293502, 49.419830877497709 ], [ 9.271928330293502, 49.441654381563573 ], [ 9.260031181909492, 49.465268432362869 ], [ 9.232271168115155, 49.473137239887755 ], [ 9.227665181361655, 49.462474492158293 ], [ 9.216408302704826, 49.43640526081699 ], [ 9.208814138430665, 49.42031882312056 ] ] ], [ [ [ 8.109218209382485, 49.916038680731106 ], [ 8.11214594465757, 49.929605621558693 ], [ 8.121645933316024, 49.949583705284468 ], [ 8.135424208702196, 49.953154490520731 ], [ 8.135950766985765, 49.965983896433031 ], [ 8.129959255568968, 49.969062218593258 ], [ 8.109995831516606, 49.979317609605303 ], [ 8.090184076321853, 49.989036256001647 ], [ 8.065369756921777, 50.000000000210534 ], [ 8.056967024450255, 50.003400761517582 ], [ 8.05039146706328, 50.000000000210534 ], [ 8.03063911027176, 49.98884770446756 ], [ 8.001349305972736, 49.976169505555532 ], [ 8.018374690175406, 49.959061669156242 ], [ 8.027084841408497, 49.940655576551571 ], [ 8.008918580625346, 49.933221459018512 ], [ 7.999999999585081, 49.933167650792853 ], [ 7.984850479155341, 49.933076250078841 ], [ 7.990219413164479, 49.921902261729691 ], [ 7.912273838331474, 49.940067928543698 ], [ 7.912273838331474, 49.946284493399808 ], [ 7.912273838331474, 49.94862592004305 ], [ 7.895665577847843, 49.955836647614277 ], [ 7.870360581571564, 49.966821107598484 ], [ 7.862501845479935, 49.987607142218486 ], [ 7.843753493460647, 50.000000000210534 ], [ 7.834996270506678, 50.005302232242578 ], [ 7.790463435648422, 50.022744908727951 ], [ 7.817969010621705, 50.049689251364903 ], [ 7.812729853526717, 50.077410194375361 ], [ 7.819278799221715, 50.078993761551857 ], [ 7.840235427601667, 50.069491568406889 ], [ 7.852023531289949, 50.070283490348061 ], [ 7.862501845479935, 50.086910809691915 ], [ 7.865121424476577, 50.101158182798187 ], [ 7.868087414508028, 50.100947345450919 ], [ 7.887387842354871, 50.099575351886649 ], [ 7.918822784924771, 50.103532330855558 ], [ 7.932175689159324, 50.102187694083732 ], [ 7.945073389191625, 50.09721139821049 ], [ 7.989545623700788, 50.067332510824819 ], [ 7.999999999585081, 50.067730010329505 ], [ 8.002098561106816, 50.067809801945771 ], [ 8.018155291040305, 50.068420308597801 ], [ 8.082439354406093, 50.080662900812186 ], [ 8.099640184973605, 50.067558032076022 ], [ 8.142839904678869, 50.0668151347517 ], [ 8.179457644941163, 50.061150163694606 ], [ 8.20465143697178, 50.038341203065833 ], [ 8.226922377867531, 50.040091081230173 ], [ 8.271753492027646, 50.030640977106849 ], [ 8.30214156042334, 50.045141707845403 ], [ 8.328451699637334, 50.035576457673358 ], [ 8.344072928117669, 50.030571592509617 ], [ 8.35211340506941, 50.034011934452359 ], [ 8.37209021671446, 50.042558497016863 ], [ 8.396311897758663, 50.048968861705674 ], [ 8.421520875809188, 50.052512110204468 ], [ 8.44541345815075, 50.050999294743796 ], [ 8.458270256091531, 50.058443476486552 ], [ 8.443219465003093, 50.069030525853535 ], [ 8.44552315771829, 50.087532318025737 ], [ 8.452434234965569, 50.097595868908996 ], [ 8.481197480980995, 50.096230320871044 ], [ 8.499999999615302, 50.107725819112574 ], [ 8.529267864360115, 50.125614109088751 ], [ 8.515401829858867, 50.142478069437495 ], [ 8.499999999615302, 50.135360961476017 ], [ 8.498288685642857, 50.134570106176007 ], [ 8.481504640129465, 50.134768814794505 ], [ 8.463448078913865, 50.145140253349382 ], [ 8.43457513333086, 50.159110966127976 ], [ 8.386241470809965, 50.148994196553986 ], [ 8.365157199912996, 50.172045112827973 ], [ 8.366539415182789, 50.18011889603715 ], [ 8.396026679062704, 50.186034387304474 ], [ 8.437405384329637, 50.18656370200663 ], [ 8.467112047344655, 50.178570424078195 ], [ 8.499999999615302, 50.184242120832344 ], [ 8.501031176628258, 50.184419941464256 ], [ 8.55267776842479, 50.180343883016697 ], [ 8.612793171866837, 50.171370029643761 ], [ 8.655773492436991, 50.151814926013508 ], [ 8.658821511230304, 50.152419120553787 ], [ 8.67922111226887, 50.133946628630923 ], [ 8.668711710081837, 50.124138732851101 ], [ 8.650559106385963, 50.128177523252532 ], [ 8.636228103893643, 50.124715723642112 ], [ 8.639094304571758, 50.116060124531344 ], [ 8.646737506080665, 50.105094105569698 ], [ 8.644753288416481, 50.098300382582906 ], [ 8.630410934812232, 50.096137515243328 ], [ 8.614153447582446, 50.069441754843133 ], [ 8.685414335891139, 50.039041057423738 ], [ 8.671460541376524, 50.024968707488419 ], [ 8.644035630624206, 50.033279860563432 ], [ 8.62692248640816, 50.029947606895441 ], [ 8.625035652409009, 50.028460629998989 ], [ 8.597983720366001, 50.04660655028183 ], [ 8.581989512277989, 50.054237192180395 ], [ 8.555859057680385, 50.049858016654632 ], [ 8.545986090312605, 50.037328700573916 ], [ 8.499999999615302, 50.023667218358213 ], [ 8.432117861041428, 50.003493747646154 ], [ 8.397023190088836, 50.005800543583426 ], [ 8.385291252665379, 50.005593194274695 ], [ 8.379242633549337, 50.00543313246186 ], [ 8.379343011299177, 50.00423977529352 ], [ 8.379699612822558, 50.000000000210534 ], [ 8.379764584373797, 49.999156779966718 ], [ 8.380038833741841, 49.994000416988492 ], [ 8.378803835279109, 49.987933942146711 ], [ 8.372033392882829, 49.984009641829367 ], [ 8.362787687636931, 49.981508103835921 ], [ 8.385458930399663, 49.968061211110559 ], [ 8.401094802317488, 49.952965797572396 ], [ 8.424131727672826, 49.956100913901373 ], [ 8.431459663636122, 49.945272280030103 ], [ 8.440498913571865, 49.901526407195071 ], [ 8.406813669655646, 49.889263319412954 ], [ 8.402770860109968, 49.892971421105294 ], [ 8.3951650446866, 49.899734533840224 ], [ 8.369896224465128, 49.897573951359597 ], [ 8.361665546319982, 49.893877027058345 ], [ 8.350742666675668, 49.888970422393569 ], [ 8.343151451570586, 49.867905613314988 ], [ 8.32448835416333, 49.870517012376496 ], [ 8.29530191630915, 49.875932533041869 ], [ 8.263732737587985, 49.856055418696627 ], [ 8.255840443132275, 49.835123254080976 ], [ 8.241634312752684, 49.814181974267143 ], [ 8.22294200123409, 49.803328857075677 ], [ 8.220660831079678, 49.807087158482133 ], [ 8.186412602195126, 49.824118258118752 ], [ 8.162607779866939, 49.827349120078424 ], [ 8.151812338822095, 49.826957644359879 ], [ 8.132720648006272, 49.880116140960496 ], [ 8.109218209382485, 49.916038680731106 ] ] ] ] } }
]
}
