{
"type": "FeatureCollection",
"name": "Malta",
"crs": { "type": "name", "properties": { "name": "urn:ogc:def:crs:OGC:1.3:CRS84" } },
"features": [
{ "type": "Feature", "properties": { "OBJECTID": 44.0, "YEAR": 1700.0, "OWNER_ID": 68.0, "SHORT_NAME": "Saint John", "LONG_NAME": "Order of Saint-John of Malta", "VARIANTS": "Sovereign Military Hospitaller Order of Saint John of Jerusalem, and of Malta, o", "SHAPE_LENG": 123409.2, "Shape__Are": 500763460.06103516, "Shape__Len": 123610.61814817261 }, "geometry": { "type": "MultiPolygon", "coordinates": [ [ [ [ 14.347221794842286, 35.98401408971484 ], [ 14.396202409657761, 35.989388160813625 ], [ 14.441403451848515, 35.971912410533555 ], [ 14.463553501066571, 35.950131608321975 ], [ 14.49999999997784, 35.934119102871762 ], [ 14.537343048983695, 35.917709309683474 ], [ 14.561338934887992, 35.884440403224573 ], [ 14.547341334926873, 35.845652269128173 ], [ 14.515368793778533, 35.831479581599403 ], [ 14.49999999997784, 35.830237049402598 ], [ 14.454566030023805, 35.826563702005132 ], [ 14.394202751750473, 35.839104665846108 ], [ 14.355440166068032, 35.869146205852424 ], [ 14.337377328323525, 35.904313199451146 ], [ 14.339904368269497, 35.943020321020377 ], [ 14.360757935631851, 35.960693279324168 ], [ 14.347221794842286, 35.98401408971484 ] ] ], [ [ [ 14.250447175921275, 36.088526860132525 ], [ 14.308437234571366, 36.071152988063986 ], [ 14.368229182527365, 36.042617981160973 ], [ 14.371195707056419, 36.021711254737042 ], [ 14.324302646705526, 36.015467793987547 ], [ 14.253853185931726, 36.026245298577038 ], [ 14.223572662045214, 36.043716344873189 ], [ 14.210178694920724, 36.054687802078 ], [ 14.200585613849388, 36.065507475883983 ], [ 14.196784507708992, 36.075332481173419 ], [ 14.198587934032355, 36.080441608206641 ], [ 14.204810823618567, 36.086002748534433 ], [ 14.215756859135949, 36.088811745513851 ], [ 14.226424480695638, 36.090122726899502 ], [ 14.230447747392319, 36.090202005791355 ], [ 14.250447175921275, 36.088526860132525 ] ] ] ] } }
]
}
