{
"type": "FeatureCollection",
"name": "Mantua",
"crs": { "type": "name", "properties": { "name": "urn:ogc:def:crs:OGC:1.3:CRS84" } },
"features": [
{ "type": "Feature", "properties": { "OBJECTID": 3.0, "YEAR": 1700.0, "OWNER_ID": 2310.0, "SHORT_NAME": "Mantua", "LONG_NAME": "Duchy of Mantua", "VARIANTS": null, "SHAPE_LENG": 928482.4, "Shape__Are": 9526091308.1469727, "Shape__Len": 929766.63226668781 }, "geometry": { "type": "MultiPolygon", "coordinates": [ [ [ [ 10.497543746136241, 44.961427754113117 ], [ 10.49999999973614, 44.96219390678818 ], [ 10.516823489375327, 44.967441199893955 ], [ 10.520668983968855, 44.979484345179522 ], [ 10.54453910753001, 45.000000000297035 ], [ 10.572088741274698, 45.021591000508757 ], [ 10.576000157837038, 45.0430128812093 ], [ 10.549960665746806, 45.050809963526014 ], [ 10.541845793916522, 45.057402709423251 ], [ 10.537112758432389, 45.06899202388545 ], [ 10.532319295075727, 45.080959383727993 ], [ 10.531410659047308, 45.083743091071788 ], [ 10.525779097174965, 45.096938003702924 ], [ 10.519744307622725, 45.110170032000418 ], [ 10.508627092738061, 45.117268426456818 ], [ 10.49999999973614, 45.120121189881232 ], [ 10.492058504552322, 45.122747117016409 ], [ 10.466282703032277, 45.123521395428192 ], [ 10.443671194642659, 45.120000533157473 ], [ 10.413983976560273, 45.123199998474334 ], [ 10.381198388214584, 45.132256865706857 ], [ 10.344281639218387, 45.144934047912933 ], [ 10.303827036274118, 45.166236421491654 ], [ 10.2632405875956, 45.179124916649641 ], [ 10.241134486656188, 45.183824180858672 ], [ 10.214018255900106, 45.198313552401679 ], [ 10.164861847970053, 45.21955208070392 ], [ 10.122781149732768, 45.237385691460275 ], [ 10.106014792945651, 45.250301698064767 ], [ 10.098763289239987, 45.25967342775386 ], [ 10.133812225164835, 45.267426154497848 ], [ 10.191956104137654, 45.26844617121408 ], [ 10.27319492526013, 45.261626282682627 ], [ 10.320351676181213, 45.264657445863605 ], [ 10.369815723858411, 45.273633396885351 ], [ 10.413610413946005, 45.29255689503983 ], [ 10.430332822454472, 45.324751563416584 ], [ 10.439737803491841, 45.333703388891166 ], [ 10.456570082247765, 45.336817999230782 ], [ 10.474259357378001, 45.337720330875527 ], [ 10.489267774036165, 45.336206734066032 ], [ 10.49999999973614, 45.337298609540383 ], [ 10.517878253452698, 45.339117460769607 ], [ 10.530601347044907, 45.346349963398204 ], [ 10.528140230864375, 45.356578656162576 ], [ 10.515527008417934, 45.362368755175702 ], [ 10.49999999973614, 45.364543133626157 ], [ 10.498387089914864, 45.364768998348509 ], [ 10.484850948226988, 45.367343690454398 ], [ 10.474237383687838, 45.372012746195402 ], [ 10.459624504232425, 45.395163204253159 ], [ 10.437694197305907, 45.411705860870015 ], [ 10.449780037713662, 45.443846881571744 ], [ 10.49999999973614, 45.423883480610044 ], [ 10.5102312134426, 45.419815505172579 ], [ 10.553190881744362, 45.410310535059423 ], [ 10.627595709155775, 45.414438273269496 ], [ 10.680795380280733, 45.371154600122651 ], [ 10.734412562298608, 45.33740015029494 ], [ 10.775504419325648, 45.327691995295567 ], [ 10.800467172750027, 45.340165285258621 ], [ 10.839471475312488, 45.325362953044007 ], [ 10.843580660476203, 45.293998840838 ], [ 10.881464276094167, 45.279694269535526 ], [ 10.914491581319878, 45.279344621348351 ], [ 10.936927295696597, 45.262515246286434 ], [ 10.941893477234624, 45.246992799994921 ], [ 10.942486782140435, 45.2094443539061 ], [ 10.948419831198542, 45.196402277300727 ], [ 10.97489880877017, 45.190886936972248 ], [ 10.988896408731291, 45.188056103458649 ], [ 10.998652977794446, 45.18049679187439 ], [ 10.999509974168756, 45.167856767620322 ], [ 10.999999999766354, 45.167562677816534 ], [ 11.016803712994557, 45.157476991941422 ], [ 11.033306378313174, 45.147504190691478 ], [ 11.069014542909271, 45.140874153412966 ], [ 11.082374889685937, 45.146832459865173 ], [ 11.094460730093692, 45.154177254637233 ], [ 11.144825722423848, 45.143605122059142 ], [ 11.196860758325665, 45.122206576160487 ], [ 11.223032095251831, 45.101808359913655 ], [ 11.222526687801626, 45.086095562203852 ], [ 11.21358316593582, 45.066400917743756 ], [ 11.205189000697178, 45.042573989523959 ], [ 11.232612871200406, 45.038477501339429 ], [ 11.260410303419588, 45.041827865306608 ], [ 11.295129625907126, 45.042515470206617 ], [ 11.329365515532938, 45.03964795684653 ], [ 11.371468187460389, 45.01518042705797 ], [ 11.391359095011447, 45.000000000297035 ], [ 11.396518838340373, 44.995682374004701 ], [ 11.394233516172735, 44.983096792479643 ], [ 11.404429570717289, 44.967682087891177 ], [ 11.365842779047743, 44.972467515366603 ], [ 11.341605175365107, 44.969464626142639 ], [ 11.309193149633687, 44.956809001282288 ], [ 11.27627571555375, 44.965722836821037 ], [ 11.253532361429881, 44.952375655904859 ], [ 11.251928240725343, 44.952873621167662 ], [ 11.208946597835105, 44.966236745269406 ], [ 11.160405469399342, 44.97208212709203 ], [ 11.103536096795432, 44.974265961422248 ], [ 11.057653853141577, 44.971857315264081 ], [ 11.000894352581756, 44.958383077254268 ], [ 10.999999999766354, 44.958249724810209 ], [ 10.945848843872239, 44.950174917593571 ], [ 10.911678877113554, 44.945564337370243 ], [ 10.915414500561313, 44.933674709671536 ], [ 10.853117487247818, 44.918969918640414 ], [ 10.811981681942136, 44.901962277081118 ], [ 10.791589573751345, 44.883132222558736 ], [ 10.768604502747458, 44.854577820159896 ], [ 10.763418578917891, 44.830500611575602 ], [ 10.74146629830121, 44.81444887932593 ], [ 10.719601914241821, 44.810197716771533 ], [ 10.697803453049554, 44.816590443889432 ], [ 10.687915039150463, 44.828150288172708 ], [ 10.691430919408367, 44.868993543527573 ], [ 10.685607742394343, 44.921782603335679 ], [ 10.680070229640672, 44.947170853536875 ], [ 10.6610405252744, 44.972756555339878 ], [ 10.629749185589162, 44.956503818517071 ], [ 10.577186767648659, 44.945403683582995 ], [ 10.54009422553788, 44.948359646933802 ], [ 10.49999999973614, 44.960673470533074 ], [ 10.497543746136241, 44.961427754113117 ] ] ], [ [ [ 8.475317580746683, 44.802596368008182 ], [ 8.485673226391341, 44.776741016690856 ], [ 8.499999999615302, 44.766693838806304 ], [ 8.52257618624793, 44.750857884439903 ], [ 8.569001075215471, 44.722237477068525 ], [ 8.605706575491141, 44.741217222201023 ], [ 8.675870466327712, 44.701154066021921 ], [ 8.740176432416723, 44.672798627299372 ], [ 8.741624432213086, 44.655960823379445 ], [ 8.722975493153022, 44.635111556366965 ], [ 8.701957041816922, 44.637582855113784 ], [ 8.675453607611686, 44.639617962525961 ], [ 8.67508062890235, 44.62013612799192 ], [ 8.683110643175933, 44.596833285533535 ], [ 8.66814761210086, 44.575881784024965 ], [ 8.639888983916503, 44.572324447509125 ], [ 8.600726211351402, 44.581282049427045 ], [ 8.588856710416881, 44.561926065804577 ], [ 8.578939863042418, 44.525476534298605 ], [ 8.569593453059907, 44.507882590642915 ], [ 8.557857432793474, 44.500000000095532 ], [ 8.555661598099467, 44.498537712873166 ], [ 8.533677790209602, 44.497590657333419 ], [ 8.511803681887242, 44.498168523256474 ], [ 8.504102766316311, 44.477490170922543 ], [ 8.499999999615302, 44.468803670353282 ], [ 8.493681300212451, 44.455422984441711 ], [ 8.476326817307131, 44.455503301912159 ], [ 8.458138616071482, 44.474888799566763 ], [ 8.404473551154009, 44.476334020076195 ], [ 8.37951811271097, 44.483129478938388 ], [ 8.373745040130254, 44.482284510786378 ], [ 8.353027545973863, 44.47925212102669 ], [ 8.347078698244854, 44.474262525918526 ], [ 8.332400886764075, 44.463823638736002 ], [ 8.32944921048837, 44.458400214951602 ], [ 8.328656713151441, 44.45395178908538 ], [ 8.32117084078479, 44.425293942809709 ], [ 8.321145703228204, 44.414189139766457 ], [ 8.353836196816232, 44.402131625952094 ], [ 8.354516334674035, 44.372186020363898 ], [ 8.341725356294111, 44.351865049366765 ], [ 8.307082209146037, 44.339987753281811 ], [ 8.261798196759012, 44.331150631604672 ], [ 8.265220825602217, 44.31382662801078 ], [ 8.267085719148895, 44.294113505829252 ], [ 8.248480660095543, 44.266352449377983 ], [ 8.211489940225588, 44.247139159995051 ], [ 8.143388402516614, 44.21719445359448 ], [ 8.126836018141969, 44.214496168891365 ], [ 8.123401127295145, 44.213936215002363 ], [ 8.127723294029552, 44.223903917146721 ], [ 8.0974023127176, 44.255521573738271 ], [ 8.044241865631225, 44.28104828126596 ], [ 8.039546721085779, 44.306080681428234 ], [ 8.075462383936083, 44.311845953859503 ], [ 8.114230237339351, 44.316177584526564 ], [ 8.16506505215637, 44.328059737264688 ], [ 8.188694354457814, 44.337154869392066 ], [ 8.170264814532889, 44.392339084392013 ], [ 8.147118190508296, 44.436850489668885 ], [ 8.187180500066306, 44.47142012279626 ], [ 8.193066263604477, 44.475360480756599 ], [ 8.188635203091311, 44.493519231842541 ], [ 8.188635203091311, 44.500000000095532 ], [ 8.188635203091311, 44.505888625206865 ], [ 8.18065929434727, 44.523541466059044 ], [ 8.181102400039254, 44.539881888937977 ], [ 8.17623727537743, 44.548594260692404 ], [ 8.215614647379079, 44.554857979535299 ], [ 8.262763553312775, 44.572195085817796 ], [ 8.226211632611349, 44.69287667421186 ], [ 8.328012900468799, 44.734042099825182 ], [ 8.356929726058459, 44.756644728416688 ], [ 8.388047585790982, 44.767635835785363 ], [ 8.391221337283046, 44.768873732496374 ], [ 8.422727571950526, 44.781574678903759 ], [ 8.475317580746683, 44.802596368008182 ] ] ], [ [ [ 8.548401967335437, 45.144823423580114 ], [ 8.550230562656422, 45.141647728922067 ], [ 8.562745206678548, 45.131404577100732 ], [ 8.569848253902052, 45.118888913002266 ], [ 8.579454735142482, 45.103468162526219 ], [ 8.591203326432995, 45.09587440753009 ], [ 8.624256396239367, 45.074442376476711 ], [ 8.637217596382488, 45.050486951579849 ], [ 8.612837051873521, 45.041491374946666 ], [ 8.584819763276766, 45.04683109833303 ], [ 8.554235502822991, 45.046845727375391 ], [ 8.524901818517311, 45.040555042712484 ], [ 8.499999999615302, 45.02949672480316 ], [ 8.487603940397213, 45.023991121261872 ], [ 8.460398428779996, 45.0176393626978 ], [ 8.442655204427039, 45.000000000297035 ], [ 8.44172755016575, 44.998988837882457 ], [ 8.410616731428441, 44.986034747589486 ], [ 8.362524408495146, 44.963008681528883 ], [ 8.332222684367931, 44.94230324975463 ], [ 8.297077601758197, 44.94596597049582 ], [ 8.250279734081355, 44.953773160849074 ], [ 8.247304581233971, 44.953572269441132 ], [ 8.23936410833298, 44.953371377325183 ], [ 8.209442210772512, 44.956371995666274 ], [ 8.18656618176936, 44.96519286429762 ], [ 8.14189648767927, 44.986997978343993 ], [ 8.121147961221418, 45.000000000297035 ], [ 8.097248733143365, 45.01365817517101 ], [ 8.082527040757606, 45.044548976370542 ], [ 8.066510893115383, 45.067175966257849 ], [ 8.043605607780103, 45.082586994082078 ], [ 8.054443932599956, 45.133425388452935 ], [ 8.104796068241765, 45.170892966519133 ], [ 8.15034492822908, 45.184672020717187 ], [ 8.263948309899975, 45.171929324198047 ], [ 8.290946643961538, 45.178156600548441 ], [ 8.296595450792408, 45.177856282571661 ], [ 8.364411241595992, 45.151505203535073 ], [ 8.3939423854826, 45.154775894143704 ], [ 8.432337260176521, 45.141648184759909 ], [ 8.467962164420538, 45.1486120138836 ], [ 8.499999999615302, 45.147149183900311 ], [ 8.545717084410892, 45.145061701032382 ], [ 8.548401967335437, 45.144823423580114 ] ] ] ] } }
]
}
