{
"type": "FeatureCollection",
"name": "MassaCarrara",
"crs": { "type": "name", "properties": { "name": "urn:ogc:def:crs:OGC:1.3:CRS84" } },
"features": [
{ "type": "Feature", "properties": { "OBJECTID": 107.0, "YEAR": 1700.0, "OWNER_ID": 15058.0, "SHORT_NAME": "Massa", "LONG_NAME": "Duchy of Massa and Carrara", "VARIANTS": null, "SHAPE_LENG": 84013.02, "Shape__Are": 416387762.46679688, "Shape__Len": 84161.21990460559 }, "geometry": { "type": "MultiPolygon", "coordinates": [ [ [ [ 10.096931514781204, 44.004075984232934 ], [ 10.096851528788305, 44.004141060473877 ], [ 10.086191718978325, 44.010503414382086 ], [ 10.052617353219318, 44.030537929354594 ], [ 9.999999999705929, 44.050814670815058 ], [ 9.997751157223664, 44.051682490258052 ], [ 9.986102466677567, 44.060636711972897 ], [ 9.984916298837064, 44.061548429012724 ], [ 9.985095446260916, 44.06376345722451 ], [ 9.985596436694868, 44.06995743128099 ], [ 9.986739198839159, 44.074571719999604 ], [ 9.988711906389605, 44.082536346173931 ], [ 9.99727220875184, 44.090371907210439 ], [ 9.999999999705929, 44.09218843349656 ], [ 10.002713704178053, 44.093992699884396 ], [ 10.008822663131726, 44.098054174810727 ], [ 10.018183695890446, 44.108784941487642 ], [ 10.020183352899418, 44.111402691768582 ], [ 10.02144273433389, 44.113060643988433 ], [ 10.037784731472366, 44.112049032098717 ], [ 10.041639577528001, 44.113412780331423 ], [ 10.045519668938068, 44.115959239111518 ], [ 10.080920193787021, 44.121791749238504 ], [ 10.088589209283915, 44.114989790538822 ], [ 10.157786137378968, 44.12646057119391 ], [ 10.171585969637031, 44.140335601741221 ], [ 10.173079699071248, 44.140837307626924 ], [ 10.189187348209977, 44.114925160452934 ], [ 10.234432338679373, 44.07348238575652 ], [ 10.237398479627801, 44.073541250860892 ], [ 10.227246757840836, 44.052345662630444 ], [ 10.218967511381548, 44.041222489264541 ], [ 10.194593015229396, 44.008463124130735 ], [ 10.184151381049103, 44.000000000164377 ], [ 10.142954334895554, 43.96687956528352 ], [ 10.112948980251927, 43.991110576224138 ], [ 10.101938113320493, 44.000000000164377 ], [ 10.096931514781204, 44.004075984232934 ] ] ] ] } }
]
}
