{
"type": "FeatureCollection",
"name": "Masserano",
"crs": { "type": "name", "properties": { "name": "urn:ogc:def:crs:OGC:1.3:CRS84" } },
"features": [
{ "type": "Feature", "properties": { "OBJECTID": 88.0, "YEAR": 1700.0, "OWNER_ID": 7184.0, "SHORT_NAME": "Masserano", "LONG_NAME": "Principality of Masserano", "VARIANTS": null, "SHAPE_LENG": 115997.3, "Shape__Are": 587006693.54199219, "Shape__Len": 116219.43182925612 }, "geometry": { "type": "MultiPolygon", "coordinates": [ [ [ [ 7.998738454109097, 45.748947035696183 ], [ 7.999999999585081, 45.749198754885107 ], [ 8.089581586142252, 45.767070250658229 ], [ 8.101961396633474, 45.760532951394048 ], [ 8.114515456933646, 45.753902849791203 ], [ 8.115602490292625, 45.753736743598012 ], [ 8.125959207627426, 45.754501211685586 ], [ 8.139973912409873, 45.755535673158612 ], [ 8.139973912409873, 45.766678489828664 ], [ 8.137500455173996, 45.794209485160806 ], [ 8.16113984286115, 45.794198535442199 ], [ 8.171572494786911, 45.793819046705259 ], [ 8.224795237343328, 45.749636672019449 ], [ 8.226291302397257, 45.747877597362276 ], [ 8.255888251471706, 45.674322339033623 ], [ 8.259411697340932, 45.606302584408525 ], [ 8.241794466198176, 45.578132165607975 ], [ 8.179781810994609, 45.556995011265876 ], [ 8.160567366293517, 45.562184589879571 ], [ 8.106046644389831, 45.571661168498721 ], [ 8.115458873933235, 45.624776236809389 ], [ 8.11283633139446, 45.677135158291122 ], [ 8.110017574339752, 45.687447612808967 ], [ 8.069970305274545, 45.712852124372262 ], [ 8.052206059445643, 45.713762603353707 ], [ 8.047785571205054, 45.714259584893064 ], [ 8.02404548417117, 45.71743660267537 ], [ 8.015470242825764, 45.722805197242302 ], [ 8.014528431115588, 45.723244783753962 ], [ 8.013120747709156, 45.724276026097264 ], [ 8.006916121770994, 45.728821188334386 ], [ 8.003160871032593, 45.733944986273791 ], [ 7.999999999585081, 45.744667939706261 ], [ 7.998738454109097, 45.748947035696183 ] ] ] ] } }
]
}
