{
"type": "FeatureCollection",
"name": "Mecklenburg",
"crs": { "type": "name", "properties": { "name": "urn:ogc:def:crs:OGC:1.3:CRS84" } },
"features": [
{ "type": "Feature", "properties": { "OBJECTID": 41.0, "YEAR": 1700.0, "OWNER_ID": 4918.0, "SHORT_NAME": "Mecklenburg", "LONG_NAME": "Duchy of Mecklenburg", "VARIANTS": null, "SHAPE_LENG": 1741843.9999999998, "Shape__Are": 43407013163.981934, "Shape__Len": 1743774.6383728145 }, "geometry": { "type": "MultiPolygon", "coordinates": [ [ [ [ 11.457048790929836, 53.939906493685676 ], [ 11.462003217114052, 53.950187632256124 ], [ 11.46496227035489, 53.957988281625262 ], [ 11.468953234532266, 53.965084628689389 ], [ 11.471734061122419, 53.968764751913689 ], [ 11.474421966877895, 53.972321594951829 ], [ 11.486107876422844, 53.982478113768472 ], [ 11.499999999796566, 53.992196753369221 ], [ 11.501885391101398, 53.993515558294085 ], [ 11.516634659969768, 53.99999999987628 ], [ 11.528273614574816, 54.005178403251172 ], [ 11.534605056579963, 54.007210846691088 ], [ 11.584926100631472, 54.020182956657585 ], [ 11.608482501952691, 54.032872020421344 ], [ 11.615646109101064, 54.04866480118941 ], [ 11.598945675181074, 54.060747718715248 ], [ 11.583739490819852, 54.064451554779765 ], [ 11.568555281047109, 54.059486480598018 ], [ 11.565390987916679, 54.048200003145283 ], [ 11.533352523901216, 54.031742784928525 ], [ 11.499999999796566, 54.022454653323202 ], [ 11.491557490822595, 54.020103222203801 ], [ 11.470330360845976, 54.018481927669832 ], [ 11.487668047950422, 54.031105085216453 ], [ 11.499999999796566, 54.039397602888492 ], [ 11.513685566350489, 54.048598401713129 ], [ 11.568818971617294, 54.067478098852142 ], [ 11.596352713266292, 54.070703513924819 ], [ 11.667944835573065, 54.112332559472328 ], [ 11.691281494602745, 54.11859053178425 ], [ 11.734241162904505, 54.121599854557779 ], [ 11.894037944880758, 54.111696102106109 ], [ 11.995251363301108, 54.134072282235174 ], [ 11.999999999826779, 54.134241586435458 ], [ 12.043572750343646, 54.135795062465277 ], [ 12.043703496539989, 54.135795592612801 ], [ 12.052983664753464, 54.135006965556926 ], [ 12.059832160866472, 54.11921746983522 ], [ 12.06543757367921, 54.103527629578892 ], [ 12.068648670832571, 54.088917471013566 ], [ 12.07160245096269, 54.079008793771223 ], [ 12.074239581243363, 54.071427671181041 ], [ 12.07712743760804, 54.071234422296548 ], [ 12.083276492864421, 54.096760674385571 ], [ 12.083824311575819, 54.101325904425487 ], [ 12.08624741285016, 54.116305553973696 ], [ 12.088801041131914, 54.131284803188173 ], [ 12.091628687914675, 54.131395335858031 ], [ 12.091652419607849, 54.131395203438927 ], [ 12.103274164288683, 54.132587187406216 ], [ 12.104733034598301, 54.132853835103248 ], [ 12.117785961715065, 54.134316788914504 ], [ 12.120504616802718, 54.134244563286394 ], [ 12.152561538502324, 54.145922099482554 ], [ 12.176347790856974, 54.166024238579624 ], [ 12.197312768179176, 54.185812677506085 ], [ 12.216069552684035, 54.206909898685097 ], [ 12.238110829395913, 54.227885367398471 ], [ 12.303216591633534, 54.252313380140997 ], [ 12.344229121132781, 54.277173244891209 ], [ 12.370285973165876, 54.302549680483047 ], [ 12.382862449127305, 54.325377916293604 ], [ 12.39637369400708, 54.315753523370951 ], [ 12.408203289081726, 54.307325152986408 ], [ 12.409334224006983, 54.279631147018492 ], [ 12.45820496677837, 54.258932734568646 ], [ 12.460326125421096, 54.262004545835154 ], [ 12.487958108626197, 54.258377815382012 ], [ 12.499999999856989, 54.254377733346629 ], [ 12.520853568117655, 54.247449662243319 ], [ 12.531247390365268, 54.23235425071686 ], [ 12.556759500416815, 54.196682201874715 ], [ 12.597829382855373, 54.169057111866074 ], [ 12.618924667996058, 54.156979377148566 ], [ 12.646897894228136, 54.130361433319962 ], [ 12.667070260127387, 54.116243903195631 ], [ 12.697153015412521, 54.091112030685153 ], [ 12.776480076083317, 54.029218500341358 ], [ 12.799992529125889, 54.003993772914242 ], [ 12.806099397699896, 53.99999999987628 ], [ 12.838007989579788, 53.979376588707282 ], [ 12.865168168614517, 53.957541070820398 ], [ 12.92148818459126, 53.929470620213969 ], [ 12.951197377262126, 53.915823159927577 ], [ 12.967853862005155, 53.903843392843513 ], [ 12.999999999887205, 53.892156494640886 ], [ 13.021207353452844, 53.884444650955075 ], [ 13.022767525878734, 53.847993235757919 ], [ 12.999999999887205, 53.834609212635861 ], [ 12.98932270976011, 53.828331023745918 ], [ 12.961107765749697, 53.824096698447171 ], [ 12.943396516929296, 53.833474952936371 ], [ 12.915423289798904, 53.833224366246355 ], [ 12.903183629966732, 53.821405501525156 ], [ 12.896701410232724, 53.809577864528855 ], [ 12.893910494663615, 53.809570090903655 ], [ 12.875759759463504, 53.801730746205884 ], [ 12.864486967151414, 53.772379523359795 ], [ 12.838183783592687, 53.752047359119473 ], [ 12.853600801652775, 53.735355834720487 ], [ 12.851874438204375, 53.733147716594665 ], [ 12.845764901633974, 53.725332331178116 ], [ 12.85927906873337, 53.699169186083118 ], [ 12.898656933910102, 53.69167965555998 ], [ 12.93036578358994, 53.692208994680335 ], [ 12.951592913566559, 53.702079949448411 ], [ 12.99967258372908, 53.698362074660558 ], [ 12.999999999887205, 53.698535289593018 ], [ 13.06447466150175, 53.732630757006518 ], [ 13.091151406776438, 53.72627114932471 ], [ 13.086141276959765, 53.712199893757678 ], [ 13.107873815284908, 53.685605007472489 ], [ 13.094601365065531, 53.680204580451658 ], [ 13.065397579844872, 53.682018036773421 ], [ 13.058387793019227, 53.669017660732258 ], [ 13.069968225078462, 53.647482716054199 ], [ 13.084471233388104, 53.632112776406281 ], [ 13.108928579362278, 53.63289465914248 ], [ 13.117190898866669, 53.648423279676763 ], [ 13.174258039173637, 53.62117814460759 ], [ 13.196781651005962, 53.596130430102598 ], [ 13.230819771132083, 53.613382996971495 ], [ 13.253594734275852, 53.621600731108522 ], [ 13.26606647655662, 53.62438593175829 ], [ 13.321793186729236, 53.643654007273831 ], [ 13.406438016963849, 53.671003722532838 ], [ 13.418501882783122, 53.681753303417338 ], [ 13.431818281281142, 53.711432715571178 ], [ 13.447441976535284, 53.716432347628022 ], [ 13.468822926834633, 53.71493781113513 ], [ 13.495895209312073, 53.70741141451775 ], [ 13.499999999917415, 53.70569457724303 ], [ 13.511804569724873, 53.700756900071035 ], [ 13.518726459993228, 53.678933791187582 ], [ 13.532658137985539, 53.669414880510352 ], [ 13.592691801923246, 53.660171924050331 ], [ 13.66828323914628, 53.651032902075464 ], [ 13.735508588873198, 53.646717231642661 ], [ 13.73385441583766, 53.640686186764817 ], [ 13.761871591246699, 53.635028197181207 ], [ 13.787559495311138, 53.635028197181207 ], [ 13.781085627214326, 53.638045096543401 ], [ 13.794964819339532, 53.644316438655132 ], [ 13.828695300616824, 53.644462172348284 ], [ 13.882971710407633, 53.627089826580296 ], [ 13.942280224603595, 53.616936066853441 ], [ 13.953728810928576, 53.610306962732693 ], [ 13.884356088820631, 53.595427446531843 ], [ 13.844582687339463, 53.577995006622807 ], [ 13.842999061698134, 53.577542023212843 ], [ 13.824542166276148, 53.572262215317046 ], [ 13.802436066235051, 53.549907489598468 ], [ 13.78839451709697, 53.534023645769402 ], [ 13.762904381633904, 53.53229678015547 ], [ 13.748577167337158, 53.522027110425206 ], [ 13.74719278892416, 53.511329645828198 ], [ 13.727899393089389, 53.503833159776512 ], [ 13.736301688081349, 53.499999999893774 ], [ 13.753279657406683, 53.492344785280643 ], [ 13.707727027190138, 53.480425296693994 ], [ 13.687005304663723, 53.466832711448113 ], [ 13.671271738263814, 53.449434658796534 ], [ 13.65534040326253, 53.458614569060138 ], [ 13.624950008230249, 53.465978099288122 ], [ 13.60361300710786, 53.461415491905534 ], [ 13.593944334601993, 53.448961142084244 ], [ 13.591680986124521, 53.432239978695527 ], [ 13.592975780045807, 53.428414270625758 ], [ 13.577441669283379, 53.426528798989295 ], [ 13.557071534782754, 53.417749975968839 ], [ 13.556019741434028, 53.414945263811099 ], [ 13.543601316860316, 53.417934257886749 ], [ 13.529735561735132, 53.408337370232339 ], [ 13.522242341149449, 53.396222966264439 ], [ 13.540017754833961, 53.389899187990054 ], [ 13.538964748759602, 53.38810964564059 ], [ 13.538964748759602, 53.382188048405695 ], [ 13.538373851338754, 53.382780832473003 ], [ 13.521517190509387, 53.376740480629266 ], [ 13.509431350101632, 53.359318532022108 ], [ 13.520923885603576, 53.34374869406517 ], [ 13.517386030757189, 53.333106237755857 ], [ 13.502135897219008, 53.32172231894306 ], [ 13.499999999917415, 53.319711318672965 ], [ 13.477964217301816, 53.298958523597101 ], [ 13.453397000181869, 53.313014133764192 ], [ 13.437289871167689, 53.309926256995681 ], [ 13.417007634122671, 53.29501155900045 ], [ 13.390199043113734, 53.265404244684127 ], [ 13.38228831073682, 53.249773523489687 ], [ 13.362401609996235, 53.241843660007916 ], [ 13.324803660435251, 53.265298561596239 ], [ 13.296962279039109, 53.272074952038032 ], [ 13.271713860456062, 53.272114577117726 ], [ 13.259891710618495, 53.263488700071967 ], [ 13.258858921129603, 53.250619288170931 ], [ 13.250882266783877, 53.236503386759878 ], [ 13.2384668120405, 53.236080366337312 ], [ 13.216338737410922, 53.238697738833096 ], [ 13.202648776298629, 53.256129564052159 ], [ 13.187618385950302, 53.264069977719359 ], [ 13.149537002629277, 53.262048681891692 ], [ 13.13639639814415, 53.249258126809941 ], [ 13.122684462443379, 53.246535674087475 ], [ 13.123629356273296, 53.235789537124383 ], [ 13.125343348123602, 53.227447186198233 ], [ 13.115586778162131, 53.224300201263169 ], [ 13.118575277279664, 53.212172881905978 ], [ 13.139890304711889, 53.206828889335412 ], [ 13.187310387775359, 53.206867711155873 ], [ 13.183443277919462, 53.197554679234216 ], [ 13.203567466271707, 53.192168817546168 ], [ 13.189332377800611, 53.185128576933657 ], [ 13.182586281545152, 53.178563380968278 ], [ 13.190936498505147, 53.172301679592437 ], [ 13.19078267908073, 53.166144988724255 ], [ 13.181861131803407, 53.151325572264646 ], [ 13.186409802448516, 53.13664676794491 ], [ 13.197243110177524, 53.130498190328247 ], [ 13.210295817207045, 53.122493113250499 ], [ 13.216558479702462, 53.11007167551216 ], [ 13.248816686009466, 53.11272329934414 ], [ 13.257430594437961, 53.126244022543354 ], [ 13.277317295178545, 53.132737752805006 ], [ 13.295775669227487, 53.129663293457021 ], [ 13.328165721268741, 53.103667327482867 ], [ 13.369982728037524, 53.08856093992943 ], [ 13.406789604989639, 53.071392342838465 ], [ 13.39490153318326, 53.057163997114245 ], [ 13.34807439569949, 53.046861426949725 ], [ 13.318628894497122, 53.049623183448176 ], [ 13.282744935888131, 53.039132874476934 ], [ 13.253365357552891, 53.041430339069237 ], [ 13.213855646641909, 53.041802171507229 ], [ 13.191595726278083, 53.064623849332925 ], [ 13.173335120830513, 53.070635917480757 ], [ 13.149712796642172, 53.069667142414424 ], [ 13.132265238391957, 53.075771386825693 ], [ 13.121783518688739, 53.077695370451444 ], [ 13.104489779862938, 53.079858090674691 ], [ 13.107851840696426, 53.099688989247369 ], [ 13.110400854332564, 53.115984570609854 ], [ 13.120640857155763, 53.115679665288908 ], [ 13.13962661324339, 53.135599982095485 ], [ 13.123036051367485, 53.156941398571298 ], [ 13.103369092918442, 53.15915308971659 ], [ 13.084405310520978, 53.15516666536211 ], [ 13.071967882087433, 53.149153215410742 ], [ 13.061068652389617, 53.152663371448618 ], [ 13.055025732185738, 53.164410363172983 ], [ 13.043159634069525, 53.167151304406545 ], [ 13.036501435269672, 53.183778558618677 ], [ 13.025734050407788, 53.184043271426063 ], [ 13.028041347163906, 53.169309506543804 ], [ 13.016548811661963, 53.162463790837506 ], [ 13.011978166428372, 53.153073975005114 ], [ 13.001826060162465, 53.155418311034737 ], [ 12.999999999887205, 53.155117118373873 ], [ 12.993234127220765, 53.154001128749819 ], [ 12.967458325700719, 53.149709560899147 ], [ 12.940034455197493, 53.161629518162911 ], [ 12.945000637633832, 53.176299743086787 ], [ 12.966271715889098, 53.185882980001097 ], [ 12.962162530725383, 53.19793838856009 ], [ 12.93621093519244, 53.197475290759982 ], [ 12.910786722596502, 53.19170599539472 ], [ 12.877034266730732, 53.187722609276982 ], [ 12.835019491360573, 53.180045933097674 ], [ 12.816627040178755, 53.190051810593232 ], [ 12.764020673061291, 53.182296136125977 ], [ 12.724752679928644, 53.178867837992982 ], [ 12.706536022759721, 53.186319733690411 ], [ 12.709260830408756, 53.196694629111093 ], [ 12.706404177025474, 53.202489709852401 ], [ 12.667773437077283, 53.206101313709574 ], [ 12.63307608827991, 53.200809482176979 ], [ 12.606619085296764, 53.200253801614878 ], [ 12.576360535998731, 53.191057562892169 ], [ 12.535356576427297, 53.208826350766039 ], [ 12.499999999856989, 53.200761981769787 ], [ 12.499802232153931, 53.200716869252695 ], [ 12.484881712951374, 53.204751958872009 ], [ 12.461918616535966, 53.198983647587184 ], [ 12.426671911111427, 53.213932019928251 ], [ 12.377229837124393, 53.226918296937463 ], [ 12.370593612913021, 53.241711483384734 ], [ 12.313856086043362, 53.254425022422453 ], [ 12.274192555707966, 53.261890144931336 ], [ 12.225321812936578, 53.265945865919008 ], [ 12.227629109692696, 53.284990694495896 ], [ 12.197062920647518, 53.293731026546929 ], [ 12.166364886766408, 53.288186009225754 ], [ 12.159135356750909, 53.267795252049716 ], [ 12.137512690469853, 53.268785961692593 ], [ 12.122987707571731, 53.291024620477963 ], [ 12.107254141171824, 53.275654247132415 ], [ 12.057328633424747, 53.275786318399035 ], [ 12.046583223151343, 53.302258380241284 ], [ 12.024147508774622, 53.301413641622972 ], [ 12.027223904449446, 53.281412185527081 ], [ 12.009512654730729, 53.269565303548397 ], [ 12.02144467571407, 53.252812912521946 ], [ 12.007776689190258, 53.238446583379528 ], [ 11.999999999826779, 53.23985508324094 ], [ 11.989603980299982, 53.241737918418849 ], [ 11.975957967466336, 53.22042565325318 ], [ 11.944227143198017, 53.215082695051855 ], [ 11.918429367987807, 53.212794540513372 ], [ 11.880523778679676, 53.212728406648239 ], [ 11.871382488212493, 53.224657223829489 ], [ 11.862922400106731, 53.224379539809824 ], [ 11.85430849257655, 53.212701953612672 ], [ 11.839981278279804, 53.224339870824501 ], [ 11.830971833546872, 53.216603654841954 ], [ 11.824731144741618, 53.203151198372588 ], [ 11.793615599967591, 53.176670405599296 ], [ 11.77564065967869, 53.172725333067142 ], [ 11.760742114166298, 53.182137302245124 ], [ 11.721869657338086, 53.183050589798185 ], [ 11.686139519051823, 53.175386311093135 ], [ 11.663000628623521, 53.18294470230169 ], [ 11.620304650891946, 53.169177104390066 ], [ 11.564687811865101, 53.161007113804665 ], [ 11.559457938858573, 53.149245940251831 ], [ 11.544339651952955, 53.121313430396761 ], [ 11.525881277904011, 53.093694261568444 ], [ 11.499999999796566, 53.089279907507674 ], [ 11.496018264910417, 53.088600735725848 ], [ 11.482086586918104, 53.104237525912524 ], [ 11.446466319777612, 53.104555772544138 ], [ 11.402869398291395, 53.101625159983165 ], [ 11.385927247491384, 53.084660796295928 ], [ 11.384279178508201, 53.071737374589553 ], [ 11.358305609285098, 53.075360041346279 ], [ 11.326992295909696, 53.077230968893765 ], [ 11.295283446229858, 53.071272908456521 ], [ 11.255444121881563, 53.070370501824861 ], [ 11.214777389867789, 53.067159650342504 ], [ 11.212260699412203, 53.067568095317078 ], [ 11.215099389184751, 53.076846174692982 ], [ 11.196904706604309, 53.089648671901614 ], [ 11.171172854261224, 53.098323007616429 ], [ 11.155746926710144, 53.093548361362267 ], [ 11.139639797695967, 53.096691730323009 ], [ 11.135508637943772, 53.104343608566246 ], [ 11.167063668199193, 53.119073269091324 ], [ 11.181193113894565, 53.133201553066151 ], [ 11.167437230813464, 53.150067208015606 ], [ 11.131399452780055, 53.16389393434843 ], [ 11.086615920583903, 53.187034412002866 ], [ 11.044864836682242, 53.270080453860636 ], [ 11.048864150700187, 53.307537617555546 ], [ 11.03528406163198, 53.325957018346088 ], [ 10.999999999766354, 53.336081302964097 ], [ 10.993774693712027, 53.337867319817541 ], [ 10.956572279557163, 53.322368764718391 ], [ 10.951056742290286, 53.305874728612629 ], [ 10.969559064617874, 53.29120945375368 ], [ 10.966570565500341, 53.256407041163996 ], [ 10.919831325472172, 53.262471444411865 ], [ 10.91723836355739, 53.281610265457893 ], [ 10.865291225111179, 53.298404122966154 ], [ 10.831253104086743, 53.299301721081463 ], [ 10.82148335045016, 53.301124182585447 ], [ 10.811329925457416, 53.304634646059284 ], [ 10.801972189515787, 53.308083849349423 ], [ 10.777504076334619, 53.316919843345559 ], [ 10.735137712938666, 53.329307540406184 ], [ 10.743092392695912, 53.341876237161372 ], [ 10.725556937888404, 53.361598815814318 ], [ 10.705472468546446, 53.375172535021633 ], [ 10.667325161459981, 53.377425615049404 ], [ 10.616916220851182, 53.384210484157194 ], [ 10.583822992758346, 53.376384733306388 ], [ 10.603995358657597, 53.391705513973378 ], [ 10.61878403302422, 53.404900918706353 ], [ 10.624804978639615, 53.437292545781155 ], [ 10.641549360838251, 53.456300052158639 ], [ 10.671038811217576, 53.464899948187423 ], [ 10.727556594897379, 53.464137337168147 ], [ 10.738411876316551, 53.47218350674428 ], [ 10.759880724071509, 53.469159799126153 ], [ 10.791941161777133, 53.467818781208862 ], [ 10.813849494115171, 53.46981714495513 ], [ 10.867378778677441, 53.478795469235493 ], [ 10.8877269394879, 53.499991460622056 ], [ 10.8877269394879, 53.499999999893774 ], [ 10.8877269394879, 53.525893476232419 ], [ 10.883156294254311, 53.557820613884836 ], [ 10.943014164179122, 53.557369234057269 ], [ 10.950265668783102, 53.556864744963121 ], [ 10.999999999766354, 53.560266049942754 ], [ 11.013353754705465, 53.561179259662943 ], [ 11.014320622225545, 53.591288891270942 ], [ 11.051742777773637, 53.609339026243568 ], [ 11.032888867420258, 53.625154703913736 ], [ 10.999999999766354, 53.637400522280451 ], [ 10.977755461255137, 53.645681014501484 ], [ 10.979051943110846, 53.66532333611508 ], [ 10.987529950809897, 53.677275290488645 ], [ 10.999999999766354, 53.678065815598778 ], [ 11.02100079561388, 53.679397104224392 ], [ 11.035547752202165, 53.683076952945363 ], [ 11.062707931236893, 53.714501343448632 ], [ 11.087428967781253, 53.716736539055354 ], [ 11.108853867257565, 53.723930676364894 ], [ 11.118522538865117, 53.74931186848692 ], [ 11.121576960849774, 53.790233017681288 ], [ 11.124675330214764, 53.828265071917464 ], [ 11.11425953337867, 53.874036981685904 ], [ 11.086681843451027, 53.907990625909974 ], [ 11.082650733563602, 53.911316564509264 ], [ 11.07883532085399, 53.912224794109925 ], [ 11.067385277461618, 53.91656407635687 ], [ 11.058774540086075, 53.917073596131836 ], [ 11.027944660470713, 53.91967964701972 ], [ 11.004059528756109, 53.92803999393827 ], [ 11.018313664206177, 53.938533485020685 ], [ 11.012705480090789, 53.946926369360511 ], [ 11.010650921644912, 53.948230204196385 ], [ 11.007528631042222, 53.950455970511349 ], [ 10.999999999766354, 53.955822367112667 ], [ 10.977294002083577, 53.972002963955539 ], [ 10.999999999766354, 53.981635162948301 ], [ 11.009640105846186, 53.985723953182976 ], [ 11.054566587851818, 53.99999999987628 ], [ 11.074222441327317, 54.006320194505001 ], [ 11.11834674485222, 54.008061601417438 ], [ 11.175677575729374, 54.001707105673511 ], [ 11.177429771132083, 53.99999999987628 ], [ 11.196882952103072, 53.981270123206464 ], [ 11.210649822478414, 53.969993851297147 ], [ 11.226647519622999, 53.958486375279612 ], [ 11.243700200932198, 53.956741969948766 ], [ 11.253432598127688, 53.957563030531695 ], [ 11.265192999569258, 53.961234591783153 ], [ 11.279703699254362, 53.969255592045933 ], [ 11.280573660114856, 53.969256906608827 ], [ 11.332960980236807, 53.964921369409453 ], [ 11.336244775351167, 53.964649590002054 ], [ 11.356942227195237, 53.955228762628842 ], [ 11.363165636007682, 53.952395644194063 ], [ 11.371310632841022, 53.948687379443051 ], [ 11.374830468381123, 53.947084875568194 ], [ 11.382156095674139, 53.940836548859238 ], [ 11.388420265542601, 53.93549283704111 ], [ 11.374984068616609, 53.889384089243741 ], [ 11.381686216593421, 53.822144279049517 ], [ 11.393244674962489, 53.815785089834705 ], [ 11.442291211746772, 53.810216704721839 ], [ 11.473780319135068, 53.796134084375474 ], [ 11.499999999796566, 53.772997744707354 ], [ 11.502017236835648, 53.771217197035682 ], [ 11.518014493805742, 53.776381376724437 ], [ 11.591232711405535, 53.831470215114152 ], [ 11.593474086192845, 53.845409061679405 ], [ 11.543482655578643, 53.891320189126375 ], [ 11.499999999796566, 53.915769809115986 ], [ 11.458089010384441, 53.939322101779695 ], [ 11.457048790929836, 53.939906493685676 ] ], [ [ 11.697873771433787, 53.837273139596071 ], [ 11.69207256810993, 53.818700937641118 ], [ 11.706817293299595, 53.81463716595001 ], [ 11.712133744136572, 53.813332849037096 ], [ 11.728813522194921, 53.810572998348796 ], [ 11.747692043692137, 53.810151780136778 ], [ 11.752743486130409, 53.809992370353129 ], [ 11.769421945461918, 53.809411734808812 ], [ 11.786825555433488, 53.821022915296631 ], [ 11.797538664085906, 53.840026476216416 ], [ 11.798175257906943, 53.841177920702584 ], [ 11.808096633688754, 53.860476759848488 ], [ 11.813172687270864, 53.881348970619101 ], [ 11.815401755138781, 53.890107042184646 ], [ 11.819699040336468, 53.902210718058896 ], [ 11.820488355840642, 53.904676690821908 ], [ 11.816226228906546, 53.911060497199315 ], [ 11.811964102870764, 53.913796057254828 ], [ 11.78295808625148, 53.934641533984511 ], [ 11.726879788053072, 53.96126220293209 ], [ 11.686271364786073, 53.963576237123164 ], [ 11.65726534816679, 53.958948040214352 ], [ 11.628138473107494, 53.949247004783487 ], [ 11.628017614667485, 53.947881663315748 ], [ 11.647596675660923, 53.917271029653293 ], [ 11.664773291241664, 53.902925021330915 ], [ 11.675035707929515, 53.89976316532281 ], [ 11.679968928483138, 53.899249487785632 ], [ 11.68322749081948, 53.899571442004181 ], [ 11.684337629745912, 53.899893262690952 ], [ 11.695940036393626, 53.875552183817447 ], [ 11.697873771433787, 53.837273139596071 ] ] ], [ [ [ 12.503779571583394, 52.992409041088216 ], [ 12.515909360269795, 52.997441798139221 ], [ 12.551727396011662, 52.994183056248161 ], [ 12.564111265989652, 52.999999999855014 ], [ 12.578470064153475, 53.006822552298395 ], [ 12.609717454661752, 53.009733071716738 ], [ 12.648260298052653, 53.006064987724301 ], [ 12.654108019735181, 52.999999999855014 ], [ 12.665048629428247, 52.988781936293414 ], [ 12.65056759480877, 52.971509567828228 ], [ 12.614639687921132, 52.958478404595994 ], [ 12.549617867856922, 52.954243413005244 ], [ 12.524237603539625, 52.942022731741226 ], [ 12.499999999856989, 52.945914375221733 ], [ 12.47409235350101, 52.95007377487385 ], [ 12.483409437082772, 52.976571064401995 ], [ 12.499999999856989, 52.989470828102704 ], [ 12.503779571583394, 52.992409041088216 ] ] ], [ [ [ 12.550628683655647, 53.080242857826036 ], [ 12.589259423603837, 53.075612156820853 ], [ 12.615364838561193, 53.06354875490424 ], [ 12.620155226086325, 53.031084139894041 ], [ 12.607058569879845, 53.028653284386451 ], [ 12.586710409967701, 53.03014103717873 ], [ 12.536367392226024, 53.024322567305219 ], [ 12.544585763451769, 53.055531151486825 ], [ 12.550628683655647, 53.080242857826036 ] ] ] ] } }
]
}
