{
"type": "FeatureCollection",
"name": "Memmingen",
"crs": { "type": "name", "properties": { "name": "urn:ogc:def:crs:OGC:1.3:CRS84" } },
"features": [
{ "type": "Feature", "properties": { "OBJECTID": 67.0, "YEAR": 1700.0, "OWNER_ID": 9643.0, "SHORT_NAME": "Memmingen", "LONG_NAME": "Imperial City of Memmingen", "VARIANTS": null, "SHAPE_LENG": 97769.9, "Shape__Are": 295314823.73486328, "Shape__Len": 97910.860537206274 }, "geometry": { "type": "MultiPolygon", "coordinates": [ [ [ [ 10.341346173940281, 48.065948245153756 ], [ 10.340765758960481, 48.062835952791524 ], [ 10.354455720072774, 48.030098383263628 ], [ 10.358366025419105, 48.028113721930424 ], [ 10.309694036700959, 48.006961592310745 ], [ 10.285989124998656, 48.029075926879671 ], [ 10.248061267352949, 48.014860664784031 ], [ 10.229194811128311, 48.000000000254126 ], [ 10.221985866007548, 47.994375658189377 ], [ 10.20065144574497, 47.994375658189377 ], [ 10.188798990342976, 47.984984860560886 ], [ 10.19353997232411, 47.970895441681165 ], [ 10.207762919165829, 47.947404480149231 ], [ 10.212503901146963, 47.922335609789208 ], [ 10.176946534940981, 47.920768399250285 ], [ 10.146130149817818, 47.934871573374828 ], [ 10.134277694415825, 47.956802153989599 ], [ 10.117684257032694, 47.944271539721377 ], [ 10.09872032820984, 47.958368266007909 ], [ 10.093979346228705, 47.989680473957513 ], [ 10.100926517784098, 48.000000000254126 ], [ 10.11294327505156, 48.018019952719094 ], [ 10.146130149817818, 48.029075926879671 ], [ 10.179317025482391, 48.030655157019659 ], [ 10.221985866007548, 48.052759267297759 ], [ 10.309694036700959, 48.062229536591353 ], [ 10.341346173940281, 48.065948245153756 ] ] ] ] } }
]
}
