{
"type": "FeatureCollection",
"name": "ModenaReggio",
"crs": { "type": "name", "properties": { "name": "urn:ogc:def:crs:OGC:1.3:CRS84" } },
"features": [
{ "type": "Feature", "properties": { "OBJECTID": 73.0, "YEAR": 1700.0, "OWNER_ID": 5562.0, "SHORT_NAME": "Modena", "LONG_NAME": "Duchy of Modena and Reggio", "VARIANTS": null, "SHAPE_LENG": 558644.5, "Shape__Are": 10687373995.025393, "Shape__Len": 559769.7070645655 }, "geometry": { "type": "MultiPolygon", "coordinates": [ [ [ [ 10.490378142931306, 44.962459337784701 ], [ 10.497543746136241, 44.961427754113117 ], [ 10.49999999973614, 44.960673470533074 ], [ 10.54009422553788, 44.948359646933802 ], [ 10.577186767648659, 44.945403683582995 ], [ 10.629749185589162, 44.956503818517071 ], [ 10.6610405252744, 44.972756555339878 ], [ 10.680070229640672, 44.947170853536875 ], [ 10.685607742394343, 44.921782603335679 ], [ 10.691430919408367, 44.868993543527573 ], [ 10.687915039150463, 44.828150288172708 ], [ 10.697803453049554, 44.816590443889432 ], [ 10.719601914241821, 44.810197716771533 ], [ 10.74146629830121, 44.81444887932593 ], [ 10.763418578917891, 44.830500611575602 ], [ 10.768604502747458, 44.854577820159896 ], [ 10.791589573751345, 44.883132222558736 ], [ 10.811981681942136, 44.901962277081118 ], [ 10.853117487247818, 44.918969918640414 ], [ 10.915414500561313, 44.933674709671536 ], [ 10.911678877113554, 44.945564337370243 ], [ 10.945848843872239, 44.950174917593571 ], [ 10.999999999766354, 44.958249724810209 ], [ 11.000894352581756, 44.958383077254268 ], [ 11.057653853141577, 44.971857315264081 ], [ 11.103536096795432, 44.974265961422248 ], [ 11.160405469399342, 44.97208212709203 ], [ 11.208946597835105, 44.966236745269406 ], [ 11.251928240725343, 44.952873621167662 ], [ 11.253532361429881, 44.952375655904859 ], [ 11.266101635597678, 44.942206572328267 ], [ 11.284669880792389, 44.925382637521629 ], [ 11.313412205943173, 44.905756481073382 ], [ 11.301260443566608, 44.872806022872709 ], [ 11.249862660849248, 44.842460010005013 ], [ 11.196289427110019, 44.799938879398447 ], [ 11.16934899036683, 44.793995321445273 ], [ 11.147813890961356, 44.781436676731751 ], [ 11.108326484320562, 44.758401621269641 ], [ 11.087187251799548, 44.732735969863732 ], [ 11.056291449317062, 44.706703931180549 ], [ 11.049545353061603, 44.660061959925052 ], [ 11.04688646738138, 44.634061626445614 ], [ 11.046403034519654, 44.609003004125753 ], [ 11.049347584460229, 44.546074233241164 ], [ 11.057098821856762, 44.500000000095532 ], [ 11.058972307789135, 44.488954082432457 ], [ 11.042799256806145, 44.458362548770438 ], [ 11.017462940767496, 44.417596943086494 ], [ 11.007135040488691, 44.399623349376078 ], [ 11.00142173462044, 44.365075292271598 ], [ 11.010650921644912, 44.315130937740818 ], [ 10.999999999766354, 44.305223575983419 ], [ 10.993269285363505, 44.298961877229985 ], [ 10.967251767861756, 44.300959095381643 ], [ 10.946639916481111, 44.2860749533261 ], [ 10.946112534442426, 44.263000249940177 ], [ 10.959670649820465, 44.244462982678577 ], [ 10.924336047838638, 44.195867441109733 ], [ 10.903262737286433, 44.203982946787193 ], [ 10.877486936664702, 44.218807375916995 ], [ 10.860303068984672, 44.212887733709628 ], [ 10.859577918344611, 44.172337409262376 ], [ 10.84373451583323, 44.139625041910804 ], [ 10.813673700102278, 44.149976734089435 ], [ 10.784931374053176, 44.149799105877676 ], [ 10.753771881000505, 44.153351563313485 ], [ 10.714020453209503, 44.161408383453171 ], [ 10.668863359297394, 44.167736812394445 ], [ 10.651547646781427, 44.170787774980916 ], [ 10.608687881919044, 44.152943707567871 ], [ 10.606340339739884, 44.152974554226077 ], [ 10.577648227718536, 44.153351563313485 ], [ 10.539786585790734, 44.167849813818563 ], [ 10.505836362221903, 44.182570423226949 ], [ 10.49999999973614, 44.17799046177214 ], [ 10.482389832046454, 44.164169083002903 ], [ 10.479401333827237, 44.133148132072314 ], [ 10.467535235711022, 44.068275727312468 ], [ 10.444747933308511, 44.038174791388556 ], [ 10.407083547044058, 44.000000000164377 ], [ 10.405084402973113, 43.997990200957602 ], [ 10.400026388460223, 44.000000000164377 ], [ 10.363311344482973, 44.014710939023942 ], [ 10.35588193123192, 44.020118212115825 ], [ 10.335404040219705, 44.035019851944924 ], [ 10.314967983750272, 44.061289671646264 ], [ 10.315517339479122, 44.080515493499703 ], [ 10.266207112124652, 44.074112974763686 ], [ 10.237398479627801, 44.073541250860892 ], [ 10.234432338679373, 44.07348238575652 ], [ 10.189187348209977, 44.114925160452934 ], [ 10.173079699071248, 44.140837307626924 ], [ 10.168179960524897, 44.148717178374902 ], [ 10.160906482230752, 44.176259738169705 ], [ 10.110695309325012, 44.174661783812752 ], [ 10.121264925585519, 44.238239589616846 ], [ 10.143678666272077, 44.303874267287547 ], [ 10.179584598571235, 44.337750429986222 ], [ 10.184836445267926, 44.35546960311909 ], [ 10.154687768013979, 44.366281924990531 ], [ 10.127945099872168, 44.386710439741471 ], [ 10.108102347410227, 44.396809447871178 ], [ 10.106652046130106, 44.400957894812237 ], [ 10.129065786816664, 44.422338601401364 ], [ 10.142821669897765, 44.440658656892708 ], [ 10.180990950674394, 44.453318614215242 ], [ 10.215446582591747, 44.472801195066076 ], [ 10.242211225322039, 44.460787978549924 ], [ 10.346940524898608, 44.490382898358163 ], [ 10.351569235435536, 44.500000000095532 ], [ 10.36386070111014, 44.525751650026471 ], [ 10.401964059019644, 44.5477566748512 ], [ 10.41018243024539, 44.607629392525986 ], [ 10.417060372235099, 44.665228330312139 ], [ 10.441517718209273, 44.685517991814649 ], [ 10.457514975179366, 44.747069522478554 ], [ 10.452724587654235, 44.783620806521888 ], [ 10.448857119370542, 44.806042867422953 ], [ 10.463272230224577, 44.826298937999155 ], [ 10.472237726678863, 44.854626093180414 ], [ 10.480104509878819, 44.877663750999609 ], [ 10.466040986152256, 44.905965476839718 ], [ 10.446593770893067, 44.923164786143154 ], [ 10.463843560541909, 44.940455314938887 ], [ 10.490378142931306, 44.962459337784701 ] ] ] ] } }
]
}
