{
"type": "FeatureCollection",
"name": "Monaco",
"crs": { "type": "name", "properties": { "name": "urn:ogc:def:crs:OGC:1.3:CRS84" } },
"features": [
{ "type": "Feature", "properties": { "OBJECTID": 84.0, "YEAR": 1700.0, "OWNER_ID": 9347.0, "SHORT_NAME": "Monaco", "LONG_NAME": "Principality of Monaco", "VARIANTS": null, "SHAPE_LENG": 68825.48, "Shape__Are": 154856886.47119141, "Shape__Len": 68952.430701246354 }, "geometry": { "type": "MultiPolygon", "coordinates": [ [ [ [ 7.362734002458497, 43.69852174654131 ], [ 7.374148940587874, 43.709965450948076 ], [ 7.376001715861371, 43.711822687921966 ], [ 7.381224775146476, 43.717637185527536 ], [ 7.401847323665515, 43.72699652817699 ], [ 7.418721470201878, 43.734653599961383 ], [ 7.421244964497415, 43.743574992743149 ], [ 7.424474908305439, 43.753905247133474 ], [ 7.426063293221143, 43.758984682540216 ], [ 7.426511275866829, 43.760238541287173 ], [ 7.438045886660043, 43.77604933525329 ], [ 7.451062617060741, 43.793845975242448 ], [ 7.441648331273689, 43.808446223043589 ], [ 7.43987275541908, 43.811137886344369 ], [ 7.435350439547772, 43.817987594647441 ], [ 7.446631845805111, 43.82753312556946 ], [ 7.451205599209585, 43.831414458198935 ], [ 7.473294640243437, 43.834266434272578 ], [ 7.485563404592496, 43.836171413249147 ], [ 7.499999999554868, 43.831711491726239 ], [ 7.509574133360243, 43.828753553673451 ], [ 7.513058159358172, 43.811798641706858 ], [ 7.516657579344221, 43.801434913188999 ], [ 7.519114026081924, 43.794505024465749 ], [ 7.522651315887986, 43.784349707715499 ], [ 7.533734935577661, 43.762393696975451 ], [ 7.526591192875139, 43.762505953390146 ], [ 7.502610851418544, 43.754608099980786 ], [ 7.499999999554868, 43.745546892648626 ], [ 7.497849887312229, 43.738083684642852 ], [ 7.491224028760911, 43.737454860051734 ], [ 7.475120121105323, 43.741130971199752 ], [ 7.460069330016911, 43.742001595350445 ], [ 7.409037056517297, 43.70339166074973 ], [ 7.409629434361726, 43.697535084130308 ], [ 7.397759933427215, 43.695647304404822 ], [ 7.376324623375094, 43.699229194566911 ], [ 7.357390464720737, 43.697954582825666 ], [ 7.362734002458497, 43.69852174654131 ] ] ] ] } }
]
}
