{
"type": "FeatureCollection",
"name": "Morocco",
"crs": { "type": "name", "properties": { "name": "urn:ogc:def:crs:OGC:1.3:CRS84" } },
"features": [
{ "type": "Feature", "properties": { "OBJECTID": 9.0, "YEAR": 1700.0, "OWNER_ID": 2054.0, "SHORT_NAME": "Fez-Morocco", "LONG_NAME": "Empire of Fez and Morocco", "VARIANTS": null, "SHAPE_LENG": 4377377.0, "Shape__Are": 712908576184.30518, "Shape__Len": 4385529.2238779068 }, "geometry": { "type": "MultiPolygon", "coordinates": [ [ [ [ -5.646349832548621, 35.869368877766021 ], [ -5.623586153143162, 35.853189152404326 ], [ -5.587237930822291, 35.826042566307628 ], [ -5.547858859208106, 35.792821716375478 ], [ -5.500000000332335, 35.753685582089297 ], [ -5.498223219836929, 35.752232262877584 ], [ -5.432708568736498, 35.750789083842101 ], [ -5.39032131052703, 35.761011501451385 ], [ -5.367699058286605, 35.715918729034847 ], [ -5.356102767369354, 35.706020047259486 ], [ -5.327990547508301, 35.715883937769092 ], [ -5.321313894617567, 35.71076948138824 ], [ -5.323663900875562, 35.693092484786021 ], [ -5.308443769271246, 35.653827066144423 ], [ -5.277959580241825, 35.598690346564631 ], [ -5.237240785467453, 35.554689321073987 ], [ -5.185408879312628, 35.548710270883767 ], [ -5.15086159588008, 35.52560913167941 ], [ -5.114695537525784, 35.500000000299181 ], [ -5.092243223180945, 35.484196971743224 ], [ -5.083084789264865, 35.45183918024091 ], [ -5.049042647381225, 35.43457979069229 ], [ -5.007774786135506, 35.430624349259105 ], [ -5.000000000302123, 35.424522849352449 ], [ -4.937344982296763, 35.375349121554528 ], [ -4.875656592859628, 35.342929825297084 ], [ -4.812430386470735, 35.319861938041292 ], [ -4.716294917976078, 35.251400886809343 ], [ -4.623542644978582, 35.214530454507802 ], [ -4.500000000271902, 35.191924099608755 ], [ -4.499748457619295, 35.191878064724364 ], [ -4.442278077056023, 35.182724830439547 ], [ -4.399219228458697, 35.175519842296943 ], [ -4.386916700929666, 35.177121006868347 ], [ -4.372505168065414, 35.177991191354444 ], [ -4.364750181999226, 35.181558849409512 ], [ -4.339573936761036, 35.189842169131651 ], [ -4.321098176718084, 35.19570610516557 ], [ -4.302051226494996, 35.199446968931888 ], [ -4.282872464673602, 35.201291237299316 ], [ -4.279392538586666, 35.201954102065066 ], [ -4.233640383562348, 35.178791752692227 ], [ -4.000000000241688, 35.183206388136369 ], [ -3.964698334989763, 35.183873392431551 ], [ -3.933421971118636, 35.229009757010225 ], [ -3.926187028753533, 35.221436251143928 ], [ -3.903075851351745, 35.211973246351263 ], [ -3.862894916565523, 35.209798685100616 ], [ -3.805754067692861, 35.233054742927187 ], [ -3.786641212568954, 35.288358685869142 ], [ -3.73512437612697, 35.305006734015905 ], [ -3.693625313679991, 35.296127046900274 ], [ -3.645162141044575, 35.274227726719786 ], [ -3.573280227617017, 35.253852518445498 ], [ -3.500563499914485, 35.247036449034709 ], [ -3.500000000211477, 35.247029493926732 ], [ -3.444213527817953, 35.246340899885134 ], [ -3.36336834396141, 35.223871403991474 ], [ -3.276218115094344, 35.231002496922954 ], [ -3.205214953440648, 35.251366111678394 ], [ -3.168175557458734, 35.269482086123475 ], [ -3.130411189601439, 35.311314016782198 ], [ -3.109035547447129, 35.308655635878992 ], [ -3.092866511035145, 35.305684399974105 ], [ -3.079751137531404, 35.313259965306109 ], [ -3.07096361709783, 35.33367220194814 ], [ -3.045941154453127, 35.366946022635162 ], [ -3.013822769123466, 35.419641768401931 ], [ -3.000000000181255, 35.446124952919476 ], [ -2.999389267060636, 35.447294859040085 ], [ -2.996438198046036, 35.426193155011838 ], [ -2.995794789605254, 35.421711176948136 ], [ -2.996797658906976, 35.419103358826519 ], [ -2.997406143544468, 35.40710051979368 ], [ -2.996758783414759, 35.404881509175766 ], [ -3.000000000181255, 35.387784669387266 ], [ -3.000619504452346, 35.384516475976248 ], [ -3.007737411607271, 35.360156924383617 ], [ -3.007819973968403, 35.355659350245382 ], [ -3.007607093907309, 35.350512092751821 ], [ -3.007348783347369, 35.344267142049887 ], [ -3.000000000181255, 35.30796848043591 ], [ -2.997952507883413, 35.297852146518622 ], [ -2.989063931471969, 35.277373948849714 ], [ -2.950838219427487, 35.234254760662147 ], [ -2.920998015557298, 35.228220920264647 ], [ -2.919928118460641, 35.216844049770778 ], [ -2.907647559231892, 35.20830255303202 ], [ -2.897388129442378, 35.204005367574197 ], [ -2.915116951106376, 35.185892037188751 ], [ -2.917028236349247, 35.17560686282409 ], [ -2.908548279306045, 35.159680526596084 ], [ -2.889237704988085, 35.139206646967267 ], [ -2.857053412960973, 35.113606988992451 ], [ -2.822474521406858, 35.096971568993062 ], [ -2.779833081294514, 35.086727324236442 ], [ -2.754876524448965, 35.081604714216851 ], [ -2.734775072456541, 35.097616146278845 ], [ -2.72833821405111, 35.113606988992451 ], [ -2.748439666043533, 35.12961207985191 ], [ -2.773396222889083, 35.140495122242697 ], [ -2.800747378363314, 35.155833365921801 ], [ -2.818454231727021, 35.169915517568661 ], [ -2.838226151130491, 35.19320049932422 ], [ -2.860151013368089, 35.211103428312981 ], [ -2.877176833253643, 35.219140183226024 ], [ -2.880299457131303, 35.225869565965311 ], [ -2.864640474256183, 35.226914718024865 ], [ -2.846596263977408, 35.20713694234739 ], [ -2.79018038608176, 35.16497224901849 ], [ -2.751010015565975, 35.143907742305117 ], [ -2.680270479803772, 35.119337141289165 ], [ -2.639452449936603, 35.112161324337876 ], [ -2.568559132479217, 35.110924650459239 ], [ -2.510078186747175, 35.120556270511486 ], [ -2.500000000151079, 35.124788351316312 ], [ -2.437251614848331, 35.151132965642539 ], [ -2.422735730985713, 35.146821065213523 ], [ -2.39367825796863, 35.139049764923499 ], [ -2.39225760558447, 35.138768574558952 ], [ -2.387588885881438, 35.137844487686934 ], [ -2.360866098355161, 35.132554999603606 ], [ -2.243267111810129, 35.115940899692532 ], [ -2.212269134947208, 35.127470124523192 ], [ -2.184764197777795, 35.130761398679539 ], [ -2.157149416412071, 35.121026501022499 ], [ -2.127689255602584, 35.116759494535692 ], [ -2.095087556887122, 35.12046919056867 ], [ -2.044932786503135, 35.1303086386038 ], [ -2.021492076512431, 35.134749059046861 ], [ -2.009409237376031, 35.129803634495445 ], [ -2.000000000120858, 35.131226458451202 ], [ -1.959430216987482, 35.137360956547973 ], [ -1.918502342923964, 35.14944423609623 ], [ -1.85597913831354, 35.164850403733894 ], [ -1.835240591240134, 35.180897539609497 ], [ -1.820631339181865, 35.181854697083409 ], [ -1.801079107272703, 35.175310992943452 ], [ -1.785063852555864, 35.177312447951955 ], [ -1.711907748966401, 35.212930034448782 ], [ -1.693915301410946, 35.220357803620864 ], [ -1.67300100434211, 35.220862240492956 ], [ -1.647934603300249, 35.225367246559003 ], [ -1.50649946927474, 35.302799936913779 ], [ -1.500000000090646, 35.305363455749053 ], [ -1.461518987740742, 35.320539448251942 ], [ -1.482245914207588, 35.311974254256384 ], [ -1.46177099302572, 35.274575381324318 ], [ -1.436199309399468, 35.242984787397788 ], [ -1.440680945063123, 35.215730749398247 ], [ -1.469174478202709, 35.195897502078459 ], [ -1.477764279442231, 35.176981776301439 ], [ -1.455246259622557, 35.157382697246291 ], [ -1.447930648544966, 35.134696819983617 ], [ -1.446348894992706, 35.106848718536234 ], [ -1.454213725255215, 35.071131975726949 ], [ -1.492637156493705, 35.043366557904925 ], [ -1.496020351990892, 35.042215995858243 ], [ -1.500000000090646, 35.041405284887077 ], [ -1.534443783229381, 35.034388255705032 ], [ -1.576557972457098, 35.025548449409186 ], [ -1.605754507375082, 35.019898837405584 ], [ -1.635129373148368, 34.999999999650299 ], [ -1.832824023412873, 34.856992409706642 ], [ -1.93842804492095, 34.694386769556537 ], [ -1.911867765324526, 34.572748924801949 ], [ -1.874524254584597, 34.500000000164391 ], [ -1.757141507799803, 34.272293594146888 ], [ -1.500000000090646, 34.117307748253587 ], [ -1.305687426920773, 34.000000000147317 ], [ -1.242456463054153, 33.962018101770198 ], [ -1.026305441085465, 33.789781538847933 ], [ -1.000000000060433, 33.784981620238945 ], [ -0.654659253116194, 33.721942579657011 ], [ -0.500000000030215, 33.709425917788145 ], [ -0.322666749048507, 33.695071971104078 ], [ 0.0, 33.651835077189858 ], [ 0.049007545409386, 33.64526703808346 ], [ 0.425094587325047, 33.575461328449215 ], [ 0.500000000030215, 33.567571988106984 ], [ 0.781846664764459, 33.537880239666485 ], [ 1.000000000060433, 33.508970501445468 ], [ 1.067676587029301, 33.500000000094566 ], [ 1.151825616397346, 33.488909625466349 ], [ 1.407420671649945, 33.302286127258881 ], [ 1.500000000090646, 33.175609127489132 ], [ 1.53109853346812, 33.133015218833776 ], [ 1.539081937754907, 33.000000000021366 ], [ 1.547555225705457, 32.859408072422667 ], [ 1.500000000090646, 32.843451780686756 ], [ 1.18357450758264, 32.737207241838291 ], [ 1.000000000060433, 32.678937006768294 ], [ 0.718370853389064, 32.589467627165305 ], [ 0.500000000030215, 32.546857791990952 ], [ 0.259979584830714, 32.499999999859085 ], [ 0.162358778064872, 32.481041718940212 ], [ 0.0, 32.393003994233062 ], [ -0.500000000030215, 32.121304709075041 ], [ -0.613423815662345, 32.059556253439354 ], [ -0.720480919634661, 32.000000000137092 ], [ -1.000000000060433, 31.84517391244588 ], [ -1.24590556524879, 31.708749071840355 ], [ -1.500000000090646, 31.649894260905942 ], [ -1.547822781726291, 31.638813063184273 ], [ -1.911523270396218, 31.500000000028312 ], [ -2.000000000120858, 31.466381734969477 ], [ -2.421587861020728, 31.30602476809549 ], [ -2.500000000151079, 31.243160528581001 ], [ -2.751449391452907, 31.041284656440162 ], [ -2.800818829462715, 30.999999999760242 ], [ -3.000000000181255, 30.834135058020461 ], [ -3.129136999439508, 30.72644328762421 ], [ -3.469938992241054, 30.506816811214787 ], [ -3.483785314111691, 30.499999999909818 ], [ -3.500000000211477, 30.492057926225208 ], [ -3.754391013844393, 30.36736965133478 ], [ -4.000000000241688, 30.312743997104597 ], [ -4.054704508469343, 30.300573029759935 ], [ -4.372219573873665, 30.158865214298928 ], [ -4.500000000271902, 30.100158661633138 ], [ -4.715306322005896, 30.00116012370696 ], [ -4.718675141763565, 29.999999999932577 ], [ -4.929521898542129, 29.924492881457454 ], [ -5.000000000302123, 29.899240790416865 ], [ -5.065536614312953, 29.875746864212974 ], [ -5.308663395680106, 29.657868852695429 ], [ -5.448869283155663, 29.499999999948937 ], [ -5.500000000332335, 29.442652716623812 ], [ -5.50509753622615, 29.436933617345613 ], [ -5.510610313868483, 29.441993886904179 ], [ -5.620269789608167, 29.233581399425827 ], [ -5.713918623480025, 29.004099172683638 ], [ -5.715744566075984, 28.999999999695707 ], [ -5.857225060531792, 28.683436542826147 ], [ -5.982648035434966, 28.500000000205191 ], [ -5.999652990151445, 28.475223554200269 ], [ -6.000000000362556, 28.475134676938382 ], [ -6.226812909046132, 28.417026561368168 ], [ -6.500000000392768, 28.285172339494292 ], [ -6.519004300402797, 28.27599372995444 ], [ -6.76342947164732, 27.999999999632248 ], [ -6.804343338280594, 27.953948314351003 ], [ -7.000000000422981, 27.899121346725146 ], [ -7.320817538713005, 27.809161001941902 ], [ -7.499999999554868, 27.80922806060526 ], [ -7.999999999585081, 27.809415184678997 ], [ -8.101963902034811, 27.809453344307347 ], [ -8.499999999615302, 27.749623004189193 ], [ -8.595970288590461, 27.735192365694356 ], [ -8.999999999645505, 27.781309416414675 ], [ -9.079412630237004, 27.790371467486107 ], [ -9.499999999675717, 27.763253052411024 ], [ -9.511484281456831, 27.762512478921014 ], [ -9.999999999705929, 27.723188791523505 ], [ -10.297581926859351, 27.699223005947417 ], [ -10.49999999973614, 27.70797112230353 ], [ -10.737696638585652, 27.718243005727356 ], [ -10.999999999766354, 27.789618636065558 ], [ -11.273857936797469, 27.86408790072387 ], [ -11.499999999796566, 27.966186012539424 ], [ -11.565818481787346, 27.995883282792679 ], [ -11.570584863633139, 27.999999999632248 ], [ -11.769110504044491, 28.172129506476058 ], [ -11.768473707204201, 28.203133667854665 ], [ -11.503280603196721, 28.272328526444667 ], [ -11.499999999796566, 28.274970769444053 ], [ -11.357124663351343, 28.389980234189899 ], [ -11.247419872995456, 28.498143112997568 ], [ -11.245671232226325, 28.500000000205191 ], [ -11.117732826305586, 28.636419607552977 ], [ -10.999999999766354, 28.703113059964959 ], [ -10.990680802448729, 28.708390379917955 ], [ -10.872895275345039, 28.808476890388267 ], [ -10.571185518494181, 28.999999999695707 ], [ -10.528497773822185, 29.027201592982408 ], [ -10.49999999973614, 29.052905926162357 ], [ -10.326523262981549, 29.209238239233397 ], [ -10.081312417104689, 29.467448750174466 ], [ -10.056106297493427, 29.499999999948937 ], [ -10.053264574110166, 29.503687492901904 ], [ -10.03912064847073, 29.525091545661098 ], [ -10.001405345695973, 29.580624491412802 ], [ -9.999999999705929, 29.581892920584725 ], [ -9.954888671364284, 29.622593016652512 ], [ -9.871430516518313, 29.718786384357724 ], [ -9.802226136897977, 29.777873090970484 ], [ -9.756763404685175, 29.870722061533471 ], [ -9.716879192420452, 29.990215695308656 ], [ -9.711673445467513, 29.999999999932577 ], [ -9.675874883404372, 30.064702718672205 ], [ -9.645895835025527, 30.140611729638874 ], [ -9.623515872790284, 30.253795491124734 ], [ -9.626502796262807, 30.327785807237735 ], [ -9.637989273526477, 30.405036650635441 ], [ -9.683232378432093, 30.422830649042293 ], [ -9.71064179324577, 30.449841449485589 ], [ -9.738841864748339, 30.489245026417571 ], [ -9.744464604266277, 30.499999999909818 ], [ -9.761918519893758, 30.533551271142642 ], [ -9.764098937700831, 30.537741817592924 ], [ -9.797086871564268, 30.551115253704179 ], [ -9.818566364355341, 30.579445824766388 ], [ -9.844833720405594, 30.59505679244376 ], [ -9.874175850671588, 30.599019890808609 ], [ -9.889022617291003, 30.614926720046803 ], [ -9.875954827547861, 30.6588390404122 ], [ -9.853267386363909, 30.69046211682863 ], [ -9.822300018695998, 30.757764057056029 ], [ -9.83538977134952, 30.775062598537183 ], [ -9.831414527689612, 30.790623004152717 ], [ -9.820718706216525, 30.813268737412919 ], [ -9.812650650087273, 30.898902954758519 ], [ -9.812131301682173, 30.90441266417394 ], [ -9.833061728001915, 30.939605189873618 ], [ -9.838903799281308, 30.961153920591144 ], [ -9.841802872010623, 30.995971653195816 ], [ -9.840708418567369, 30.999999999760242 ], [ -9.831480415522442, 31.034138873761645 ], [ -9.832358922954548, 31.086802920152689 ], [ -9.847249614496411, 31.123235327873832 ], [ -9.822607496746391, 31.157766714632842 ], [ -9.809232228952858, 31.246484700067509 ], [ -9.7652849213867, 31.338120715435458 ], [ -9.758190978588608, 31.415936824483026 ], [ -9.784414409716415, 31.427766624744645 ], [ -9.783821417424326, 31.436987235090836 ], [ -9.778155047631355, 31.445610936139726 ], [ -9.761946595839648, 31.456543072463351 ], [ -9.733735356481466, 31.500000000028312 ], [ -9.730122683650013, 31.505593655022142 ], [ -9.693445021266681, 31.567253027176324 ], [ -9.649585564443734, 31.634197359553447 ], [ -9.628369622983978, 31.670686867262834 ], [ -9.624262603658416, 31.691158000190942 ], [ -9.634255619185819, 31.722957657927715 ], [ -9.588441484898492, 31.797250824308502 ], [ -9.536807242242153, 31.840350921141486 ], [ -9.499999999675717, 31.891058209842182 ], [ -9.494551060809059, 31.898562515151919 ], [ -9.395191932221774, 31.983306386941127 ], [ -9.372044949769393, 32.000000000137092 ], [ -9.370000747102111, 32.001482270712671 ], [ -9.337012813238674, 32.009286253309156 ], [ -9.324823530029322, 32.018754932177778 ], [ -9.303453849993526, 32.04554631494188 ], [ -9.26587571726771, 32.136207776348662 ], [ -9.205478368590596, 32.267840364683387 ], [ -9.188501223020378, 32.332344490504923 ], [ -9.188874588903602, 32.353823134794318 ], [ -9.219819993661131, 32.404423010508914 ], [ -9.219710180905855, 32.432403722750429 ], [ -9.197330217772297, 32.460152228547742 ], [ -9.209980716709767, 32.493420435128037 ], [ -9.216614697827874, 32.499999999859085 ], [ -9.244154635157386, 32.527462522614634 ], [ -9.23484246176697, 32.54420722777293 ], [ -9.199109193750257, 32.562856556404149 ], [ -9.119033291170412, 32.633265949717966 ], [ -9.059470524104642, 32.724961034533152 ], [ -8.999999999645505, 32.788319533624673 ], [ -8.997083734059967, 32.791425283931403 ], [ -8.992396522536795, 32.796416818613849 ], [ -8.929672849887513, 32.779733232967338 ], [ -8.7564408465557, 32.93708357721308 ], [ -8.7930104694581, 32.970988988818114 ], [ -8.758238850648, 33.000000000021366 ], [ -8.722167803508018, 33.030257564103678 ], [ -8.619075019681787, 33.097087196700649 ], [ -8.579586135312343, 33.143816893730921 ], [ -8.589974479633362, 33.162501744135504 ], [ -8.549189797026143, 33.201035892453177 ], [ -8.510271942038417, 33.2259254939583 ], [ -8.499999999615302, 33.224754969696903 ], [ -8.4778330746463, 33.222228915355707 ], [ -8.448073653574648, 33.221426102376583 ], [ -8.380955727982659, 33.251423852892977 ], [ -8.313991540068395, 33.320880889470786 ], [ -8.239691820036807, 33.332666067057851 ], [ -8.142858398295614, 33.364619667587604 ], [ -8.048970794916174, 33.427586539035303 ], [ -8.025951093858083, 33.443017953873948 ], [ -7.999999999585081, 33.456885991037218 ], [ -7.927514396727027, 33.495609805043252 ], [ -7.913856377011301, 33.500000000094566 ], [ -7.786360302434796, 33.541210639051599 ], [ -7.659020728753808, 33.58744863524943 ], [ -7.612240236291156, 33.602556606379508 ], [ -7.556982152947761, 33.600294320161616 ], [ -7.499999999554868, 33.629877925101333 ], [ -7.469702493916226, 33.645603402963367 ], [ -7.34987415383899, 33.714530201063077 ], [ -7.250449136520571, 33.773214051577817 ], [ -7.184978410342579, 33.793307309472873 ], [ -7.130576871520897, 33.809982778213666 ], [ -7.079799173386281, 33.85223498905453 ], [ -7.000000000422981, 33.918536566931614 ], [ -6.995067184111237, 33.922633317074073 ], [ -6.955885776893881, 33.95291375036355 ], [ -6.894839677494972, 34.000000000147317 ], [ -6.889207103221323, 34.00436908443956 ], [ -6.800741459605596, 34.098303734004794 ], [ -6.735446434914024, 34.188902106416911 ], [ -6.655172867937369, 34.281062868461703 ], [ -6.593062431115152, 34.37675578566391 ], [ -6.500000000392768, 34.48714909525652 ], [ -6.493417787387826, 34.494951530202904 ], [ -6.490328320327303, 34.500000000164391 ], [ -6.448482159634297, 34.568764805088591 ], [ -6.401130638688268, 34.6553805943865 ], [ -6.357073517468527, 34.740038534992109 ], [ -6.31508088826504, 34.824590389304582 ], [ -6.274296206556153, 34.910358676347343 ], [ -6.233815606367581, 34.999999999650299 ], [ -6.20930865901666, 35.050827379972439 ], [ -6.152908516909836, 35.173849028623593 ], [ -6.108917284421239, 35.274384171625407 ], [ -6.064355022550925, 35.375991470707568 ], [ -6.016070528418791, 35.500000000299181 ], [ -6.00979974425489, 35.516192403517593 ], [ -6.000000000362556, 35.563728311722102 ], [ -5.998291304080857, 35.572013823227351 ], [ -5.975933303857672, 35.63744331088418 ], [ -5.951993991155002, 35.694815122028828 ], [ -5.921224286985579, 35.750563041678376 ], [ -5.912285479478402, 35.769304978095001 ], [ -5.907717243526394, 35.820136118039741 ], [ -5.889861591422378, 35.83295602196862 ], [ -5.870666215259831, 35.838844139972082 ], [ -5.852393272350152, 35.834970884845987 ], [ -5.82942031692452, 35.839174138925401 ], [ -5.81569364705644, 35.835387746507358 ], [ -5.800978657001023, 35.828509246188588 ], [ -5.782310385297723, 35.829221442119959 ], [ -5.765311276817114, 35.847649439403227 ], [ -5.746796744588202, 35.862947822100722 ], [ -5.729863523940415, 35.870187902449416 ], [ -5.726217720342968, 35.871750422172639 ], [ -5.718574710175234, 35.871802505896099 ], [ -5.691384921770453, 35.871993477791221 ], [ -5.681114296277508, 35.870362889118347 ], [ -5.665249342284135, 35.867844064947796 ], [ -5.646349832548621, 35.869368877766021 ] ] ], [ [ [ -2.453266870463458, 35.187719214718662 ], [ -2.439953777765664, 35.191234240222919 ], [ -2.42885953370115, 35.185961644802532 ], [ -2.424421836434664, 35.173657578573156 ], [ -2.437734929132421, 35.175415417687816 ], [ -2.448829173196971, 35.178930980131362 ], [ -2.453266870463458, 35.187719214718662 ] ] ] ] } }
]
}
