{
"type": "FeatureCollection",
"name": "Mulhouse",
"crs": { "type": "name", "properties": { "name": "urn:ogc:def:crs:OGC:1.3:CRS84" } },
"features": [
{ "type": "Feature", "properties": { "OBJECTID": 85.0, "YEAR": 1700.0, "OWNER_ID": 9618.0, "SHORT_NAME": "Mulhouse", "LONG_NAME": "Allied City of Mulhouse", "VARIANTS": null, "SHAPE_LENG": 50620.36, "Shape__Are": 133662454.14404297, "Shape__Len": 50718.835682605248 }, "geometry": { "type": "MultiPolygon", "coordinates": [ [ [ [ 7.244553412462518, 47.774178564267743 ], [ 7.255172338147296, 47.801125110414873 ], [ 7.258682727003841, 47.822715895192879 ], [ 7.27483051376778, 47.824913775901344 ], [ 7.282619188453789, 47.803804431089027 ], [ 7.305524473789105, 47.798605840018844 ], [ 7.326104126855012, 47.807662990709105 ], [ 7.341549836206971, 47.800178578130691 ], [ 7.331852387967598, 47.767913299832621 ], [ 7.313554488062688, 47.74887972477417 ], [ 7.299205774386263, 47.726208100755152 ], [ 7.278823580901247, 47.71964532704461 ], [ 7.262258935421289, 47.718055552905 ], [ 7.252451786716069, 47.723626842635269 ], [ 7.232771671541375, 47.73440310699047 ], [ 7.221955286275699, 47.750832956144485 ], [ 7.231762434082585, 47.762390495721483 ], [ 7.244553412462518, 47.774178564267743 ] ] ] ] } }
]
}
