{
"type": "FeatureCollection",
"name": "my cities",
"crs": { "type": "name", "properties": { "name": "urn:ogc:def:crs:OGC:1.3:CRS84" } },
"features": [
{ "type": "Feature", "properties": { "id": null, "names": "Philippeville" }, "geometry": { "type": "Point", "coordinates": [ 4.544119153044691, 50.195965195347618 ] } },
{ "type": "Feature", "properties": { "id": null, "names": "Charleroi" }, "geometry": { "type": "Point", "coordinates": [ 4.446987402630178, 50.409972077449339 ] } },
{ "type": "Feature", "properties": { "id": null, "names": "Nivelles" }, "geometry": { "type": "Point", "coordinates": [ 4.345921650370101, 50.585973189402232 ] } },
{ "type": "Feature", "properties": { "id": null, "names": "Waterloo" }, "geometry": { "type": "Point", "coordinates": [ 4.421357214203754, 50.7081008850896 ] } },
{ "type": "Feature", "properties": { "id": null, "names": "Ramillies" }, "geometry": { "type": "Point", "coordinates": [ 4.869556814215398, 50.629199422904335 ] } },
{ "type": "Feature", "properties": { "id": null, "names": "Merdorp" }, "geometry": { "type": "Point", "coordinates": [ 4.940578595058788, 50.662276611357107 ] } },
{ "type": "Feature", "properties": { "id": null, "names": "Huy" }, "geometry": { "type": "Point", "coordinates": [ 5.244327115388995, 50.518093564005426 ] } },
{ "type": "Feature", "properties": { "id": null, "names": "Fourmies" }, "geometry": { "type": "Point", "coordinates": [ 4.030938046064627, 49.9854674578445 ] } },
{ "type": "Feature", "properties": { "id": null, "names": "Bouchain" }, "geometry": { "type": "Point", "coordinates": [ 3.319093401892744, 50.281371702738966 ] } },
{ "type": "Feature", "properties": { "id": null, "names": "Lens" }, "geometry": { "type": "Point", "coordinates": [ 2.832796590706636, 50.428457789493564 ] } },
{ "type": "Feature", "properties": { "id": null, "names": "Hazebrouck" }, "geometry": { "type": "Point", "coordinates": [ 2.55733640681405, 50.717311180290316 ] } },
{ "type": "Feature", "properties": { "id": null, "names": "Aire" }, "geometry": { "type": "Point", "coordinates": [ 2.402452749155583, 50.637725387057998 ] } },
{ "type": "Feature", "properties": { "id": null, "names": "Calais" }, "geometry": { "type": "Point", "coordinates": [ 1.880021344307591, 50.966126779792859 ] } },
{ "type": "Feature", "properties": { "id": null, "names": "Crecy" }, "geometry": { "type": "Point", "coordinates": [ 1.886441392293433, 50.254833750113328 ] } },
{ "type": "Feature", "properties": { "id": null, "names": "Thionville" }, "geometry": { "type": "Point", "coordinates": [ 6.166158961916121, 49.357975433946166 ] } },
{ "type": "Feature", "properties": { "id": null, "names": "Homburg" }, "geometry": { "type": "Point", "coordinates": [ 7.414303334603997, 49.313912004996922 ] } },
{ "type": "Feature", "properties": { "id": null, "names": "Saarlouis" }, "geometry": { "type": "Point", "coordinates": [ 6.747009385320142, 49.31569944201803 ] } },
{ "type": "Feature", "properties": { "id": null, "names": "Wetzlar" }, "geometry": { "type": "Point", "coordinates": [ 8.524169130156643, 50.6090872942899 ] } },
{ "type": "Feature", "properties": { "id": null, "names": "Marburg" }, "geometry": { "type": "Point", "coordinates": [ 8.778162278596566, 50.801961002767385 ] } },
{ "type": "Feature", "properties": { "id": null, "names": "Hamm" }, "geometry": { "type": "Point", "coordinates": [ 7.811945056727162, 51.680627524098178 ] } },
{ "type": "Feature", "properties": { "id": null, "names": "Dortmund" }, "geometry": { "type": "Point", "coordinates": [ 7.458039911507554, 51.513877856033695 ] } },
{ "type": "Feature", "properties": { "id": null, "names": "Bochum" }, "geometry": { "type": "Point", "coordinates": [ 7.224510666022504, 51.481404014599022 ] } },
{ "type": "Feature", "properties": { "id": null, "names": "Duisburg" }, "geometry": { "type": "Point", "coordinates": [ 6.763470970039135, 51.43990377729925 ] } },
{ "type": "Feature", "properties": { "id": null, "names": "Geldem" }, "geometry": { "type": "Point", "coordinates": [ 6.30726965499844, 51.518720059846558 ] } },
{ "type": "Feature", "properties": { "id": null, "names": "Rheinberg" }, "geometry": { "type": "Point", "coordinates": [ 6.587521529927121, 51.544956117751454 ] } },
{ "type": "Feature", "properties": { "id": null, "names": "Grave" }, "geometry": { "type": "Point", "coordinates": [ 5.743246659964043, 51.756099085133414 ] } },
{ "type": "Feature", "properties": { "id": null, "names": "Oudenarde" }, "geometry": { "type": "Point", "coordinates": [ 3.609375938116024, 50.843843943783796 ] } },
{ "type": "Feature", "properties": { "id": null, "names": "Ath" }, "geometry": { "type": "Point", "coordinates": [ 3.780355548117142, 50.631362873649259 ] } },
{ "type": "Feature", "properties": { "id": null, "names": "Noyon" }, "geometry": { "type": "Point", "coordinates": [ 2.993498416852231, 49.57362944748575 ] } },
{ "type": "Feature", "properties": { "id": null, "names": "Montdider" }, "geometry": { "type": "Point", "coordinates": [ 2.565361466796312, 49.646431264809614 ] } },
{ "type": "Feature", "properties": { "id": null, "names": "Cantigny" }, "geometry": { "type": "Point", "coordinates": [ 2.494139059453364, 49.664744589187222 ] } },
{ "type": "Feature", "properties": { "id": null, "names": "Chaumont" }, "geometry": { "type": "Point", "coordinates": [ 1.881626356304009, 49.261567706187293 ] } },
{ "type": "Feature", "properties": { "id": null, "names": "Maubeuge" }, "geometry": { "type": "Point", "coordinates": [ 3.973395368896852, 50.278040504730392 ] } },
{ "type": "Feature", "properties": { "id": null, "names": "Menin" }, "geometry": { "type": "Point", "coordinates": [ 3.127516918556705, 50.794606226713462 ] } },
{ "type": "Feature", "properties": { "id": null, "names": "Nieuwpoort" }, "geometry": { "type": "Point", "coordinates": [ 2.760169797866739, 51.122411369731985 ] } },
{ "type": "Feature", "properties": { "id": null, "names": "Dondermonde" }, "geometry": { "type": "Point", "coordinates": [ 4.097546043917705, 51.030583936956909 ] } },
{ "type": "Feature", "properties": { "id": null, "names": "Roermond" }, "geometry": { "type": "Point", "coordinates": [ 5.990256440744106, 51.187342951925658 ] } },
{ "type": "Feature", "properties": { "id": null, "names": "Stevensweert" }, "geometry": { "type": "Point", "coordinates": [ 5.772777315223666, 51.039226125607968 ] } },
{ "type": "Feature", "properties": { "id": null, "names": "Trarbach" }, "geometry": { "type": "Point", "coordinates": [ 7.120184886252509, 49.957724632384092 ] } },
{ "type": "Feature", "properties": { "id": null, "names": "Verdun" }, "geometry": { "type": "Point", "coordinates": [ 5.386532069128191, 49.163010428165741 ] } },
{ "type": "Feature", "properties": { "id": null, "names": "Charleville" }, "geometry": { "type": "Point", "coordinates": [ 4.715074409555996, 49.776423274327058 ] } },
{ "type": "Feature", "properties": { "id": null, "names": "Bergen-op-zoom" }, "geometry": { "type": "Point", "coordinates": [ 4.272492351531928, 51.498018524040369 ] } },
{ "type": "Feature", "properties": { "id": null, "names": "Hust" }, "geometry": { "type": "Point", "coordinates": [ 4.057019491007066, 51.281180905935784 ] } },
{ "type": "Feature", "properties": { "id": null, "names": "Venloo" }, "geometry": { "type": "Point", "coordinates": [ 6.159183953371601, 51.369943097315968 ] } },
{ "type": "Feature", "properties": { "id": null, "names": "Soissons" }, "geometry": { "type": "Point", "coordinates": [ 3.325535273620053, 49.383835648016564 ] } },
{ "type": "Feature", "properties": { "id": null, "names": "Compiegne" }, "geometry": { "type": "Point", "coordinates": [ 2.8199564947349, 49.420783110584154 ] } },
{ "type": "Feature", "properties": { "id": null, "names": "Eindhoven" }, "geometry": { "type": "Point", "coordinates": [ 5.486683926854523, 51.425144602394688 ] } },
{ "type": "Feature", "properties": { "id": null, "names": "Limburg" }, "geometry": { "type": "Point", "coordinates": [ 8.066540084665709, 50.38856510502589 ] } },
{ "type": "Feature", "properties": { "id": null, "names": "Friedberg" }, "geometry": { "type": "Point", "coordinates": [ 8.744657653170398, 50.330712275105185 ] } },
{ "type": "Feature", "properties": { "id": null, "names": "Thionville" }, "geometry": null },
{ "type": "Feature", "properties": { "id": null, "names": "Dinant" }, "geometry": { "type": "Point", "coordinates": [ 4.916329442807663, 50.260626777450639 ] } },
{ "type": "Feature", "properties": { "id": null, "names": "Givet" }, "geometry": { "type": "Point", "coordinates": [ 4.825578420323357, 50.137965364069075 ] } },
{ "type": "Feature", "properties": { "id": null, "names": "Avesnes" }, "geometry": { "type": "Point", "coordinates": [ 3.931899787189248, 50.124461850738946 ] } },
{ "type": "Feature", "properties": { "id": null, "names": "Landrecies" }, "geometry": { "type": "Point", "coordinates": [ 3.687012340640855, 50.125264858757582 ] } },
{ "type": "Feature", "properties": { "id": null, "names": "Le Quesnoy" }, "geometry": { "type": "Point", "coordinates": [ 3.635580011467485, 50.247580293234435 ] } },
{ "type": "Feature", "properties": { "id": null, "names": "Conde" }, "geometry": { "type": "Point", "coordinates": [ 3.591287940956086, 50.448948256463908 ] } },
{ "type": "Feature", "properties": { "id": null, "names": "Ft. Mortagne" }, "geometry": { "type": "Point", "coordinates": [ 3.451461336893981, 50.49967265258104 ] } },
{ "type": "Feature", "properties": { "id": null, "names": "Bethune" }, "geometry": { "type": "Point", "coordinates": [ 2.64934873517379, 50.529333913265731 ] } },
{ "type": "Feature", "properties": { "id": null, "names": "Saint-Venant" }, "geometry": { "type": "Point", "coordinates": [ 2.549135798644775, 50.623933549547402 ] } },
{ "type": "Feature", "properties": { "id": null, "names": "Bergues" }, "geometry": { "type": "Point", "coordinates": [ 2.435681513144961, 50.965573993054889 ] } },
{ "type": "Feature", "properties": { "id": null, "names": "Gravelines" }, "geometry": { "type": "Point", "coordinates": [ 2.126838394212126, 50.987071903026738 ] } },
{ "type": "Feature", "properties": { "id": null, "names": "Limberg" }, "geometry": { "type": "Point", "coordinates": [ 5.938939943904094, 50.612512851020341 ] } },
{ "type": "Feature", "properties": { "id": null, "names": "Ft. Knocke" }, "geometry": { "type": "Point", "coordinates": [ 2.80604430090638, 50.98043771766249 ] } },
{ "type": "Feature", "properties": { "id": null, "names": "Furnes" }, "geometry": { "type": "Point", "coordinates": [ 2.661311090209914, 51.071470279273562 ] } },
{ "type": "Feature", "properties": { "id": null, "names": "Narva" }, "geometry": { "type": "Point", "coordinates": [ 28.196058225768905, 59.37506612996561 ] } },
{ "type": "Feature", "properties": { "id": null, "names": "Nienshants" }, "geometry": { "type": "Point", "coordinates": [ 30.446897700142831, 59.92755331318542 ] } },
{ "type": "Feature", "properties": { "id": null, "names": "Ladoga" }, "geometry": { "type": "Point", "coordinates": [ 32.328488951207859, 60.105339819592878 ] } },
{ "type": "Feature", "properties": { "id": null, "names": "Tikhvin" }, "geometry": { "type": "Point", "coordinates": [ 33.521716673702215, 59.635773252472461 ] } },
{ "type": "Feature", "properties": { "id": null, "names": "Cherepovets" }, "geometry": { "type": "Point", "coordinates": [ 37.959765380313286, 59.098974051167083 ] } },
{ "type": "Feature", "properties": { "id": null, "names": "Beloozero" }, "geometry": { "type": "Point", "coordinates": [ 37.801225383070118, 60.00866887891744 ] } },
{ "type": "Feature", "properties": { "id": null, "names": "Borovichi" }, "geometry": { "type": "Point", "coordinates": [ 33.921280315402903, 58.407754325249961 ] } },
{ "type": "Feature", "properties": { "id": null, "names": "Novgorod" }, "geometry": { "type": "Point", "coordinates": [ 31.287159685531662, 58.532115933319794 ] } },
{ "type": "Feature", "properties": { "id": null, "names": "Staraya Rusa" }, "geometry": { "type": "Point", "coordinates": [ 31.373928197536369, 57.989461359534012 ] } },
{ "type": "Feature", "properties": { "id": null, "names": "Pskow" }, "geometry": { "type": "Point", "coordinates": [ 28.304893791443991, 57.801588369726694 ] } },
{ "type": "Feature", "properties": { "id": null, "names": "Izborsk" }, "geometry": { "type": "Point", "coordinates": [ 27.865427346383115, 57.697409903381363 ] } },
{ "type": "Feature", "properties": { "id": null, "names": "Ostrov" }, "geometry": { "type": "Point", "coordinates": [ 28.350286577816821, 57.343640417315427 ] } },
{ "type": "Feature", "properties": { "id": null, "names": "Luga" }, "geometry": { "type": "Point", "coordinates": [ 29.848114626095597, 58.733336148202014 ] } },
{ "type": "Feature", "properties": { "id": null, "names": "Slanzy" }, "geometry": { "type": "Point", "coordinates": [ 28.125197274298465, 59.067258144420727 ] } },
{ "type": "Feature", "properties": { "id": null, "names": "Jewe" }, "geometry": { "type": "Point", "coordinates": [ 27.415181788334031, 59.356050165766703 ] } },
{ "type": "Feature", "properties": { "id": null, "names": "Wesenberg" }, "geometry": { "type": "Point", "coordinates": [ 26.355682017906183, 59.349395132156914 ] } },
{ "type": "Feature", "properties": { "id": null, "names": "Taps" }, "geometry": { "type": "Point", "coordinates": [ 25.963767529366393, 59.259552746836654 ] } },
{ "type": "Feature", "properties": { "id": null, "names": "Weissenstein" }, "geometry": { "type": "Point", "coordinates": [ 25.557877016998667, 58.887773079858356 ] } },
{ "type": "Feature", "properties": { "id": null, "names": "Dorpat" }, "geometry": { "type": "Point", "coordinates": [ 26.722824631876723, 58.373725216419039 ] } },
{ "type": "Feature", "properties": { "id": null, "names": "Nuustaku" }, "geometry": { "type": "Point", "coordinates": [ 26.498706118037397, 58.061830202648288 ] } },
{ "type": "Feature", "properties": { "id": null, "names": "Werro" }, "geometry": { "type": "Point", "coordinates": [ 27.012889892880111, 57.837602166873815 ] } },
{ "type": "Feature", "properties": { "id": null, "names": "Marienburg" }, "geometry": { "type": "Point", "coordinates": [ 27.049231739270976, 57.42175121346186 ] } },
{ "type": "Feature", "properties": { "id": null, "names": "Schawenberg" }, "geometry": { "type": "Point", "coordinates": [ 26.754778048630005, 57.17548719588077 ] } },
{ "type": "Feature", "properties": { "id": null, "names": "Helsingfors" }, "geometry": { "type": "Point", "coordinates": [ 24.944511594018014, 60.166679638023986 ] } },
{ "type": "Feature", "properties": { "id": null, "names": "Reval" }, "geometry": { "type": "Point", "coordinates": [ 24.751210160413798, 59.433236786429845 ] } },
{ "type": "Feature", "properties": { "id": null, "names": "Hapsal" }, "geometry": { "type": "Point", "coordinates": [ 23.548151466338176, 58.934958511910409 ] } },
{ "type": "Feature", "properties": { "id": null, "names": "Pernau" }, "geometry": { "type": "Point", "coordinates": [ 24.522602528890996, 58.397018777524842 ] } },
{ "type": "Feature", "properties": { "id": null, "names": "Fellin" }, "geometry": { "type": "Point", "coordinates": [ 25.570755279598849, 58.357681130117328 ] } },
{ "type": "Feature", "properties": { "id": null, "names": "St. Johannis" }, "geometry": { "type": "Point", "coordinates": [ 25.489551024386113, 58.532896424760274 ] } },
{ "type": "Feature", "properties": { "id": null, "names": "Rujen" }, "geometry": { "type": "Point", "coordinates": [ 25.334596044632349, 57.895544050089725 ] } },
{ "type": "Feature", "properties": { "id": null, "names": "Walk" }, "geometry": { "type": "Point", "coordinates": [ 26.025028359484601, 57.773057273792816 ] } },
{ "type": "Feature", "properties": { "id": null, "names": "Wolmar" }, "geometry": { "type": "Point", "coordinates": [ 25.425999868132674, 57.536625137758378 ] } },
{ "type": "Feature", "properties": { "id": null, "names": "Ronneburg" }, "geometry": { "type": "Point", "coordinates": [ 25.607753232834369, 57.335607572054762 ] } },
{ "type": "Feature", "properties": { "id": null, "names": "Wenden" }, "geometry": { "type": "Point", "coordinates": [ 25.273447671292796, 57.312575123484564 ] } },
{ "type": "Feature", "properties": { "id": null, "names": "Turaida" }, "geometry": { "type": "Point", "coordinates": [ 24.846463340214942, 57.185538779921806 ] } },
{ "type": "Feature", "properties": { "id": null, "names": "Erlaa" }, "geometry": { "type": "Point", "coordinates": [ 25.634738569003929, 56.899960878573815 ] } },
{ "type": "Feature", "properties": { "id": null, "names": "Modohn" }, "geometry": { "type": "Point", "coordinates": [ 26.214808367619444, 56.853613032005853 ] } },
{ "type": "Feature", "properties": { "id": null, "names": "Noteborg" }, "geometry": { "type": "Point", "coordinates": [ 31.017140858724961, 59.931663754600962 ] } },
{ "type": "Feature", "properties": { "id": null, "names": "Frederichstat" }, "geometry": { "type": "Point", "coordinates": [ 25.083492971032872, 56.61645784773085 ] } },
{ "type": "Feature", "properties": { "id": null, "names": "Kokenhausen" }, "geometry": { "type": "Point", "coordinates": [ 25.439313246931103, 56.646496898793146 ] } },
{ "type": "Feature", "properties": { "id": null, "names": "Dubbeln" }, "geometry": { "type": "Point", "coordinates": [ 23.778818626072717, 56.967984184569083 ] } },
{ "type": "Feature", "properties": { "id": null, "names": "Tukum" }, "geometry": { "type": "Point", "coordinates": [ 23.147444508606785, 56.967984184569076 ] } },
{ "type": "Feature", "properties": { "id": null, "names": "Cholm" }, "geometry": { "type": "Point", "coordinates": [ 31.188982743906756, 57.150669117249571 ] } },
{ "type": "Feature", "properties": { "id": null, "names": "Birkai" }, "geometry": { "type": "Point", "coordinates": [ 24.78311445905366, 56.209812525520547 ] } },
{ "type": "Feature", "properties": { "id": null, "names": "Subat" }, "geometry": { "type": "Point", "coordinates": [ 25.938840781544808, 55.985188455773446 ] } },
{ "type": "Feature", "properties": { "id": null, "names": "Jakobsztat" }, "geometry": { "type": "Point", "coordinates": [ 25.914016111133307, 56.487991904061246 ] } },
{ "type": "Feature", "properties": { "id": null, "names": "Jersika" }, "geometry": { "type": "Point", "coordinates": [ 26.228461936345695, 56.228216536429933 ] } },
{ "type": "Feature", "properties": { "id": null, "names": "Pokroje" }, "geometry": { "type": "Point", "coordinates": [ 23.856326763690838, 55.975543434138913 ] } },
{ "type": "Feature", "properties": { "id": null, "names": "Mitawa" }, "geometry": { "type": "Point", "coordinates": [ 23.723928521496152, 56.646041940057145 ] } },
{ "type": "Feature", "properties": { "id": null, "names": "Okmiany" }, "geometry": { "type": "Point", "coordinates": [ 22.874028346991182, 56.320868904058806 ] } },
{ "type": "Feature", "properties": { "id": null, "names": "Moschieki" }, "geometry": { "type": "Point", "coordinates": [ 22.333574584907385, 56.311403395169442 ] } },
{ "type": "Feature", "properties": { "id": null, "names": "Libawa" }, "geometry": { "type": "Point", "coordinates": [ 21.02476279487863, 56.50131483416768 ] } },
{ "type": "Feature", "properties": { "id": null, "names": "Grobina" }, "geometry": { "type": "Point", "coordinates": [ 21.141128437432556, 56.519388469588463 ] } },
{ "type": "Feature", "properties": { "id": null, "names": "Windawa" }, "geometry": { "type": "Point", "coordinates": [ 21.557027863597504, 57.387288003755252 ] } },
{ "type": "Feature", "properties": { "id": null, "names": "Pilten" }, "geometry": { "type": "Point", "coordinates": [ 21.659171038728175, 57.223163076566649 ] } },
{ "type": "Feature", "properties": { "id": null, "names": "Poniewe" }, "geometry": { "type": "Point", "coordinates": [ 24.349156809099838, 55.730893088901347 ] } },
{ "type": "Feature", "properties": { "id": null, "names": "Upita" }, "geometry": { "type": "Point", "coordinates": [ 24.232467928649932, 55.648811907204568 ] } },
{ "type": "Feature", "properties": { "id": null, "names": "Radviliskis" }, "geometry": { "type": "Point", "coordinates": [ 23.536698357546253, 55.812075540305614 ] } },
{ "type": "Feature", "properties": { "id": null, "names": "Szawle" }, "geometry": { "type": "Point", "coordinates": [ 23.31075506825405, 55.931223812201935 ] } },
{ "type": "Feature", "properties": { "id": null, "names": "Preli" }, "geometry": { "type": "Point", "coordinates": [ 26.698934693949159, 56.285223594418255 ] } },
{ "type": "Feature", "properties": { "id": null, "names": "Rzeczyca" }, "geometry": { "type": "Point", "coordinates": [ 27.328602115324276, 56.507409703753716 ] } },
{ "type": "Feature", "properties": { "id": null, "names": "Newel" }, "geometry": { "type": "Point", "coordinates": [ 29.927111561132612, 56.024364690577876 ] } },
{ "type": "Feature", "properties": { "id": null, "names": "Velikiye Luki" }, "geometry": { "type": "Point", "coordinates": [ 30.523485479221467, 56.336800795953074 ] } },
{ "type": "Feature", "properties": { "id": null, "names": "Tver" }, "geometry": { "type": "Point", "coordinates": [ 35.897854229767496, 56.846395451925915 ] } },
{ "type": "Feature", "properties": { "id": null, "names": "Polotsk" }, "geometry": { "type": "Point", "coordinates": [ 28.775845921606027, 55.474973173347124 ] } },
{ "type": "Feature", "properties": { "id": null, "names": "Wizebsk" }, "geometry": { "type": "Point", "coordinates": [ 30.228620687441264, 55.18260695423708 ] } },
{ "type": "Feature", "properties": { "id": null, "names": "Vidzy" }, "geometry": { "type": "Point", "coordinates": [ 26.648760989428208, 55.385102761122262 ] } },
{ "type": "Feature", "properties": { "id": null, "names": "Dyneburg" }, "geometry": { "type": "Point", "coordinates": [ 26.514078532768572, 55.86568006607866 ] } },
{ "type": "Feature", "properties": { "id": null, "names": "Maliaty" }, "geometry": { "type": "Point", "coordinates": [ 25.444699826891078, 55.233327764691843 ] } },
{ "type": "Feature", "properties": { "id": null, "names": "Uziany" }, "geometry": { "type": "Point", "coordinates": [ 25.592850529216676, 55.495120055358036 ] } },
{ "type": "Feature", "properties": { "id": null, "names": "Wilkomierz" }, "geometry": { "type": "Point", "coordinates": [ 24.777348254142598, 55.245613988409467 ] } },
{ "type": "Feature", "properties": { "id": null, "names": "Rosiene" }, "geometry": { "type": "Point", "coordinates": [ 23.112673089829514, 55.391222880530805 ] } },
{ "type": "Feature", "properties": { "id": null, "names": "Kurszany" }, "geometry": { "type": "Point", "coordinates": [ 22.945666843571566, 55.989425476589254 ] } },
{ "type": "Feature", "properties": { "id": null, "names": "Wormie" }, "geometry": { "type": "Point", "coordinates": [ 22.357609567181427, 55.741823472205944 ] } },
{ "type": "Feature", "properties": { "id": null, "names": "Telsze" }, "geometry": { "type": "Point", "coordinates": [ 22.246307143232539, 55.98667097616741 ] } },
{ "type": "Feature", "properties": { "id": null, "names": "Plunge" }, "geometry": { "type": "Point", "coordinates": [ 21.855201915573264, 55.914135913743017 ] } },
{ "type": "Feature", "properties": { "id": null, "names": "Palanga" }, "geometry": { "type": "Point", "coordinates": [ 21.06926664856271, 55.923334035142169 ] } },
{ "type": "Feature", "properties": { "id": null, "names": "Kovno" }, "geometry": { "type": "Point", "coordinates": [ 23.907699422664582, 54.894402420338615 ] } },
{ "type": "Feature", "properties": { "id": null, "names": "Schaki" }, "geometry": { "type": "Point", "coordinates": [ 23.084452906332544, 54.949550514786033 ] } },
{ "type": "Feature", "properties": { "id": null, "names": "Vilno" }, "geometry": { "type": "Point", "coordinates": [ 25.273884592405782, 54.67159312012474 ] } },
{ "type": "Feature", "properties": { "id": null, "names": "Troki" }, "geometry": { "type": "Point", "coordinates": [ 24.94054551217318, 54.642742284154934 ] } },
{ "type": "Feature", "properties": { "id": null, "names": "Olita" }, "geometry": { "type": "Point", "coordinates": [ 24.033332901767398, 54.399622399278066 ] } },
{ "type": "Feature", "properties": { "id": null, "names": "Kalwaria" }, "geometry": { "type": "Point", "coordinates": [ 23.226185147832965, 54.410523794359015 ] } },
{ "type": "Feature", "properties": { "id": null, "names": "Serrey" }, "geometry": { "type": "Point", "coordinates": [ 23.952944310448661, 54.133173337383624 ] } },
{ "type": "Feature", "properties": { "id": null, "names": "Merecz" }, "geometry": { "type": "Point", "coordinates": [ 24.188007285587425, 54.159797202506276 ] } },
{ "type": "Feature", "properties": { "id": null, "names": "Drouskeniki" }, "geometry": { "type": "Point", "coordinates": [ 23.978618153749398, 54.016863471596551 ] } },
{ "type": "Feature", "properties": { "id": null, "names": "Suwalki" }, "geometry": { "type": "Point", "coordinates": [ 22.923886165033675, 54.092547203467682 ] } },
{ "type": "Feature", "properties": { "id": null, "names": "Augustavas" }, "geometry": { "type": "Point", "coordinates": [ 22.9889826857525, 53.839014037689097 ] } },
{ "type": "Feature", "properties": { "id": null, "names": "Molodetschno" }, "geometry": { "type": "Point", "coordinates": [ 26.881866860118517, 54.30886933434526 ] } },
{ "type": "Feature", "properties": { "id": null, "names": "Minsk" }, "geometry": { "type": "Point", "coordinates": [ 27.53844383633421, 53.88633826380768 ] } },
{ "type": "Feature", "properties": { "id": null, "names": "Soleczniki" }, "geometry": { "type": "Point", "coordinates": [ 25.383524529780143, 54.322617808019309 ] } },
{ "type": "Feature", "properties": { "id": null, "names": "Lida" }, "geometry": { "type": "Point", "coordinates": [ 25.265677380202966, 53.906178643092254 ] } },
{ "type": "Feature", "properties": { "id": null, "names": "Borisov" }, "geometry": { "type": "Point", "coordinates": [ 28.545195199864935, 54.184926246885141 ] } },
{ "type": "Feature", "properties": { "id": null, "names": "Mogliev" }, "geometry": { "type": "Point", "coordinates": [ 30.338155404146242, 53.894275545962991 ] } },
{ "type": "Feature", "properties": { "id": null, "names": "Orsha" }, "geometry": { "type": "Point", "coordinates": [ 30.392870152164228, 54.500563634994904 ] } },
{ "type": "Feature", "properties": { "id": null, "names": "Nowogrudok" }, "geometry": { "type": "Point", "coordinates": [ 25.848284225925084, 53.581698134236575 ] } },
{ "type": "Feature", "properties": { "id": null, "names": "Baranawitschy" }, "geometry": { "type": "Point", "coordinates": [ 26.007377877854275, 53.117037072007342 ] } },
{ "type": "Feature", "properties": { "id": null, "names": "Slonim" }, "geometry": { "type": "Point", "coordinates": [ 25.318445545839495, 53.078655358369765 ] } },
{ "type": "Feature", "properties": { "id": null, "names": "Sluzk" }, "geometry": { "type": "Point", "coordinates": [ 27.541495235742854, 53.017173374407797 ] } },
{ "type": "Feature", "properties": { "id": null, "names": "Rogachev" }, "geometry": { "type": "Point", "coordinates": [ 30.089834624679987, 53.094012152884588 ] } },
{ "type": "Feature", "properties": { "id": null, "names": "Borbujsk" }, "geometry": { "type": "Point", "coordinates": [ 29.243229119771108, 53.158791559001997 ] } },
{ "type": "Feature", "properties": { "id": null, "names": "Roslawl" }, "geometry": { "type": "Point", "coordinates": [ 32.869712096335476, 53.952797420333667 ] } },
{ "type": "Feature", "properties": { "id": null, "names": "Smolensk" }, "geometry": { "type": "Point", "coordinates": [ 32.056842968509791, 54.777667073364512 ] } },
{ "type": "Feature", "properties": { "id": null, "names": "Mscislaw" }, "geometry": { "type": "Point", "coordinates": [ 31.720189437195351, 54.014815564110741 ] } },
{ "type": "Feature", "properties": { "id": null, "names": "Rzhev" }, "geometry": { "type": "Point", "coordinates": [ 34.314339275013836, 56.246646888538812 ] } },
{ "type": "Feature", "properties": { "id": null, "names": "Moskva" }, "geometry": { "type": "Point", "coordinates": [ 37.624410546513623, 55.752182360703095 ] } },
{ "type": "Feature", "properties": { "id": null, "names": "Klin" }, "geometry": { "type": "Point", "coordinates": [ 36.727910715497508, 56.329723292292691 ] } },
{ "type": "Feature", "properties": { "id": null, "names": "Dmitrow" }, "geometry": { "type": "Point", "coordinates": [ 37.507753705757516, 56.352751644319163 ] } },
{ "type": "Feature", "properties": { "id": null, "names": "Vyazma" }, "geometry": { "type": "Point", "coordinates": [ 34.282911176362681, 55.243474820686721 ] } },
{ "type": "Feature", "properties": { "id": null, "names": "Bryansk" }, "geometry": { "type": "Point", "coordinates": [ 34.455499379125143, 53.278185085164679 ] } },
{ "type": "Feature", "properties": { "id": null, "names": "Gomel" }, "geometry": { "type": "Point", "coordinates": [ 31.06126472479674, 52.444623790992971 ] } },
{ "type": "Feature", "properties": { "id": null, "names": "Turov" }, "geometry": { "type": "Point", "coordinates": [ 27.224772800889525, 52.058038625135374 ] } },
{ "type": "Feature", "properties": { "id": null, "names": "Lachwa" }, "geometry": { "type": "Point", "coordinates": [ 26.806785747324188, 52.24390987908756 ] } },
{ "type": "Feature", "properties": { "id": null, "names": "Pinsk" }, "geometry": { "type": "Point", "coordinates": [ 26.092162720260873, 52.122933487497264 ] } },
{ "type": "Feature", "properties": { "id": null, "names": "Siedlcza" }, "geometry": { "type": "Point", "coordinates": [ 22.273873458363767, 52.164719935656265 ] } },
{ "type": "Feature", "properties": { "id": null, "names": "Lublin" }, "geometry": { "type": "Point", "coordinates": [ 22.562419359857248, 51.23264371485525 ] } },
{ "type": "Feature", "properties": { "id": null, "names": "Kiiev" }, "geometry": { "type": "Point", "coordinates": [ 30.530634654780044, 50.413371497274881 ] } },
{ "type": "Feature", "properties": { "id": null, "names": "Chernigov" }, "geometry": { "type": "Point", "coordinates": [ 31.243951472300974, 51.494754544535269 ] } },
{ "type": "Feature", "properties": { "id": null, "names": "Kursk" }, "geometry": { "type": "Point", "coordinates": [ 36.20417687005417, 51.723899878984874 ] } },
{ "type": "Feature", "properties": { "id": null, "names": "Bialystok" }, "geometry": { "type": "Point", "coordinates": [ 23.152868208809942, 53.126044065053257 ] } },
{ "type": "Feature", "properties": { "id": null, "names": "Bielsk" }, "geometry": { "type": "Point", "coordinates": [ 23.189273532830136, 52.768673093844043 ] } },
{ "type": "Feature", "properties": { "id": null, "names": "Brest-Litowsk" }, "geometry": { "type": "Point", "coordinates": [ 23.658750523840745, 52.083282895769145 ] } },
{ "type": "Feature", "properties": { "id": null, "names": "Bereza" }, "geometry": { "type": "Point", "coordinates": [ 25.004609846212794, 52.53089805699517 ] } },
{ "type": "Feature", "properties": { "id": null, "names": "Ratno" }, "geometry": { "type": "Point", "coordinates": [ 24.529065301198834, 51.675600147275894 ] } },
{ "type": "Feature", "properties": { "id": null, "names": "Johannisburg" }, "geometry": { "type": "Point", "coordinates": [ 21.786530891676538, 53.643204196393981 ] } },
{ "type": "Feature", "properties": { "id": null, "names": "Ortelsburg" }, "geometry": { "type": "Point", "coordinates": [ 21.007229424368973, 53.548679386673214 ] } },
{ "type": "Feature", "properties": { "id": null, "names": "Konigsberg" }, "geometry": { "type": "Point", "coordinates": [ 20.494094486193504, 54.710858132137972 ] } },
{ "type": "Feature", "properties": { "id": null, "names": "Wehlau" }, "geometry": { "type": "Point", "coordinates": [ 21.227178256991039, 54.617505923267579 ] } },
{ "type": "Feature", "properties": { "id": null, "names": "Insterburg" }, "geometry": { "type": "Point", "coordinates": [ 21.776102283233229, 54.61256503324811 ] } },
{ "type": "Feature", "properties": { "id": null, "names": "Tilsit" }, "geometry": { "type": "Point", "coordinates": [ 21.872803925161904, 55.062991707020373 ] } },
{ "type": "Feature", "properties": { "id": null, "names": "Gumbinnen" }, "geometry": { "type": "Point", "coordinates": [ 22.177129680643322, 54.568070023270607 ] } },
{ "type": "Feature", "properties": { "id": null, "names": "Ragain" }, "geometry": { "type": "Point", "coordinates": [ 22.029233051811236, 55.034885317558157 ] } },
{ "type": "Feature", "properties": { "id": null, "names": "Memel" }, "geometry": { "type": "Point", "coordinates": [ 21.127632449123311, 55.71242236030681 ] } },
{ "type": "Feature", "properties": { "id": null, "names": "Heidekrug" }, "geometry": { "type": "Point", "coordinates": [ 21.454267131189376, 55.362527267472309 ] } },
{ "type": "Feature", "properties": { "id": null, "names": "Rastenburg" }, "geometry": { "type": "Point", "coordinates": [ 21.378274572504655, 54.078043784280666 ] } },
{ "type": "Feature", "properties": { "id": null, "names": "Lidzbark" }, "geometry": { "type": "Point", "coordinates": [ 20.605350258513642, 54.089481401169692 ] } },
{ "type": "Feature", "properties": { "id": null, "names": "Olsztyn" }, "geometry": { "type": "Point", "coordinates": [ 20.477862742299092, 53.775126524834953 ] } },
{ "type": "Feature", "properties": { "id": null, "names": "Osterod" }, "geometry": { "type": "Point", "coordinates": [ 19.965412922220974, 53.712148692302534 ] } },
{ "type": "Feature", "properties": { "id": null, "names": "Deutsch Eylau" }, "geometry": { "type": "Point", "coordinates": [ 19.565327099277066, 53.598150078891173 ] } },
{ "type": "Feature", "properties": { "id": null, "names": "Starogard" }, "geometry": { "type": "Point", "coordinates": [ 18.535677924203092, 53.950256592562113 ] } },
{ "type": "Feature", "properties": { "id": null, "names": "Marienwerder" }, "geometry": { "type": "Point", "coordinates": [ 18.941763159674732, 53.739879438147511 ] } },
{ "type": "Feature", "properties": { "id": null, "names": "Tczew" }, "geometry": { "type": "Point", "coordinates": [ 18.764030563540331, 54.091020839639391 ] } },
{ "type": "Feature", "properties": { "id": null, "names": "Oliwa" }, "geometry": { "type": "Point", "coordinates": [ 18.625669112119244, 54.405182879775879 ] } },
{ "type": "Feature", "properties": { "id": null, "names": "Lowicz" }, "geometry": { "type": "Point", "coordinates": [ 19.942915125241971, 52.107212929518155 ] } },
{ "type": "Feature", "properties": { "id": null, "names": "Ostrolenka" }, "geometry": { "type": "Point", "coordinates": [ 21.571720473716578, 53.074878884202299 ] } },
{ "type": "Feature", "properties": { "id": null, "names": "Lecscyna" }, "geometry": { "type": "Point", "coordinates": [ 19.187041875957949, 52.055690191580261 ] } },
{ "type": "Feature", "properties": { "id": null, "names": "Gniezo" }, "geometry": { "type": "Point", "coordinates": [ 17.592312780524857, 52.530370067726444 ] } },
{ "type": "Feature", "properties": { "id": null, "names": "Miedzyzecz" }, "geometry": { "type": "Point", "coordinates": [ 15.584442072720957, 52.440436555837216 ] } },
{ "type": "Feature", "properties": { "id": null, "names": "Landsberg" }, "geometry": { "type": "Point", "coordinates": [ 15.234451930263853, 52.733489275147903 ] } },
{ "type": "Feature", "properties": { "id": null, "names": "Walcz" }, "geometry": { "type": "Point", "coordinates": [ 16.464607960637441, 53.275614975004878 ] } },
{ "type": "Feature", "properties": { "id": null, "names": "Wielen" }, "geometry": { "type": "Point", "coordinates": [ 16.169859906343589, 52.890131891654903 ] } },
{ "type": "Feature", "properties": { "id": null, "names": "Kolberg" }, "geometry": { "type": "Point", "coordinates": [ 15.56479220243471, 54.168321619166996 ] } },
{ "type": "Feature", "properties": { "id": null, "names": "Poltava" }, "geometry": { "type": "Point", "coordinates": [ 34.518899510843049, 49.579513524507746 ] } },
{ "type": "Feature", "properties": { "id": null, "names": "Kharkov" }, "geometry": { "type": "Point", "coordinates": [ 36.208139538989371, 50.026517886071311 ] } },
{ "type": "Feature", "properties": { "id": null, "names": "Belgorod" }, "geometry": { "type": "Point", "coordinates": [ 36.57977234518156, 50.601820830427528 ] } },
{ "type": "Feature", "properties": { "id": null, "names": "Lgov" }, "geometry": { "type": "Point", "coordinates": [ 35.267795923321252, 51.640847720958426 ] } },
{ "type": "Feature", "properties": { "id": null, "names": "Lubny" }, "geometry": { "type": "Point", "coordinates": [ 33.037999086168099, 49.997569873301501 ] } },
{ "type": "Feature", "properties": { "id": null, "names": "Korosten" }, "geometry": { "type": "Point", "coordinates": [ 28.572774611767976, 50.964948181049024 ] } },
{ "type": "Feature", "properties": { "id": null, "names": "Zytomierz" }, "geometry": { "type": "Point", "coordinates": [ 28.679759813550575, 50.268273296693557 ] } },
{ "type": "Feature", "properties": { "id": null, "names": "Rovno" }, "geometry": { "type": "Point", "coordinates": [ 26.206430872339663, 50.616114268613948 ] } },
{ "type": "Feature", "properties": { "id": null, "names": "Luzk" }, "geometry": { "type": "Point", "coordinates": [ 25.366033958336867, 50.755247799428545 ] } },
{ "type": "Feature", "properties": { "id": null, "names": "Dubno" }, "geometry": { "type": "Point", "coordinates": [ 25.712328164106864, 50.414713786298719 ] } },
{ "type": "Feature", "properties": { "id": null, "names": "Zwiahel" }, "geometry": { "type": "Point", "coordinates": [ 27.60850009570111, 50.586629294128677 ] } },
{ "type": "Feature", "properties": { "id": null, "names": "Wassylkiw" }, "geometry": { "type": "Point", "coordinates": [ 30.340845841227779, 50.131308292297661 ] } },
{ "type": "Feature", "properties": { "id": null, "names": "Vlodomierz" }, "geometry": { "type": "Point", "coordinates": [ 24.356713041519438, 50.883312728117701 ] } },
{ "type": "Feature", "properties": { "id": null, "names": "Belz" }, "geometry": { "type": "Point", "coordinates": [ 24.027311236030901, 50.383756377298745 ] } },
{ "type": "Feature", "properties": { "id": null, "names": "Krasnostaw" }, "geometry": { "type": "Point", "coordinates": [ 23.171341640518641, 50.988436171529202 ] } },
{ "type": "Feature", "properties": { "id": null, "names": "Radom" }, "geometry": { "type": "Point", "coordinates": [ 21.13554346284792, 51.40326334294668 ] } },
{ "type": "Feature", "properties": { "id": null, "names": "Lukow" }, "geometry": { "type": "Point", "coordinates": [ 22.385053196167394, 51.948290335169368 ] } },
{ "type": "Feature", "properties": { "id": null, "names": "Sandomierz" }, "geometry": { "type": "Point", "coordinates": [ 21.793555242561791, 50.674359739152514 ] } },
{ "type": "Feature", "properties": { "id": null, "names": "Lwow" }, "geometry": { "type": "Point", "coordinates": [ 24.026519404767708, 49.841363378724537 ] } },
{ "type": "Feature", "properties": { "id": null, "names": "Brody" }, "geometry": { "type": "Point", "coordinates": [ 25.153097334476389, 50.079379285577538 ] } },
{ "type": "Feature", "properties": { "id": null, "names": "Krzemieniec" }, "geometry": { "type": "Point", "coordinates": [ 25.718464856396626, 50.087381798413318 ] } },
{ "type": "Feature", "properties": { "id": null, "names": "Polonne" }, "geometry": { "type": "Point", "coordinates": [ 27.507211679950963, 50.115570481605367 ] } },
{ "type": "Feature", "properties": { "id": null, "names": "Slawuta" }, "geometry": { "type": "Point", "coordinates": [ 26.851575394026661, 50.290425546713031 ] } },
{ "type": "Feature", "properties": { "id": null, "names": "Zvenigorodka" }, "geometry": { "type": "Point", "coordinates": [ 30.962961270343673, 49.036997802365889 ] } },
{ "type": "Feature", "properties": { "id": null, "names": "Nosivka" }, "geometry": { "type": "Point", "coordinates": [ 31.590982440964087, 50.935384356069463 ] } },
{ "type": "Feature", "properties": { "id": null, "names": "Potschep" }, "geometry": { "type": "Point", "coordinates": [ 33.458157676665117, 52.915152048756852 ] } },
{ "type": "Feature", "properties": { "id": null, "names": "Starodub" }, "geometry": { "type": "Point", "coordinates": [ 32.774275284899076, 52.5815101077729 ] } },
{ "type": "Feature", "properties": { "id": null, "names": "Kaluga" }, "geometry": { "type": "Point", "coordinates": [ 36.276040788192418, 54.505695636488682 ] } },
{ "type": "Feature", "properties": { "id": null, "names": "Tula" }, "geometry": { "type": "Point", "coordinates": [ 37.580938499754197, 54.248297549065647 ] } },
{ "type": "Feature", "properties": { "id": null, "names": "Ghazikerman" }, "geometry": { "type": "Point", "coordinates": [ 33.491389071719574, 46.868457339618871 ] } },
{ "type": "Feature", "properties": { "id": null, "names": "Bendery" }, "geometry": { "type": "Point", "coordinates": [ 29.481438404090234, 46.886296909703994 ] } },
{ "type": "Feature", "properties": { "id": null, "names": "Hadjibey" }, "geometry": { "type": "Point", "coordinates": [ 30.718481434650801, 46.469992367440717 ] } },
{ "type": "Feature", "properties": { "id": null, "names": "Tulczyn" }, "geometry": { "type": "Point", "coordinates": [ 28.868788928511982, 48.692922780714269 ] } },
{ "type": "Feature", "properties": { "id": null, "names": "Soroca" }, "geometry": { "type": "Point", "coordinates": [ 28.294797047638738, 48.159094405661193 ] } },
{ "type": "Feature", "properties": { "id": null, "names": "Khotyn" }, "geometry": { "type": "Point", "coordinates": [ 26.501215143097042, 48.501987041604181 ] } },
{ "type": "Feature", "properties": { "id": null, "names": "Kamjanez-Podilskyj" }, "geometry": { "type": "Point", "coordinates": [ 26.556020846982641, 48.702073853785059 ] } },
{ "type": "Feature", "properties": { "id": null, "names": "Vinnica" }, "geometry": { "type": "Point", "coordinates": [ 28.462517181627923, 49.228847105481364 ] } },
{ "type": "Feature", "properties": { "id": null, "names": "Radomsko" }, "geometry": { "type": "Point", "coordinates": [ 19.437559162092175, 51.069543644061312 ] } },
{ "type": "Feature", "properties": { "id": null, "names": "Czestochow" }, "geometry": { "type": "Point", "coordinates": [ 19.124139042996426, 50.794296666282889 ] } },
{ "type": "Feature", "properties": { "id": null, "names": "Siewerz" }, "geometry": { "type": "Point", "coordinates": [ 19.257727946217564, 50.455305583021023 ] } },
{ "type": "Feature", "properties": { "id": null, "names": "Mielec" }, "geometry": { "type": "Point", "coordinates": [ 21.425978606191418, 50.289817200634914 ] } },
{ "type": "Feature", "properties": { "id": null, "names": "Rzeszow" }, "geometry": { "type": "Point", "coordinates": [ 21.988165240580361, 50.045359473055754 ] } },
{ "type": "Feature", "properties": { "id": null, "names": "Kielce" }, "geometry": { "type": "Point", "coordinates": [ 20.622018892682181, 50.873619549255082 ] } },
{ "type": "Feature", "properties": { "id": null, "names": "Ciechanow" }, "geometry": { "type": "Point", "coordinates": [ 20.649421744624973, 52.904105240883872 ] } },
{ "type": "Feature", "properties": { "id": null, "names": "Dobrin" }, "geometry": { "type": "Point", "coordinates": [ 19.361487703313504, 52.659630028416032 ] } },
{ "type": "Feature", "properties": { "id": null, "names": "Soldau" }, "geometry": { "type": "Point", "coordinates": [ 20.18357326159742, 53.256978270959003 ] } },
{ "type": "Feature", "properties": { "id": null, "names": "Neidenburg" }, "geometry": { "type": "Point", "coordinates": [ 20.423348216096898, 53.36135683033713 ] } },
{ "type": "Feature", "properties": { "id": null, "names": "Oppeln" }, "geometry": { "type": "Point", "coordinates": [ 17.960516897738007, 50.655157087823675 ] } },
{ "type": "Feature", "properties": { "id": null, "names": "Liegnitz" }, "geometry": { "type": "Point", "coordinates": [ 16.124525817570596, 51.216391649822611 ] } },
{ "type": "Feature", "properties": { "id": null, "names": "Sieradz" }, "geometry": { "type": "Point", "coordinates": [ 18.748348891093428, 51.566922954712687 ] } },
{ "type": "Feature", "properties": { "id": null, "names": "Kalisch" }, "geometry": { "type": "Point", "coordinates": [ 18.111232583423391, 51.741182443315111 ] } },
{ "type": "Feature", "properties": { "id": null, "names": "Trebnitz" }, "geometry": { "type": "Point", "coordinates": [ 17.035670644668603, 51.31926421906077 ] } },
{ "type": "Feature", "properties": { "id": null, "names": "Glogau" }, "geometry": { "type": "Point", "coordinates": [ 16.076570826670704, 51.681754525891762 ] } },
{ "type": "Feature", "properties": { "id": null, "names": "Gleiwitz" }, "geometry": { "type": "Point", "coordinates": [ 18.707244613179231, 50.328282343014521 ] } },
{ "type": "Feature", "properties": { "id": null, "names": "Ostrau" }, "geometry": { "type": "Point", "coordinates": [ 18.303052547022975, 49.821570550935455 ] } },
{ "type": "Feature", "properties": { "id": null, "names": "Ratibor" }, "geometry": { "type": "Point", "coordinates": [ 18.243108808398105, 50.077244507541586 ] } },
{ "type": "Feature", "properties": { "id": null, "names": "Neisse" }, "geometry": { "type": "Point", "coordinates": [ 17.333676659546526, 50.468025531215481 ] } },
{ "type": "Feature", "properties": { "id": null, "names": "Teschen" }, "geometry": { "type": "Point", "coordinates": [ 18.64473185718472, 49.748587639862038 ] } },
{ "type": "Feature", "properties": { "id": null, "names": "Bielitz" }, "geometry": { "type": "Point", "coordinates": [ 19.035222497369578, 49.833723680767605 ] } },
{ "type": "Feature", "properties": { "id": null, "names": "Auschwitz" }, "geometry": { "type": "Point", "coordinates": [ 19.226614291407532, 50.038484922409417 ] } },
{ "type": "Feature", "properties": { "id": null, "names": "Holzhagen" }, "geometry": { "type": "Point", "coordinates": [ 16.595940504899115, 51.832030172409524 ] } },
{ "type": "Feature", "properties": { "id": null, "names": "Militsch" }, "geometry": { "type": "Point", "coordinates": [ 17.282296312153839, 51.519789952993634 ] } },
{ "type": "Feature", "properties": { "id": null, "names": "Sagan" }, "geometry": { "type": "Point", "coordinates": [ 15.324383949319135, 51.609221151989985 ] } },
{ "type": "Feature", "properties": { "id": null, "names": "Sommerfeld" }, "geometry": { "type": "Point", "coordinates": [ 14.973463312786066, 51.790646075660014 ] } },
{ "type": "Feature", "properties": { "id": null, "names": "Guben" }, "geometry": { "type": "Point", "coordinates": [ 14.707712738215825, 51.956570238162072 ] } },
{ "type": "Feature", "properties": { "id": null, "names": "Kottbus" }, "geometry": { "type": "Point", "coordinates": [ 14.324072811016686, 51.747986906715859 ] } },
{ "type": "Feature", "properties": { "id": null, "names": "Hoyerswerda" }, "geometry": { "type": "Point", "coordinates": [ 14.254138449287677, 51.431117110121811 ] } },
{ "type": "Feature", "properties": { "id": null, "names": "Riesa" }, "geometry": { "type": "Point", "coordinates": [ 13.274557853926336, 51.326042854990718 ] } },
{ "type": "Feature", "properties": { "id": null, "names": "Meissen" }, "geometry": { "type": "Point", "coordinates": [ 13.496724335204739, 51.168683726402058 ] } },
{ "type": "Feature", "properties": { "id": null, "names": "Stargard" }, "geometry": { "type": "Point", "coordinates": [ 15.054748090592968, 53.332804568551445 ] } },
{ "type": "Feature", "properties": { "id": null, "names": "Dramburg" }, "geometry": { "type": "Point", "coordinates": [ 15.836170920823058, 53.540697797238884 ] } },
{ "type": "Feature", "properties": { "id": null, "names": "Stolp" }, "geometry": { "type": "Point", "coordinates": [ 17.037387245610425, 54.454858478030346 ] } },
{ "type": "Feature", "properties": { "id": null, "names": "Rummelsburg" }, "geometry": { "type": "Point", "coordinates": [ 16.953934321993621, 53.984677084595951 ] } },
{ "type": "Feature", "properties": { "id": null, "names": "Belgard" }, "geometry": { "type": "Point", "coordinates": [ 15.972730250377836, 53.995084667754888 ] } },
{ "type": "Feature", "properties": { "id": null, "names": "Greifenberg" }, "geometry": { "type": "Point", "coordinates": [ 15.189621502498918, 53.914233719668147 ] } },
{ "type": "Feature", "properties": { "id": null, "names": "Wolin" }, "geometry": { "type": "Point", "coordinates": [ 14.615145063662021, 53.847401188975212 ] } },
{ "type": "Feature", "properties": { "id": null, "names": "Schwedt" }, "geometry": { "type": "Point", "coordinates": [ 14.287655560377884, 53.057829247664792 ] } },
{ "type": "Feature", "properties": { "id": null, "names": "Pasewalk" }, "geometry": { "type": "Point", "coordinates": [ 14.00442139537539, 53.503863453537164 ] } },
{ "type": "Feature", "properties": { "id": null, "names": "Gollnow" }, "geometry": { "type": "Point", "coordinates": [ 14.859181643329348, 53.566988436990385 ] } },
{ "type": "Feature", "properties": { "id": null, "names": "Eberswalde" }, "geometry": { "type": "Point", "coordinates": [ 13.809697906936172, 52.83344571715778 ] } },
{ "type": "Feature", "properties": { "id": null, "names": "Parchim" }, "geometry": { "type": "Point", "coordinates": [ 11.840335353403198, 53.429345288275208 ] } },
{ "type": "Feature", "properties": { "id": null, "names": "Havelberg" }, "geometry": { "type": "Point", "coordinates": [ 12.09069412425362, 52.831535949703458 ] } },
{ "type": "Feature", "properties": { "id": null, "names": "Strelitz" }, "geometry": { "type": "Point", "coordinates": [ 13.099715837075006, 53.355450939767586 ] } },
{ "type": "Feature", "properties": { "id": null, "names": "Kiel" }, "geometry": { "type": "Point", "coordinates": [ 10.11711677659858, 54.319120137865987 ] } },
{ "type": "Feature", "properties": { "id": null, "names": "Neumunster" }, "geometry": { "type": "Point", "coordinates": [ 9.946417614655111, 54.070848316118344 ] } },
{ "type": "Feature", "properties": { "id": null, "names": "Husum" }, "geometry": { "type": "Point", "coordinates": [ 9.051037288349791, 54.481970656242254 ] } },
{ "type": "Feature", "properties": { "id": null, "names": "Schleswig" }, "geometry": { "type": "Point", "coordinates": [ 9.552861213507672, 54.518683510385159 ] } },
{ "type": "Feature", "properties": { "id": null, "names": "Rendsburg" }, "geometry": { "type": "Point", "coordinates": [ 9.663499559211768, 54.300678278252455 ] } },
{ "type": "Feature", "properties": { "id": null, "names": "Ribe" }, "geometry": { "type": "Point", "coordinates": [ 8.77049005460011, 55.328541594200153 ] } },
{ "type": "Feature", "properties": { "id": null, "names": "Haderslev" }, "geometry": { "type": "Point", "coordinates": [ 9.482921973544723, 55.255420247206757 ] } },
{ "type": "Feature", "properties": { "id": null, "names": "Odense" }, "geometry": { "type": "Point", "coordinates": [ 10.38739044967574, 55.407137063936283 ] } },
{ "type": "Feature", "properties": { "id": null, "names": "Slagelse" }, "geometry": { "type": "Point", "coordinates": [ 11.34046077052677, 55.401079540438715 ] } },
{ "type": "Feature", "properties": { "id": null, "names": "Kage" }, "geometry": { "type": "Point", "coordinates": [ 12.190400347703624, 55.454219447871587 ] } },
{ "type": "Feature", "properties": { "id": null, "names": "Ringsted" }, "geometry": { "type": "Point", "coordinates": [ 11.788546070628376, 55.444807462649109 ] } },
{ "type": "Feature", "properties": { "id": null, "names": "Naestved" }, "geometry": { "type": "Point", "coordinates": [ 11.765430559115195, 55.23041562121314 ] } },
{ "type": "Feature", "properties": { "id": null, "names": "Lund" }, "geometry": { "type": "Point", "coordinates": [ 13.187330869887351, 55.703654773990188 ] } },
{ "type": "Feature", "properties": { "id": null, "names": "Malmo" }, "geometry": { "type": "Point", "coordinates": [ 13.009519242862904, 55.612875674212596 ] } },
{ "type": "Feature", "properties": { "id": null, "names": "Trelleborg" }, "geometry": { "type": "Point", "coordinates": [ 13.158214215962092, 55.377429488224912 ] } },
{ "type": "Feature", "properties": { "id": null, "names": "Ystad" }, "geometry": { "type": "Point", "coordinates": [ 13.807337786868205, 55.433270517017512 ] } },
{ "type": "Feature", "properties": { "id": null, "names": "Holstorp" }, "geometry": { "type": "Point", "coordinates": [ 14.822808875578124, 56.874179560987137 ] } },
{ "type": "Feature", "properties": { "id": null, "names": "Halmstad" }, "geometry": { "type": "Point", "coordinates": [ 12.892441399693976, 56.685132254901603 ] } },
{ "type": "Feature", "properties": { "id": null, "names": "Aarhus" }, "geometry": { "type": "Point", "coordinates": [ 10.270275562417837, 56.111327028879344 ] } },
{ "type": "Feature", "properties": { "id": null, "names": "Viborg" }, "geometry": { "type": "Point", "coordinates": [ 9.396775944660245, 56.437114938549563 ] } },
{ "type": "Feature", "properties": { "id": null, "names": "Randers" }, "geometry": { "type": "Point", "coordinates": [ 10.010226057894583, 56.455542375349609 ] } },
{ "type": "Feature", "properties": { "id": null, "names": "Aalborg" }, "geometry": { "type": "Point", "coordinates": [ 9.930210825733583, 57.018743815549854 ] } },
{ "type": "Feature", "properties": { "id": null, "names": "Tonning" }, "geometry": { "type": "Point", "coordinates": [ 8.941480938744125, 54.324279917331253 ] } },
{ "type": "Feature", "properties": { "id": null, "names": "Rotenburg" }, "geometry": { "type": "Point", "coordinates": [ 9.417821617702579, 53.102781965484368 ] } },
{ "type": "Feature", "properties": { "id": null, "names": "Wismar" }, "geometry": { "type": "Point", "coordinates": [ 11.437372737766175, 53.895520690234051 ] } },
{ "type": "Feature", "properties": { "id": null, "names": "Grosshansdorf" }, "geometry": { "type": "Point", "coordinates": [ 10.277151871431666, 53.658118575155505 ] } },
{ "type": "Feature", "properties": { "id": null, "names": "Eutin" }, "geometry": { "type": "Point", "coordinates": [ 10.600546768082376, 54.125720920578019 ] } },
{ "type": "Feature", "properties": { "id": null, "names": "Reinfeld" }, "geometry": { "type": "Point", "coordinates": [ 10.476773205833327, 53.828425865879588 ] } },
{ "type": "Feature", "properties": { "id": null, "names": "Oldenburg" }, "geometry": { "type": "Point", "coordinates": [ 10.873932144632468, 54.294617735539489 ] } },
{ "type": "Feature", "properties": { "id": null, "names": "Albersdorf" }, "geometry": { "type": "Point", "coordinates": [ 9.29029734144599, 54.145497757020394 ] } },
{ "type": "Feature", "properties": { "id": null, "names": "Dithmarschen" }, "geometry": { "type": "Point", "coordinates": [ 9.263000478391065, 53.995961285247105 ] } },
{ "type": "Feature", "properties": { "id": null, "names": "Maribo" }, "geometry": { "type": "Point", "coordinates": [ 11.489674360871426, 54.781315176630997 ] } },
{ "type": "Feature", "properties": { "id": null, "names": "Visby" }, "geometry": { "type": "Point", "coordinates": [ 18.390363015756488, 57.644199983467495 ] } },
{ "type": "Feature", "properties": { "id": null, "names": "Uppsala" }, "geometry": { "type": "Point", "coordinates": [ 17.640220214247108, 59.877315097201055 ] } },
{ "type": "Feature", "properties": { "id": null, "names": "Sigtuna" }, "geometry": { "type": "Point", "coordinates": [ 17.747115563462192, 59.579527072637298 ] } },
{ "type": "Feature", "properties": { "id": null, "names": "Norrkoping" }, "geometry": { "type": "Point", "coordinates": [ 16.17462871579815, 58.588444366460173 ] } },
{ "type": "Feature", "properties": { "id": null, "names": "Mariestad" }, "geometry": { "type": "Point", "coordinates": [ 13.834886433965289, 58.68507343164778 ] } },
{ "type": "Feature", "properties": { "id": null, "names": "Skara" }, "geometry": { "type": "Point", "coordinates": [ 13.442467980925692, 58.36119729519659 ] } },
{ "type": "Feature", "properties": { "id": null, "names": "Bezhetsk" }, "geometry": { "type": "Point", "coordinates": [ 36.633132689588351, 57.799837837203448 ] } },
{ "type": "Feature", "properties": { "id": null, "names": "Ostaschkow" }, "geometry": { "type": "Point", "coordinates": [ 33.053105471837995, 57.154374400193049 ] } },
{ "type": "Feature", "properties": { "id": null, "names": "Toropets" }, "geometry": { "type": "Point", "coordinates": [ 31.627028331507596, 56.489804609758551 ] } },
{ "type": "Feature", "properties": { "id": null, "names": "Ivangorod" }, "geometry": { "type": "Point", "coordinates": [ 28.218197047985878, 59.374487753114259 ] } },
{ "type": "Feature", "properties": { "id": null, "names": "Carlsburg" }, "geometry": { "type": "Point", "coordinates": [ 8.581472318419644, 53.549264764494851 ] } },
{ "type": "Feature", "properties": { "id": null, "names": "Stade" }, "geometry": { "type": "Point", "coordinates": [ 9.473852203714671, 53.601287862249727 ] } },
{ "type": "Feature", "properties": { "id": null, "names": "Horion" }, "geometry": { "type": "Point", "coordinates": [ 5.377439995631894, 50.630912169933843 ] } },
{ "type": "Feature", "properties": { "id": null, "names": "Péronne" }, "geometry": { "type": "Point", "coordinates": [ 2.931123738678629, 49.929592613472209 ] } },
{ "type": "Feature", "properties": { "id": null, "names": "Guines" }, "geometry": { "type": "Point", "coordinates": [ 1.869938184253104, 50.866726801328099 ] } },
{ "type": "Feature", "properties": { "id": null, "names": "Cadzand" }, "geometry": { "type": "Point", "coordinates": [ 3.408677637738635, 51.367795284751068 ] } },
{ "type": "Feature", "properties": { "id": null, "names": "Breda" }, "geometry": { "type": "Point", "coordinates": [ 4.778508663876158, 51.589750077584164 ] } },
{ "type": "Feature", "properties": { "id": null, "names": "Goch" }, "geometry": { "type": "Point", "coordinates": [ 6.162007400922277, 51.67129737303658 ] } },
{ "type": "Feature", "properties": { "id": null, "names": "Emmerich" }, "geometry": { "type": "Point", "coordinates": [ 6.244217662059046, 51.832187580852668 ] } },
{ "type": "Feature", "properties": { "id": null, "names": "Rees" }, "geometry": { "type": "Point", "coordinates": [ 6.395174469109199, 51.759264461464362 ] } },
{ "type": "Feature", "properties": { "id": null, "names": "Wesel" }, "geometry": { "type": "Point", "coordinates": [ 6.616305791869154, 51.655733671010076 ] } },
{ "type": "Feature", "properties": { "id": null, "names": "Melick" }, "geometry": { "type": "Point", "coordinates": [ 6.013090550724151, 51.156659809931831 ] } },
{ "type": "Feature", "properties": { "id": null, "names": "Odenkirchen" }, "geometry": { "type": "Point", "coordinates": [ 6.450457299799185, 51.134904084562692 ] } },
{ "type": "Feature", "properties": { "id": null, "names": "Beckrath" }, "geometry": { "type": "Point", "coordinates": [ 6.383138723682224, 51.109167907513466 ] } },
{ "type": "Feature", "properties": { "id": null, "names": "Mülheim" }, "geometry": { "type": "Point", "coordinates": [ 7.005427561393759, 50.965692416550937 ] } },
{ "type": "Feature", "properties": { "id": null, "names": "Kaiserswerth" }, "geometry": { "type": "Point", "coordinates": [ 6.73605125908329, 51.300755789508855 ] } },
{ "type": "Feature", "properties": { "id": null, "names": "Stevensweert" }, "geometry": { "type": "Point", "coordinates": [ 5.847905044630865, 51.130679725801485 ] } },
{ "type": "Feature", "properties": { "id": null, "names": "Weert" }, "geometry": { "type": "Point", "coordinates": [ 5.70408808656277, 51.253412311007764 ] } },
{ "type": "Feature", "properties": { "id": null, "names": "Bocholt" }, "geometry": { "type": "Point", "coordinates": [ 5.578834735848146, 51.171626910983228 ] } },
{ "type": "Feature", "properties": { "id": null, "names": "Olmen" }, "geometry": { "type": "Point", "coordinates": [ 5.14860783575508, 51.14258374681183 ] } },
{ "type": "Feature", "properties": { "id": null, "names": "Peer" }, "geometry": { "type": "Point", "coordinates": [ 5.456641320411565, 51.13157583419499 ] } },
{ "type": "Feature", "properties": { "id": null, "names": "Beringen" }, "geometry": { "type": "Point", "coordinates": [ 5.227554165928631, 51.048676328473803 ] } },
{ "type": "Feature", "properties": { "id": null, "names": "Diest" }, "geometry": { "type": "Point", "coordinates": [ 5.051301893913266, 50.984638400081579 ] } },
{ "type": "Feature", "properties": { "id": null, "names": "Booischot" }, "geometry": { "type": "Point", "coordinates": [ 4.781823593760143, 51.051241135721 ] } },
{ "type": "Feature", "properties": { "id": null, "names": "Bulange" }, "geometry": { "type": "Point", "coordinates": [ 6.257936371888836, 50.407691838840101 ] } },
{ "type": "Feature", "properties": { "id": null, "names": "Saint-Vith" }, "geometry": { "type": "Point", "coordinates": [ 6.126359154932921, 50.279197542733556 ] } },
{ "type": "Feature", "properties": { "id": null, "names": "Tirlemont" }, "geometry": { "type": "Point", "coordinates": [ 4.933596383551158, 50.80643423455826 ] } },
{ "type": "Feature", "properties": { "id": null, "names": "Stralen" }, "geometry": { "type": "Point", "coordinates": [ 6.264464233815334, 51.441094937102413 ] } },
{ "type": "Feature", "properties": { "id": null, "names": "Sint Paulus" }, "geometry": { "type": "Point", "coordinates": [ 3.324682414355333, 51.349420159297971 ] } },
{ "type": "Feature", "properties": { "id": null, "names": "Heist" }, "geometry": { "type": "Point", "coordinates": [ 3.286331225537176, 51.343447452778413 ] } },
{ "type": "Feature", "properties": { "id": null, "names": "Lapscheure" }, "geometry": { "type": "Point", "coordinates": [ 3.356301745561795, 51.277584636801109 ] } },
{ "type": "Feature", "properties": { "id": null, "names": "Beaumont" }, "geometry": { "type": "Point", "coordinates": [ 4.237818100245129, 50.235783226261084 ] } },
{ "type": "Feature", "properties": { "id": null, "names": "Moelingen" }, "geometry": { "type": "Point", "coordinates": [ 5.71413806149157, 50.757475862131287 ] } },
{ "type": "Feature", "properties": { "id": null, "names": "Fort Francipanie" }, "geometry": { "type": "Point", "coordinates": [ 3.923979105569883, 51.193430746262379 ] } },
{ "type": "Feature", "properties": { "id": null, "names": "Keizershoek" }, "geometry": { "type": "Point", "coordinates": [ 4.457361683149879, 51.263497874803072 ] } },
{ "type": "Feature", "properties": { "id": null, "names": "Frederik-Hendrik Berendrecht" }, "geometry": { "type": "Point", "coordinates": [ 4.318997625370164, 51.345171902852748 ] } },
{ "type": "Feature", "properties": { "id": null, "names": "Lapin" }, "geometry": { "type": "Point", "coordinates": [ 3.229598511450379, 51.223158811442531 ] } },
{ "type": "Feature", "properties": { "id": null, "names": "Fort Liefkenshoek" }, "geometry": { "type": "Point", "coordinates": [ 4.285423202704139, 51.294357930516462 ] } },
{ "type": "Feature", "properties": { "id": null, "names": "Fort Lillo" }, "geometry": { "type": "Point", "coordinates": [ 4.290167297672329, 51.304581722059346 ] } },
{ "type": "Feature", "properties": { "id": null, "names": "Fort Dambrugge" }, "geometry": { "type": "Point", "coordinates": [ 4.42706832389723, 51.233081864764529 ] } },
{ "type": "Feature", "properties": { "id": null, "names": "Oorderen" }, "geometry": { "type": "Point", "coordinates": [ 4.364502209758931, 51.287125913729092 ] } },
{ "type": "Feature", "properties": { "id": null, "names": "Fort Sint Elooi" }, "geometry": { "type": "Point", "coordinates": [ 3.825418112149138, 51.230360479916868 ] } },
{ "type": "Feature", "properties": { "id": null, "names": "Fort Sint Steven" }, "geometry": { "type": "Point", "coordinates": [ 3.824449929502573, 51.208745354123991 ] } },
{ "type": "Feature", "properties": { "id": null, "names": "Bellem" }, "geometry": { "type": "Point", "coordinates": [ 3.489932067527912, 51.089491493420702 ] } },
{ "type": "Feature", "properties": { "id": null, "names": "Fort Sint Jobe" }, "geometry": { "type": "Point", "coordinates": [ 3.296381598893745, 51.278028774064907 ] } },
{ "type": "Feature", "properties": { "id": null, "names": "Fort St. Frederik" }, "geometry": { "type": "Point", "coordinates": [ 3.342251941171207, 51.302732191648929 ] } },
{ "type": "Feature", "properties": { "id": null, "names": "Kehl" }, "geometry": { "type": "Point", "coordinates": [ 7.811129562139522, 48.573313516328703 ] } },
{ "type": "Feature", "properties": { "id": null, "names": "Landau" }, "geometry": { "type": "Point", "coordinates": [ 8.117563700079652, 49.19554514546121 ] } },
{ "type": "Feature", "properties": { "id": null, "names": "Toul" }, "geometry": { "type": "Point", "coordinates": [ 5.89167040207422, 48.674517826002138 ] } },
{ "type": "Feature", "properties": { "id": null, "names": "Marsal" }, "geometry": { "type": "Point", "coordinates": [ 6.609606577427575, 48.78981036838173 ] } },
{ "type": "Feature", "properties": { "id": null, "names": "Longwy" }, "geometry": { "type": "Point", "coordinates": [ 5.768071967684594, 49.512956888204592 ] } },
{ "type": "Feature", "properties": { "id": null, "names": "St. Louis" }, "geometry": { "type": "Point", "coordinates": [ 8.056139526744229, 48.802402560992419 ] } },
{ "type": "Feature", "properties": { "id": null, "names": "Altbreisach" }, "geometry": { "type": "Point", "coordinates": [ 7.579965523847698, 48.029949880807052 ] } }
]
}
