{
"type": "FeatureCollection",
"name": "Mzab",
"crs": { "type": "name", "properties": { "name": "urn:ogc:def:crs:OGC:1.3:CRS84" } },
"features": [
{ "type": "Feature", "properties": { "OBJECTID": 27.0, "YEAR": 1700.0, "OWNER_ID": 3429.0, "SHORT_NAME": "Mzab", "LONG_NAME": "Cities of the Mzab", "VARIANTS": null, "SHAPE_LENG": 367839.8, "Shape__Are": 8786853593.4946289, "Shape__Len": 368431.99367103487 }, "geometry": { "type": "MultiPolygon", "coordinates": [ [ [ [ 4.20116932594034, 32.925744335322683 ], [ 4.489589878991792, 32.933082962978268 ], [ 4.500000000271902, 32.927725692348247 ], [ 4.689882539702968, 32.829950637020012 ], [ 4.7092834198598, 32.605209846249927 ], [ 4.551797352729341, 32.499999999859085 ], [ 4.500000000271902, 32.465563026710292 ], [ 4.426707299758633, 32.416812356025012 ], [ 4.000000000241688, 32.28968707523552 ], [ 3.98204704532106, 32.284334550967365 ], [ 3.592689186323218, 32.240685537411579 ], [ 3.500000000211477, 32.334443160885783 ], [ 3.454048697671858, 32.380887842784503 ], [ 3.472645335917746, 32.499999999859085 ], [ 3.482611714600347, 32.564128384276366 ], [ 3.500000000211477, 32.578540304902546 ], [ 3.685958420902086, 32.73252177457114 ], [ 3.869948190834079, 32.847644926274157 ], [ 4.000000000241688, 32.878318432828181 ], [ 4.20116932594034, 32.925744335322683 ] ] ] ] } }
]
}
