{
"type": "FeatureCollection",
"name": "Republic of the Seven United Netherlands",
"crs": { "type": "name", "properties": { "name": "urn:ogc:def:crs:OGC:1.3:CRS84" } },
"features": [
{ "type": "Feature", "properties": { "OBJECTID": 39.0, "YEAR": 1700.0, "OWNER_ID": 4117.0, "SHORT_NAME": "Netherlands-England-Scotland", "LONG_NAME": "Republic of the Seven United Netherlands in Personal Union with the Kingdom of E", "VARIANTS": "Dutch Republic", "SHAPE_LENG": 5107238.0, "Shape__Are": 87937183589.648193, "Shape__Len": 5112551.8875746122 }, "geometry": { "type": "MultiPolygon", "coordinates": [ [ [ [ 7.985684196587386, 53.351237694980178 ], [ 7.958237346280886, 53.330732091810852 ], [ 7.936516816634437, 53.299407319170335 ], [ 7.862206279090207, 53.280633060136097 ], [ 7.842943021733224, 53.226680295032921 ], [ 7.796276794076408, 53.184916811988153 ], [ 7.74864520896749, 53.155815643687617 ], [ 7.735630511454255, 53.126788030409998 ], [ 7.701145263878634, 53.131770382094892 ], [ 7.663759625745158, 53.097646631956962 ], [ 7.638353189012043, 53.071604670648441 ], [ 7.611191557401511, 53.044431465135716 ], [ 7.573805919268044, 53.013121784407574 ], [ 7.546600407650819, 53.006636484930162 ], [ 7.50193071356073, 53.006357382366616 ], [ 7.499999999554868, 53.007035284415721 ], [ 7.470929594390974, 53.01724103592921 ], [ 7.453838390627436, 53.054455829025478 ], [ 7.444075121928881, 53.067145570049789 ], [ 7.38003247091427, 53.07112693186729 ], [ 7.29905219481203, 53.070091813536031 ], [ 7.268226595668979, 53.069348635905932 ], [ 7.252846705877913, 53.078471574343268 ], [ 7.237466816086822, 53.087592570101002 ], [ 7.233141578012431, 53.087814766766876 ], [ 7.217092959865967, 53.085665316315811 ], [ 7.199955960115863, 53.07888310736805 ], [ 7.202725942567373, 53.068917705836746 ], [ 7.202725942567373, 53.068917705836746 ], [ 7.202725942567373, 53.068917705836746 ], [ 7.202725942567373, 53.068917705836746 ], [ 7.202725942567373, 53.068917705836746 ], [ 7.202725942567373, 53.068917705836746 ], [ 7.202725942567373, 53.068917705836746 ], [ 7.206287764860768, 53.052141883834828 ], [ 7.207766632856971, 53.034677524829036 ], [ 7.211254868241848, 53.01896690035025 ], [ 7.211254868241848, 53.01896690035025 ], [ 7.211254868241848, 53.01896690035025 ], [ 7.211254868241848, 53.01896690035025 ], [ 7.204817407736327, 53.001318911016128 ], [ 7.189914600263081, 52.979034292901801 ], [ 7.160260207982949, 52.949152980250254 ], [ 7.158088154389468, 52.928982637116363 ], [ 7.14180872760547, 52.925692383434189 ], [ 7.117301827865296, 52.909843000102221 ], [ 7.119781039708912, 52.880472016155906 ], [ 7.094484301645059, 52.870167678218721 ], [ 7.075155224727182, 52.846189374426046 ], [ 7.068704886202616, 52.812209413982082 ], [ 7.052622918101238, 52.784699867852559 ], [ 7.052157413815927, 52.766981025574395 ], [ 7.050538625419466, 52.705307446714166 ], [ 7.01762873269631, 52.673560074727497 ], [ 7.054656907822045, 52.500000000004945 ], [ 7.062693345948235, 52.462669320924071 ], [ 7.02739200049654, 52.451357683836633 ], [ 7.000625288047852, 52.426527613776159 ], [ 7.000000000422981, 52.426677644553905 ], [ 6.909947563706241, 52.448279361022571 ], [ 6.883641589081931, 52.451897026075187 ], [ 6.867910661034011, 52.457079632634191 ], [ 6.775741020956731, 52.466798655781105 ], [ 6.701013624696475, 52.46053874704549 ], [ 6.657857784997904, 52.454462098074544 ], [ 6.634908620554229, 52.439266788482648 ], [ 6.649937471190168, 52.42114393708605 ], [ 6.672601416937874, 52.415864922982649 ], [ 6.671241142120591, 52.403961773445175 ], [ 6.652219223452859, 52.400168941145964 ], [ 6.647633778474963, 52.388301055244064 ], [ 6.662662630009226, 52.359638945146145 ], [ 6.718346168047613, 52.353891095854351 ], [ 6.755095548329966, 52.350304900965043 ], [ 6.790045854626499, 52.342920637953313 ], [ 6.818216722797489, 52.365715556261904 ], [ 6.94998793281174, 52.349645642302619 ], [ 6.993560631226329, 52.342274455810134 ], [ 7.000000000422981, 52.342755106876311 ], [ 7.013701485123737, 52.343777803432225 ], [ 7.023684152957367, 52.336155037276171 ], [ 7.019669146269723, 52.329427970500376 ], [ 7.031845806352711, 52.319968766308939 ], [ 7.045492441718857, 52.303459766020737 ], [ 7.048147172690892, 52.284607395270122 ], [ 7.028620637090424, 52.260766352231933 ], [ 7.021709558944812, 52.238128556126661 ], [ 7.023223414234662, 52.215730432673446 ], [ 7.027589460077458, 52.194577982185457 ], [ 7.000000000422981, 52.199176171295356 ], [ 6.999089493203826, 52.199327911980056 ], [ 6.969053730587832, 52.155302060775618 ], [ 6.929320520630764, 52.153832012413808 ], [ 6.9024441077162, 52.120047189599745 ], [ 6.867822901020635, 52.090520707317623 ], [ 6.819028499777028, 52.083344939851308 ], [ 6.801499168784823, 52.066029079176673 ], [ 6.78682068536422, 52.051524154929346 ], [ 6.736666008404995, 52.041248527358057 ], [ 6.748645209805391, 52.01731596570442 ], [ 6.804613966539737, 52.016040618142483 ], [ 6.835741485856484, 51.999999999749583 ], [ 6.869205116290428, 51.982941723194457 ], [ 6.86637486529165, 51.973093898056369 ], [ 6.840419929822492, 51.958140504555452 ], [ 6.836031944425514, 51.930495752428541 ], [ 6.795026217867915, 51.917094848647601 ], [ 6.763410781299537, 51.9216105333605 ], [ 6.685458215776965, 51.91567290575982 ], [ 6.615338204048788, 51.89884314522223 ], [ 6.531264397805986, 51.866601336384868 ], [ 6.510641718132907, 51.864648277963077 ], [ 6.500000000392768, 51.863640427400675 ], [ 6.495633954549965, 51.86322692311704 ], [ 6.43635226764163, 51.876433136881907 ], [ 6.356820026370078, 51.891269001833379 ], [ 6.358465521679952, 51.869817337323319 ], [ 6.390739156551952, 51.847194984875678 ], [ 6.37369183189681, 51.833294235185797 ], [ 6.307433248180331, 51.873006749785517 ], [ 6.285054521128621, 51.883377356329319 ], [ 6.19711928777242, 51.891058225249168 ], [ 6.162212861482561, 51.917858465828317 ], [ 6.133230215433708, 51.946695207164183 ], [ 6.091478531457438, 51.953944236495296 ], [ 6.089986616620095, 51.979957365199738 ], [ 6.023091775052505, 51.979917922897236 ], [ 6.000000000362556, 51.973022021793916 ], [ 5.958368985281753, 51.960587049340077 ], [ 5.913501831610747, 51.958337811511178 ], [ 5.876291713504015, 51.929758675218032 ], [ 5.904352882107454, 51.913342401219694 ], [ 5.957228109599571, 51.918174441341328 ], [ 5.999286952724308, 51.933338649197275 ], [ 6.000000000362556, 51.933395048252336 ], [ 6.034895456426155, 51.936155044258825 ], [ 6.063285723732239, 51.92074166133262 ], [ 6.114954255082981, 51.910208537472862 ], [ 6.114515456812778, 51.891651033318617 ], [ 6.111399987118041, 51.87544478281324 ], [ 6.074409267248086, 51.851018912579782 ], [ 6.02313565416089, 51.854394246234527 ], [ 6.000000000362556, 51.841446781533513 ], [ 5.994460168158811, 51.838345955396285 ], [ 5.960760438010327, 51.85492161949719 ], [ 5.941892099815163, 51.852732981353341 ], [ 5.924778955599153, 51.843489419604417 ], [ 5.951589548054534, 51.824759095720786 ], [ 5.921795125026143, 51.810442267587668 ], [ 5.872605805519024, 51.830840714344255 ], [ 5.860034226274193, 51.821421110164891 ], [ 5.899262818400162, 51.79441783419648 ], [ 5.884804405156189, 51.783709688949457 ], [ 5.87988986147564, 51.768626809180681 ], [ 5.890223567566132, 51.759960446572364 ], [ 5.926183110423121, 51.74520000286163 ], [ 5.968944030959848, 51.73344896803151 ], [ 5.968724631824746, 51.720266707079325 ], [ 6.000000000362556, 51.698783408525323 ], [ 6.01389894464423, 51.689232821808773 ], [ 6.027918558719677, 51.668346328373929 ], [ 6.042530551537921, 51.642191476514363 ], [ 6.000000000362556, 51.626440279252172 ], [ 5.990335461903618, 51.622860248844376 ], [ 5.966859738278075, 51.607829434376598 ], [ 5.955626494296352, 51.605973431751558 ], [ 5.9387985696746, 51.619016865973038 ], [ 5.916748941325544, 51.620925344947381 ], [ 5.905888676951481, 51.607789664130927 ], [ 5.917143860487387, 51.592011192878587 ], [ 5.92712652742271, 51.522042286819584 ], [ 5.920390969303851, 51.515440623180517 ], [ 5.926405397641862, 51.500000000093614 ], [ 5.938996029255527, 51.468014333933944 ], [ 5.912602294617841, 51.429501983582071 ], [ 5.868481098365497, 51.41109610886582 ], [ 5.837918778364267, 51.393275601691322 ], [ 5.834496149521063, 51.39224804295538 ], [ 5.762445424685339, 51.37260139505058 ], [ 5.687235349249871, 51.359736221189131 ], [ 5.669376247615154, 51.344493671354549 ], [ 5.679578314583921, 51.304200333806101 ], [ 5.647282740157701, 51.295369045384824 ], [ 5.57672393015933, 51.361819149361914 ], [ 5.536354461452844, 51.369846761061403 ], [ 5.508293292849405, 51.355200908687905 ], [ 5.500000000332335, 51.343980031873983 ], [ 5.499034642880236, 51.342673718753659 ], [ 5.470556615560779, 51.35195735591023 ], [ 5.451772860037812, 51.357881969872103 ], [ 5.453158252648774, 51.350770632885876 ], [ 5.452258715655868, 51.33532722844749 ], [ 5.450437701217548, 51.323586214055155 ], [ 5.44903354639358, 51.315101780585223 ], [ 5.45028412164335, 51.311235100833834 ], [ 5.421389236506161, 51.298643025355126 ], [ 5.407413501539036, 51.269274428360923 ], [ 5.341988635254641, 51.234969576506678 ], [ 5.317233716054377, 51.188965448043326 ], [ 5.306029092397642, 51.207226746743061 ], [ 5.29514688757107, 51.220888686854479 ], [ 5.27748524551728, 51.22883533618328 ], [ 5.263246231408408, 51.243878624869161 ], [ 5.267370938561925, 51.263937459101712 ], [ 5.284813181480586, 51.274518318388168 ], [ 5.308837402943901, 51.282138718326557 ], [ 5.290363983012256, 51.285241983296729 ], [ 5.301004849149542, 51.307645261032839 ], [ 5.289288926890933, 51.324047996759106 ], [ 5.25826586816699, 51.323084845247394 ], [ 5.20405230451344, 51.372034665883923 ], [ 5.218773996899236, 51.386306188755881 ], [ 5.217304021616076, 51.402311852932336 ], [ 5.198325983853361, 51.413426878454615 ], [ 5.18296803361648, 51.410938086150814 ], [ 5.160084687835339, 51.397609538375498 ], [ 5.144068540193162, 51.421326903146216 ], [ 5.11302354191501, 51.444018671425319 ], [ 5.07682265947041, 51.447281984032706 ], [ 5.083426578467544, 51.47253841058221 ], [ 5.064141380658064, 51.489447098340378 ], [ 5.027238420801476, 51.496663584568985 ], [ 5.000000000302123, 51.453941560342635 ], [ 4.999923099123901, 51.453821063272393 ], [ 4.941566659890256, 51.43197659744731 ], [ 4.912674069948627, 51.446584602205775 ], [ 4.810132840028738, 51.442360607972354 ], [ 4.816965992018371, 51.456517994357007 ], [ 4.859678688295673, 51.46333196571009 ], [ 4.844869862920614, 51.476115268077734 ], [ 4.872883590595611, 51.480835762697694 ], [ 4.867324787769697, 51.491287477442746 ], [ 4.842189333231945, 51.492299653612953 ], [ 4.838689940652765, 51.500000000093614 ], [ 4.834675062424208, 51.508930998729156 ], [ 4.806749221425052, 51.509675002941883 ], [ 4.777852807355267, 51.500000000093614 ], [ 4.729760905731815, 51.484070135125791 ], [ 4.714820250792181, 51.447663566090661 ], [ 4.633986913917595, 51.45557079755806 ], [ 4.565237929840653, 51.440083962092203 ], [ 4.531006253313516, 51.467843356950915 ], [ 4.543486093906589, 51.483557384262042 ], [ 4.507254404637627, 51.500000000093614 ], [ 4.506815574926397, 51.500201320630943 ], [ 4.506056505697829, 51.500000000093614 ], [ 4.500000000271902, 51.498411277434748 ], [ 4.459818426783512, 51.487869571260283 ], [ 4.430552320940016, 51.473511553782245 ], [ 4.413150852552083, 51.456728479976199 ], [ 4.416622356933266, 51.433977250258202 ], [ 4.4388575673386, 51.418996538445661 ], [ 4.470386743181821, 51.404010889384431 ], [ 4.43479282991681, 51.359182515515542 ], [ 4.314696331049185, 51.368779130535309 ], [ 4.292614922101979, 51.391668384130789 ], [ 4.225689577340609, 51.383842265451619 ], [ 4.171372154067169, 51.382323864028443 ], [ 4.164564721742436, 51.389376024101082 ], [ 4.140593759595695, 51.407593145462457 ], [ 4.106735598970451, 51.424855137366521 ], [ 4.092190431826219, 51.449716157718584 ], [ 4.130333045215334, 51.458096611596424 ], [ 4.177154420904855, 51.455781287567774 ], [ 4.210902722960751, 51.456807411831861 ], [ 4.243091045728542, 51.479507761940205 ], [ 4.231226408272979, 51.494113627998694 ], [ 4.21178264883269, 51.500000000093614 ], [ 4.198664568704998, 51.504014948321206 ], [ 4.199191886064983, 51.527421200789782 ], [ 4.189590318609147, 51.550443701387216 ], [ 4.181966190130369, 51.568850620173407 ], [ 4.173001797705559, 51.593721898207754 ], [ 4.244343423897051, 51.579318121868297 ], [ 4.381094359348867, 51.587727513967458 ], [ 4.423455509821224, 51.632321527911273 ], [ 4.406339671557659, 51.654668240076795 ], [ 4.378030871566379, 51.668425473349444 ], [ 4.371273075652661, 51.671708940351458 ], [ 4.388850316493931, 51.677731888895138 ], [ 4.429431771437758, 51.663685916334643 ], [ 4.45656663774441, 51.675931707333092 ], [ 4.500000000271902, 51.675894538244656 ], [ 4.502970553745013, 51.675891996523994 ], [ 4.564864413938787, 51.684508397848724 ], [ 4.649806430225573, 51.704104241557509 ], [ 4.720225252159968, 51.707014442568735 ], [ 4.798971292386489, 51.719658405174144 ], [ 4.862644847210415, 51.717039968335541 ], [ 4.898458475817508, 51.711617467609145 ], [ 4.985773420673403, 51.717000293768166 ], [ 4.887318899170469, 51.731175072206433 ], [ 4.87850830730548, 51.744750638327631 ], [ 4.940358224610464, 51.785360309567352 ], [ 4.84691321667997, 51.749600893145605 ], [ 4.904654453674447, 51.806324508645147 ], [ 4.864051026837042, 51.788885831384263 ], [ 4.812373938134921, 51.754463838363392 ], [ 4.834411404193347, 51.814097781938386 ], [ 4.780383359714001, 51.745807959327756 ], [ 4.690475771845239, 51.730170290986543 ], [ 4.680083227900295, 51.753697430411549 ], [ 4.633283824104282, 51.721126249671066 ], [ 4.551791340305137, 51.704487869718271 ], [ 4.500000000271902, 51.702793988708002 ], [ 4.489501993214295, 51.702450634131246 ], [ 4.449601656190201, 51.712622663325668 ], [ 4.373404316087811, 51.712781376826712 ], [ 4.245156371381396, 51.739357915147863 ], [ 4.20747516146832, 51.776855663288003 ], [ 4.159665065841081, 51.784158663865917 ], [ 4.100979052695999, 51.804120296280161 ], [ 4.060529426418423, 51.824125821106989 ], [ 4.034537081507536, 51.856187288757503 ], [ 4.024935513153402, 51.879398068628774 ], [ 4.051587004988813, 51.895299922929304 ], [ 4.060024080951944, 51.924506651007349 ], [ 4.068303620262015, 51.943311441475892 ], [ 4.074371503749341, 51.957088185865814 ], [ 4.099858503193741, 51.942261009828123 ], [ 4.129717841179518, 51.91827976638595 ], [ 4.166322445377422, 51.922453059723352 ], [ 4.123236234096506, 51.957509116320793 ], [ 4.193589140350315, 51.931535536662153 ], [ 4.256230033246148, 51.923901114705139 ], [ 4.296416000394609, 51.871029867855903 ], [ 4.472869528523629, 51.857123334284331 ], [ 4.500000000271902, 51.856054808660531 ], [ 4.592372796147296, 51.852416542561087 ], [ 4.690256056503158, 51.828479402602056 ], [ 4.586023017730571, 51.860985961063754 ], [ 4.500000000271902, 51.863757119426303 ], [ 4.470628430417438, 51.864703260472417 ], [ 4.303930271202346, 51.877698198449202 ], [ 4.274114876105322, 51.920899639726187 ], [ 4.425850408487237, 51.938918623545177 ], [ 4.500000000271902, 51.934637401991871 ], [ 4.500839313309863, 51.934588939528325 ], [ 4.544606643408846, 51.947471475241336 ], [ 4.597602025061764, 51.946261017303677 ], [ 4.591296189533792, 51.954049476620924 ], [ 4.540036560520615, 51.958364119113327 ], [ 4.503190269087095, 51.940339826379898 ], [ 4.500000000271902, 51.940701737969114 ], [ 4.429299942771507, 51.948721370282726 ], [ 4.278926645330846, 51.929824486326744 ], [ 4.2151212609423, 51.942682080189016 ], [ 4.152172766926888, 51.968583420311781 ], [ 4.09337689521244, 51.983244091663067 ], [ 4.11209381428162, 51.999999999749583 ], [ 4.155644272206406, 52.039402911234426 ], [ 4.236411694298703, 52.10270756847585 ], [ 4.325132817882883, 52.173071219926314 ], [ 4.476736521598546, 52.333015867444708 ], [ 4.500000000271902, 52.363045549680365 ], [ 4.507738380081793, 52.373030101524087 ], [ 4.528809098096078, 52.422921018355822 ], [ 4.551176137167653, 52.451041968708587 ], [ 4.59566852807516, 52.448082025199227 ], [ 4.622605650034941, 52.446700650106422 ], [ 4.650905007834297, 52.447608415707876 ], [ 4.635722666557337, 52.454672559201427 ], [ 4.598085398634672, 52.463958135739368 ], [ 4.559898843255145, 52.468324044099447 ], [ 4.572796143537135, 52.499806182114938 ], [ 4.57286162083987, 52.500000000004945 ], [ 4.644159741622161, 52.712952991919344 ], [ 4.658243506188705, 52.760264553339255 ], [ 4.701681263274566, 52.814122814993176 ], [ 4.736989545516884, 52.937115067125184 ], [ 4.757137458375785, 52.954782673992504 ], [ 4.796158933133199, 52.953690992331126 ], [ 4.807759912357936, 52.937194015034962 ], [ 4.801981394189949, 52.92313897278941 ], [ 4.813977861210086, 52.900164639035225 ], [ 4.90621443386086, 52.868981599267968 ], [ 4.932646209455865, 52.866358930717311 ], [ 4.956617172500939, 52.847112370139577 ], [ 4.977775776292723, 52.866952010566365 ], [ 4.945082108058489, 52.875372862155814 ], [ 4.999022265862049, 52.90890817847356 ], [ 5.000000000302123, 52.909088785110512 ], [ 5.018434147686167, 52.912498704789471 ], [ 5.041301915781939, 52.916728456727235 ], [ 5.073312270613855, 52.864329218716819 ], [ 5.11436187717811, 52.809675676124634 ], [ 5.088385002154777, 52.778440457139048 ], [ 5.0900408083275, 52.774145370859749 ], [ 5.104861888519665, 52.735683258490475 ], [ 5.148983083873711, 52.717899392027945 ], [ 5.188979573870853, 52.740309835606304 ], [ 5.232508392278723, 52.741129349395194 ], [ 5.276124969801708, 52.727539284623539 ], [ 5.288915948181597, 52.673732173440342 ], [ 5.250608832602716, 52.668383544020806 ], [ 5.226189692875909, 52.654254172005629 ], [ 5.220441431763321, 52.617923145177784 ], [ 5.192599662294949, 52.598380367232103 ], [ 5.128754469962929, 52.589653557126148 ], [ 5.103172514101404, 52.606071244143649 ], [ 5.053456635412418, 52.60829869303906 ], [ 5.012143750604677, 52.592982682892689 ], [ 5.023793852404085, 52.555259824883414 ], [ 5.086125189446263, 52.504096824177694 ], [ 5.080442757776002, 52.500000000004945 ], [ 5.066510892934128, 52.490068198807563 ], [ 5.037967046053777, 52.483535569960551 ], [ 5.002950920196367, 52.485296978569046 ], [ 5.035422014649293, 52.476213135352801 ], [ 5.033052502373226, 52.460341466424531 ], [ 5.04509752333448, 52.448529318383478 ], [ 5.077809956476683, 52.439477322037263 ], [ 5.064514359367399, 52.420103981817206 ], [ 5.039042103073425, 52.39879922666772 ], [ 5.003060619763918, 52.385126082442852 ], [ 5.000000000302123, 52.385661866387281 ], [ 4.963648068837435, 52.392015877490252 ], [ 4.927307122870365, 52.39263498352544 ], [ 4.878310563856914, 52.422960507915747 ], [ 4.842057503667371, 52.432831862224766 ], [ 4.787238483597169, 52.438661498332593 ], [ 4.686916380788253, 52.443385172250501 ], [ 4.678962679296335, 52.434174194397372 ], [ 4.7368357449571, 52.423750298239682 ], [ 4.715457425823199, 52.416167726442524 ], [ 4.687575526814488, 52.394689827389271 ], [ 4.685444286379338, 52.37238436171392 ], [ 4.656463810660211, 52.331287909400984 ], [ 4.553900609745077, 52.260805988158602 ], [ 4.517977123466943, 52.228596858494306 ], [ 4.513978300827477, 52.207212463853061 ], [ 4.552955832696147, 52.194604445576907 ], [ 4.595053324937678, 52.21922179592562 ], [ 4.631086668886844, 52.23885306615842 ], [ 4.6326686209668, 52.239714769886369 ], [ 4.654046940100664, 52.24383865768241 ], [ 4.711766205201635, 52.256881881847988 ], [ 4.722421960914718, 52.264009909697471 ], [ 4.770626880482373, 52.296241571764874 ], [ 4.777812687696373, 52.301044261035905 ], [ 4.815493898507745, 52.341061190127846 ], [ 4.793807977355976, 52.374835486589035 ], [ 4.76999081576902, 52.403408672019438 ], [ 4.785964133535126, 52.416760162237324 ], [ 4.818306256862702, 52.413468751775532 ], [ 4.851593157239207, 52.41694447370805 ], [ 4.891493494263299, 52.405384000527697 ], [ 4.921374804142585, 52.383136667503663 ], [ 4.939457390450289, 52.379157566786596 ], [ 4.975666506852791, 52.374940908130057 ], [ 5.000000000302123, 52.367625311137047 ], [ 5.020568683141797, 52.361431698847333 ], [ 5.093672524544662, 52.348472137038129 ], [ 5.124015445410799, 52.319810436154377 ], [ 5.158285613849527, 52.307854852556012 ], [ 5.237203536824169, 52.305927931508776 ], [ 5.276628727046718, 52.301839533397825 ], [ 5.295497926726231, 52.299882659927881 ], [ 5.332093727434341, 52.27373853481474 ], [ 5.393459707024448, 52.263276542612388 ], [ 5.403984660845668, 52.261788032307145 ], [ 5.462680181759727, 52.253485993062682 ], [ 5.500000000332335, 52.260621174721621 ], [ 5.564547269178045, 52.272959254805173 ], [ 5.63181509035327, 52.327752638913353 ], [ 5.725603232264441, 52.376475823232283 ], [ 5.869973014101173, 52.451370838858693 ], [ 5.87357461879002, 52.500000000004945 ], [ 5.874470699065695, 52.51222952794091 ], [ 5.900052655825518, 52.550069219420379 ], [ 5.959202702713792, 52.564444755116966 ], [ 6.000000000362556, 52.57148617552226 ], [ 6.010564075814391, 52.573309299403491 ], [ 6.018330810047892, 52.597239880320274 ], [ 6.000000000362556, 52.606830359439968 ], [ 5.982239628069132, 52.61612037936343 ], [ 5.947355141333458, 52.623980422074453 ], [ 5.934300883811783, 52.657525390563094 ], [ 5.911987977219229, 52.687378789083233 ], [ 5.895995678949485, 52.695994213855116 ], [ 5.844610456476453, 52.723665072276496 ], [ 5.767952346210325, 52.740111563797186 ], [ 5.752067838588163, 52.763091829579288 ], [ 5.70880229932205, 52.782904011357694 ], [ 5.681267689002182, 52.770647943992991 ], [ 5.649783891555538, 52.773844364751596 ], [ 5.617246977541718, 52.787380309247389 ], [ 5.577996445861563, 52.776934894680522 ], [ 5.538087715877788, 52.777859369230391 ], [ 5.514370653562978, 52.798285221786919 ], [ 5.500000000332335, 52.801271067296014 ], [ 5.470534676006603, 52.807392546084337 ], [ 5.432161740866847, 52.812473336338549 ], [ 5.392823449173336, 52.842233454700988 ], [ 5.391880032173737, 52.871169230500357 ], [ 5.418383466378974, 52.87929939600113 ], [ 5.449099365954447, 52.893579477775596 ], [ 5.438129402012835, 52.999885692252079 ], [ 5.438077062571147, 52.999999999855014 ], [ 5.412898483509839, 53.055597528933802 ], [ 5.436154808000316, 53.085470039038917 ], [ 5.478762148962807, 53.222105108133114 ], [ 5.500000000332335, 53.232071334477325 ], [ 5.566785142332348, 53.263396223289412 ], [ 5.618497553689775, 53.300265297818719 ], [ 5.688485925397928, 53.313132893400855 ], [ 5.889565370160827, 53.369519543284639 ], [ 6.000000000362556, 53.388487573656313 ], [ 6.001634524547875, 53.388768252590395 ], [ 6.155148204661049, 53.395827873287878 ], [ 6.246669407528558, 53.395360704317341 ], [ 6.315112222400492, 53.395011335408299 ], [ 6.352717260567365, 53.365355085787982 ], [ 6.386811908979388, 53.379718100106786 ], [ 6.500000000392768, 53.398310175224381 ], [ 6.567882138966604, 53.409456461280051 ], [ 6.728855394164811, 53.430410906084902 ], [ 6.831007701177422, 53.431213602480121 ], [ 6.888336733627377, 53.424594192336755 ], [ 6.894392153888433, 53.364524780918842 ], [ 6.928750082340546, 53.308698961859058 ], [ 6.994240769084143, 53.285505658033578 ], [ 7.000000000422981, 53.285204738248332 ], [ 7.090776454105884, 53.280461386648625 ], [ 7.098587068346069, 53.242200535596041 ], [ 7.149794861872397, 53.2162994670092 ], [ 7.199141725219116, 53.215301428537366 ], [ 7.220419491431681, 53.214871078758122 ], [ 7.269564930932078, 53.243363664925965 ], [ 7.289486386592718, 53.295407591795303 ], [ 7.252394811069165, 53.301620571532247 ], [ 7.247010684751952, 53.302522357683422 ], [ 7.164143574650532, 53.316392065694501 ], [ 7.118530463560854, 53.316352482402145 ], [ 7.117311235022934, 53.316351417816946 ], [ 7.027852739219243, 53.316273315168914 ], [ 7.033798459912756, 53.352200094455959 ], [ 7.022411637255124, 53.400055179835682 ], [ 7.033293841183362, 53.458351562123113 ], [ 7.073443910754746, 53.493763860739406 ], [ 7.133230215494142, 53.491648369765713 ], [ 7.138946942146986, 53.499999999893774 ], [ 7.148105487454137, 53.513535804944212 ], [ 7.108657496193072, 53.507355610828498 ], [ 7.099552425798139, 53.52356838438596 ], [ 7.181783277150139, 53.574810219101671 ], [ 7.327135303867975, 53.618606436131124 ], [ 7.342657803007053, 53.618100692487033 ], [ 7.421486429849183, 53.614257239363752 ], [ 7.47384760540309, 53.611083550417852 ], [ 7.499999999554868, 53.606467130096803 ], [ 7.520162793904748, 53.602907647624903 ], [ 7.705950108889956, 53.642090627936462 ], [ 7.773305689180224, 53.647019050376805 ], [ 7.779517392944519, 53.647476314924937 ], [ 7.77749258670087, 53.646895115755925 ], [ 7.79408280092875, 53.625817427200865 ], [ 7.819664757688574, 53.60675333231368 ], [ 7.848976502440079, 53.529148388961325 ], [ 7.846451651688462, 53.499999999893774 ], [ 7.846387591028913, 53.499268895824834 ], [ 7.818172842851238, 53.476850108590135 ], [ 7.8223853091198, 53.450631579440618 ], [ 7.812512340853685, 53.424396778389493 ], [ 7.834693609222847, 53.411391760017779 ], [ 7.882369073440112, 53.418026398008131 ], [ 7.915432545737477, 53.413932528047525 ], [ 7.937964852363421, 53.431805745602439 ], [ 7.968614932378026, 53.417592019017164 ], [ 7.961725794684959, 53.37592357482589 ], [ 7.984594221245835, 53.352361063413213 ], [ 7.985684196587386, 53.351237694980178 ] ], [ [ 5.734157227555055, 51.81025109203145 ], [ 5.734274556514322, 51.811616815403461 ], [ 5.705357730924661, 51.821117644908867 ], [ 5.653469799540493, 51.837040213157699 ], [ 5.644935167435847, 51.855066645805003 ], [ 5.634162663075161, 51.858586689213887 ], [ 5.632394003349913, 51.85555313384917 ], [ 5.612771232131363, 51.821882901758421 ], [ 5.621744663404571, 51.802061173537226 ], [ 5.622622259944968, 51.776697176446767 ], [ 5.625013712673542, 51.748926910663108 ], [ 5.616917878839065, 51.725119603170519 ], [ 5.638616468033007, 51.708006513604204 ], [ 5.657879725389979, 51.681940856268675 ], [ 5.699390069778638, 51.690159121061328 ], [ 5.732804581231154, 51.691786715462193 ], [ 5.752089778142347, 51.685077472235953 ], [ 5.766262971792064, 51.693189310539722 ], [ 5.757859979707442, 51.734083523126571 ], [ 5.746231817462208, 51.739913078165984 ], [ 5.732848461237846, 51.736767063184914 ], [ 5.729184492807057, 51.763593652774716 ], [ 5.731839223779092, 51.783260709541786 ], [ 5.734157227555055, 51.81025109203145 ] ], [ [ 6.148215186961252, 51.963335963454504 ], [ 6.165174751603064, 51.944405795107251 ], [ 6.21530748810978, 51.947300434348435 ], [ 6.230511858772426, 51.976012973260232 ], [ 6.181168959691066, 51.989514494118673 ], [ 6.148215186961252, 51.963335963454504 ] ], [ [ 5.349360451224621, 51.301969571639297 ], [ 5.332049847427659, 51.295619882450382 ], [ 5.315989819778789, 51.286681298390867 ], [ 5.324019834052373, 51.275482494811527 ], [ 5.342559073544894, 51.270634992088503 ], [ 5.360462055186258, 51.272880493370351 ], [ 5.37097128040516, 51.281821777608954 ], [ 5.363160666164976, 51.291989206303192 ], [ 5.349360451224621, 51.301969571639297 ] ] ], [ [ [ 4.141999938324025, 51.340708615202672 ], [ 4.136638879844973, 51.312422852932499 ], [ 4.086236141204903, 51.300755146624979 ], [ 4.093530696670559, 51.279299376569476 ], [ 4.086939231018217, 51.265694500619183 ], [ 4.049301963993877, 51.256908618900844 ], [ 4.013664107840112, 51.25026193578929 ], [ 4.000000000241688, 51.248305898278275 ], [ 3.969259602710112, 51.243905058653539 ], [ 3.904992815743868, 51.239715116591825 ], [ 3.84454907806551, 51.242411527020337 ], [ 3.7952888599229, 51.256380091143065 ], [ 3.803132703743749, 51.285743767848956 ], [ 3.777052472157069, 51.290800922538608 ], [ 3.757190190320835, 51.272140811021224 ], [ 3.753916429388226, 51.256525436476629 ], [ 3.726034530379517, 51.252085574917274 ], [ 3.69017695888367, 51.252587724115543 ], [ 3.67407181155299, 51.268640365712599 ], [ 3.652693492419124, 51.258560229409724 ], [ 3.635028364902032, 51.251279482345701 ], [ 3.62527299688641, 51.257899591913109 ], [ 3.613672017661674, 51.261559401370107 ], [ 3.594732540082529, 51.254688760594981 ], [ 3.586537151355022, 51.262404946852421 ], [ 3.584098309800265, 51.283115939540082 ], [ 3.545604151504538, 51.267464684696293 ], [ 3.52174304702883, 51.26605118524153 ], [ 3.502188366312175, 51.255362657491574 ], [ 3.500000000211477, 51.255435528562167 ], [ 3.469253010842326, 51.256459370216959 ], [ 3.436207797701437, 51.250394085554341 ], [ 3.403118641671803, 51.271638876513187 ], [ 3.393275386980351, 51.29370556211078 ], [ 3.376708837071973, 51.307460482674216 ], [ 3.378005159027559, 51.320063320698807 ], [ 3.380436428682777, 51.330136486276274 ], [ 3.402525410427828, 51.336448402871163 ], [ 3.411072343163686, 51.330815870457421 ], [ 3.423991615339217, 51.31784652919675 ], [ 3.483644377426774, 51.312845157178693 ], [ 3.49282848609199, 51.328058709410485 ], [ 3.493707347460299, 51.345007993095415 ], [ 3.492960314758241, 51.369398622664285 ], [ 3.500000000211477, 51.375312400954918 ], [ 3.506526429633888, 51.380794326410211 ], [ 3.512383165910284, 51.385713277813963 ], [ 3.528004938769733, 51.392788172904417 ], [ 3.544857118802444, 51.389033477378263 ], [ 3.637752837479455, 51.35178594267142 ], [ 3.637474514251606, 51.344508303909869 ], [ 3.637241340349947, 51.338412238895849 ], [ 3.636939889995101, 51.330525650649093 ], [ 3.647767031688016, 51.333348749487548 ], [ 3.658340181022536, 51.336105457982313 ], [ 3.677081914254809, 51.332939693890147 ], [ 3.685547113774532, 51.330335159939025 ], [ 3.71236822550189, 51.322082090540384 ], [ 3.713884262799549, 51.315682414608126 ], [ 3.713291030657312, 51.30697213478097 ], [ 3.707446597707029, 51.296200764301169 ], [ 3.698921635966372, 51.291197020373843 ], [ 3.698997218417757, 51.290072489163606 ], [ 3.699185295095532, 51.287275497721609 ], [ 3.704744097023112, 51.286351184562406 ], [ 3.707051109911619, 51.290048326681706 ], [ 3.715641986434535, 51.295778305506104 ], [ 3.720651500006921, 51.29902585478834 ], [ 3.727330852335102, 51.317477053194921 ], [ 3.748313683673558, 51.310997546479953 ], [ 3.777411926729802, 51.313277487589303 ], [ 3.788604235382325, 51.314154408315247 ], [ 3.816082736031223, 51.316307246981751 ], [ 3.924090268353941, 51.324768499811043 ], [ 3.960536896622584, 51.327623353254268 ], [ 3.97622458426432, 51.354620778148281 ], [ 4.000000000241688, 51.361072142890919 ], [ 4.003579165913044, 51.362043256394664 ], [ 4.078524126948593, 51.320221658948697 ], [ 4.0952664493103, 51.34421672703796 ], [ 4.141999938324025, 51.340708615202672 ] ] ], [ [ [ 6.021471512520636, 50.968931006648184 ], [ 6.026777683037495, 50.961131189383998 ], [ 6.029893152732232, 50.944157991010663 ], [ 6.031472827582941, 50.929785110996846 ], [ 6.006702647802658, 50.9132218054365 ], [ 6.027084841287666, 50.898035763391775 ], [ 6.015325039920706, 50.883819856602031 ], [ 6.000000000362556, 50.874663065163539 ], [ 5.998606814866505, 50.87383054044215 ], [ 5.965345882988233, 50.873290159707949 ], [ 5.933686566413135, 50.877112228377946 ], [ 5.918899054466507, 50.892397353029885 ], [ 5.893558437294259, 50.894953165938333 ], [ 5.887239737891444, 50.882212222757794 ], [ 5.874580398633245, 50.863417220096949 ], [ 5.873351762937696, 50.85099726740475 ], [ 5.873878321221267, 50.841541635239892 ], [ 5.886384080006898, 50.826450834106637 ], [ 5.922782422032425, 50.812239364283514 ], [ 5.942638057233833, 50.80912466364304 ], [ 5.941541060660002, 50.796175302117497 ], [ 5.895642729976066, 50.791290304226713 ], [ 5.852377191608243, 50.800954182280776 ], [ 5.825281379558577, 50.800412952487939 ], [ 5.80206893507482, 50.794775869084944 ], [ 5.792568946416375, 50.78423915897897 ], [ 5.770892296776644, 50.772828299635606 ], [ 5.735327673081462, 50.766368829634317 ], [ 5.711522850753276, 50.766012145874654 ], [ 5.70961407630158, 50.766157461768245 ], [ 5.715603677001778, 50.794260972584077 ], [ 5.716733453998625, 50.794291990188576 ], [ 5.744937361307458, 50.795066320742762 ], [ 5.772647490755772, 50.80094098128194 ], [ 5.796847232245803, 50.811434313661849 ], [ 5.810384168044398, 50.823099588449132 ], [ 5.808234054903434, 50.832532594767507 ], [ 5.788817218870516, 50.83059337823628 ], [ 5.757991618829168, 50.830210801602107 ], [ 5.74090041506564, 50.830276763276458 ], [ 5.723523991707811, 50.829669913134403 ], [ 5.68850786585041, 50.835513817811929 ], [ 5.656958247944565, 50.82827148809281 ], [ 5.638287369330353, 50.8622834770336 ], [ 5.654588735668535, 50.881658762239169 ], [ 5.689550931167854, 50.886295813440313 ], [ 5.708078281457554, 50.889090395448044 ], [ 5.72677110052431, 50.88347725079602 ], [ 5.735086333493852, 50.901987511670086 ], [ 5.770738717202409, 50.914986382647761 ], [ 5.796430373529783, 50.959855126968641 ], [ 5.792217907261223, 50.967484667398047 ], [ 5.830217863691634, 50.982739968913151 ], [ 5.847111608772577, 50.982739968913151 ], [ 5.87455845907907, 50.966208779849694 ], [ 5.87455845907907, 50.953500599939986 ], [ 5.862250158976023, 50.944592266956846 ], [ 5.866287106116175, 50.930706583510741 ], [ 5.886362140452722, 50.922754988616568 ], [ 5.90694179351862, 50.92391358371664 ], [ 5.933686566413135, 50.944592266956846 ], [ 5.925590732578693, 50.961223275186541 ], [ 5.939829745789268, 50.966116704548611 ], [ 5.958829724004466, 50.956566143523773 ], [ 5.98434586120342, 50.968642142311808 ], [ 6.000000000362556, 50.971049179139897 ], [ 6.016382914863906, 50.973568140855754 ], [ 6.018133350466974, 50.973837271316761 ], [ 6.021471512520636, 50.968931006648184 ] ] ], [ [ [ 3.870409593411777, 51.757383995140124 ], [ 3.990484121284183, 51.78464724865421 ], [ 4.000000000241688, 51.781810107832293 ], [ 4.166586104506582, 51.732113729488717 ], [ 4.202443676002392, 51.706868937126771 ], [ 4.244672997808498, 51.686692016528553 ], [ 4.336777739996363, 51.661170153087077 ], [ 4.371141246088086, 51.643979759551208 ], [ 4.37116321798162, 51.624715558044883 ], [ 4.336667882325323, 51.613423496915154 ], [ 4.273697416416377, 51.614709237547707 ], [ 4.136748737516014, 51.653833914464023 ], [ 4.061276459120481, 51.650854054507597 ], [ 4.052443895361921, 51.692951136991326 ], [ 4.030977690450548, 51.724656815845059 ], [ 4.000000000241688, 51.734752955392793 ], [ 3.985584465382838, 51.739450442514794 ], [ 3.913210175466622, 51.725357606529464 ], [ 3.871574085802787, 51.734189281159495 ], [ 3.870409593411777, 51.757383995140124 ] ] ], [ [ [ 3.859814692270967, 51.686383140048534 ], [ 3.959614091467198, 51.672807691806504 ], [ 3.985298835258469, 51.659541452305291 ], [ 4.000000000241688, 51.640045178461556 ], [ 4.003645080695332, 51.635209870753656 ], [ 4.047676069025141, 51.62857170659646 ], [ 4.077030061544468, 51.606437439278224 ], [ 4.029329823588315, 51.590936995604004 ], [ 4.000000000241688, 51.582084506617029 ], [ 3.985298835258469, 51.577646668123137 ], [ 3.974291088176006, 51.590936995604004 ], [ 3.941267846030325, 51.602009283727384 ], [ 3.908244604782979, 51.597580694071411 ], [ 3.86421361645317, 51.613078858693676 ], [ 3.842198122288251, 51.630784536480697 ], [ 3.790828634705699, 51.639634771046339 ], [ 3.739459148021491, 51.62857170659646 ], [ 3.705417086087886, 51.624249352475083 ], [ 3.669743415900401, 51.619719301466141 ], [ 3.636720174653019, 51.648483269757676 ], [ 3.648914386020028, 51.672715027331506 ], [ 3.662910263910741, 51.684256943903165 ], [ 3.684420412609217, 51.688280036347635 ], [ 3.735789899293436, 51.688280036347635 ], [ 3.779820887623245, 51.690489937485864 ], [ 3.800979491415065, 51.680551146413137 ], [ 3.822074377703764, 51.684074043413652 ], [ 3.82366094353101, 51.684375789428529 ], [ 3.845655345253048, 51.688294857576899 ], [ 3.845867371016306, 51.688280036347635 ], [ 3.859814692270967, 51.686383140048534 ] ] ], [ [ [ 3.452928149067898, 51.509582003363391 ], [ 3.454619957920596, 51.526318907753762 ], [ 3.492147367273887, 51.539584488037882 ], [ 3.500000000211477, 51.541509560793301 ], [ 3.560764521786253, 51.556403213925435 ], [ 3.615803258096851, 51.541084754755531 ], [ 3.649221987139607, 51.519239685946047 ], [ 3.685167445311284, 51.505356950431207 ], [ 3.707679742862608, 51.500000000093614 ], [ 3.761167041066803, 51.487409449093782 ], [ 3.746973418829219, 51.462503294033553 ], [ 3.735284553826984, 51.445887209672271 ], [ 3.705600987396211, 51.435188128807653 ], [ 3.545296550384923, 51.451452893873622 ], [ 3.500496557459512, 51.475234229954843 ], [ 3.500000000211477, 51.475591815872008 ], [ 3.466096654327433, 51.500000000093614 ], [ 3.452928149067898, 51.509582003363391 ] ] ], [ [ [ 4.743998470858179, 53.000748366992696 ], [ 4.752018087132357, 53.062911649125965 ], [ 4.77238571533333, 53.088653796189462 ], [ 4.814834751583184, 53.121976177200985 ], [ 4.877190014354657, 53.165893406233721 ], [ 4.89808495991565, 53.166052300553858 ], [ 4.918584416782864, 53.120650672784372 ], [ 4.897381870102336, 53.066389069195445 ], [ 4.866336067832013, 53.051442127537619 ], [ 4.826106157794809, 53.027510867746777 ], [ 4.812471401749979, 52.999999999855014 ], [ 4.810550299717646, 52.996167238930212 ], [ 4.765728334898702, 52.984563071112866 ], [ 4.744992289633415, 52.999999999855014 ], [ 4.743998470858179, 53.000748366992696 ] ] ], [ [ [ 3.791464271820959, 51.371431025517879 ], [ 3.759233544080191, 51.37999458928013 ], [ 3.751257871593054, 51.409831912334738 ], [ 3.785467576226657, 51.431673859161272 ], [ 3.835167225053422, 51.43360871581968 ], [ 3.851246666193923, 51.432542053750915 ], [ 3.925250585375512, 51.427632771438752 ], [ 3.967066402774861, 51.424648059003303 ], [ 3.987957393053631, 51.423156880033936 ], [ 4.000000000241688, 51.421737576113244 ], [ 4.037107752626877, 51.417363895360666 ], [ 4.08074325405961, 51.411925718550414 ], [ 4.119435155803911, 51.392577391028631 ], [ 4.120863306425739, 51.375474472228674 ], [ 4.0701749376613, 51.371533829091021 ], [ 4.02511128560673, 51.40079715465945 ], [ 4.000000000241688, 51.401296533452665 ], [ 3.974774461748948, 51.40179817848005 ], [ 3.926568878326308, 51.406197152771014 ], [ 3.889898359346116, 51.365971539019483 ], [ 3.827037751108203, 51.361977342675928 ], [ 3.791464271820959, 51.371431025517879 ] ] ], [ [ [ 3.784127312280651, 51.454044716931307 ], [ 3.804429025699336, 51.477298724833439 ], [ 3.838484929773145, 51.495835522003802 ], [ 3.907255884845297, 51.486844149628517 ], [ 3.948760144944555, 51.49366671323299 ], [ 3.989583287124007, 51.489631139723279 ], [ 4.000000000241688, 51.483701502256729 ], [ 4.051916578001935, 51.454136809525338 ], [ 4.058834980112049, 51.447563039401075 ], [ 4.078765814184209, 51.428620040718222 ], [ 4.006413496161534, 51.437228123728993 ], [ 4.000000000241688, 51.437410295075466 ], [ 3.971560903211708, 51.438218079928085 ], [ 3.92810688751751, 51.439452271435776 ], [ 3.874803903846689, 51.449400380730737 ], [ 3.784127312280651, 51.454044716931307 ] ] ], [ [ [ 3.69584561938059, 51.556044869123454 ], [ 3.764133199981536, 51.568704668457627 ], [ 3.856633430863145, 51.55559361578613 ], [ 3.920614588603317, 51.535083390149239 ], [ 3.942322480750295, 51.516250939544726 ], [ 3.896072365309514, 51.51104340757211 ], [ 3.807461099396365, 51.522467310743515 ], [ 3.764748404017352, 51.50762896140872 ], [ 3.675214332050494, 51.528642988595742 ], [ 3.69584561938059, 51.556044869123454 ] ] ], [ [ [ 5.127152855558044, 53.336508949121772 ], [ 5.158548892991312, 53.367727295137108 ], [ 5.23816889337798, 53.373565000916017 ], [ 5.426501239767636, 53.40526959362775 ], [ 5.500000000332335, 53.421279026014524 ], [ 5.507305995843133, 53.422870080785962 ], [ 5.545349832280228, 53.414472257142698 ], [ 5.500000000332335, 53.405153335597895 ], [ 5.321365102182014, 53.368425753681798 ], [ 5.220573070885048, 53.34889093216956 ], [ 5.189791350850392, 53.330019822083273 ], [ 5.149904561319126, 53.32401781590108 ], [ 5.127152855558044, 53.336508949121772 ] ] ], [ [ [ 4.010895692373909, 51.554876910520882 ], [ 4.076019369713252, 51.572021640385955 ], [ 4.103483809033052, 51.564246275255194 ], [ 4.143559918510437, 51.577898716807404 ], [ 4.16909086084359, 51.568160662051454 ], [ 4.184734605596572, 51.546288833502196 ], [ 4.186909788920476, 51.527248554288434 ], [ 4.163971489600163, 51.508160409982317 ], [ 4.153754718108546, 51.505489819538155 ], [ 4.128904893695164, 51.513979360204814 ], [ 4.077952866699863, 51.520435129306968 ], [ 4.035174256538562, 51.52981162476776 ], [ 4.010895692373909, 51.554876910520882 ] ] ], [ [ [ 5.610138440713539, 53.440200129660056 ], [ 5.653952477817414, 53.446356706161957 ], [ 5.701496302912928, 53.440542185145993 ], [ 5.910166962780909, 53.461099903981719 ], [ 5.97162070238439, 53.460718566166186 ], [ 5.963502928995728, 53.445028119617298 ], [ 5.936099958695892, 53.439923851931681 ], [ 5.910978739760439, 53.444922883111744 ], [ 5.815079312589846, 53.435437376464805 ], [ 5.712883125570552, 53.427989566133121 ], [ 5.674378551309078, 53.416512634045489 ], [ 5.643728471294473, 53.411878861841345 ], [ 5.61457030611721, 53.420514119411081 ], [ 5.610138440713539, 53.440200129660056 ] ] ], [ [ [ 5.739737710322053, 50.983949618349556 ], [ 5.759198314970551, 50.977243380756008 ], [ 5.763476600799979, 50.968181786514961 ], [ 5.754108251263252, 50.962394062043266 ], [ 5.741207573315775, 50.958973702207778 ], [ 5.728899233686891, 50.959526240063767 ], [ 5.707836942768276, 50.960078769044834 ], [ 5.680587551144377, 50.982897756273445 ], [ 5.601735448628891, 50.975086645826707 ], [ 5.590260865957926, 50.994204430569852 ], [ 5.594278594540872, 50.999999999968175 ], [ 5.600002194203973, 51.008344946783446 ], [ 5.678459378455913, 51.007468140572215 ], [ 5.697777658522371, 50.999999999968175 ], [ 5.739737710322053, 50.983949618349556 ] ] ], [ [ [ 6.728416594996311, 53.591129707852595 ], [ 6.781138243812491, 53.583129968843913 ], [ 6.860231685915544, 53.593795949432781 ], [ 6.88219355425127, 53.575128708861193 ], [ 6.825083920038084, 53.561803168125827 ], [ 6.794324140455927, 53.551129075218398 ], [ 6.741602492538052, 53.564471268597643 ], [ 6.728416594996311, 53.591129707852595 ] ] ], [ [ [ 6.13726716257386, 53.456405260344148 ], [ 6.146613571658071, 53.483987040166944 ], [ 6.233513609837032, 53.499999999893774 ], [ 6.252934465830856, 53.503620473966599 ], [ 6.319149828005719, 53.503743964729885 ], [ 6.33130389006942, 53.503766695709984 ], [ 6.329806441609927, 53.499999999893774 ], [ 6.326235766814638, 53.49112276552183 ], [ 6.262961012772871, 53.489322521094572 ], [ 6.238498650606132, 53.473972913711115 ], [ 6.237071896864544, 53.473077430511331 ], [ 6.17783408996293, 53.471802268424398 ], [ 6.13726716257386, 53.456405260344148 ] ] ], [ [ [ 4.885649061313016, 53.209500969335373 ], [ 4.947301234271174, 53.241658612189539 ], [ 5.000000000302123, 53.257371690812988 ], [ 5.006461309052948, 53.259300622342487 ], [ 5.047861953874065, 53.275112749467972 ], [ 5.097731411238988, 53.285571678963052 ], [ 5.097731411238988, 53.269855902134346 ], [ 5.056067487276094, 53.262114738694422 ], [ 5.000000000302123, 53.2491489171083 ], [ 4.981532910798276, 53.244883615598177 ], [ 4.96569142259679, 53.229351131031486 ], [ 4.971162338746874, 53.214408165329836 ], [ 4.948575584333217, 53.211313125976069 ], [ 4.917332038614365, 53.201695909762819 ], [ 4.889395430408186, 53.208578194650372 ], [ 4.885649061313016, 53.209500969335373 ] ] ], [ [ [ 7.160326027543807, 53.655112595418856 ], [ 7.205939138633486, 53.667627361613455 ], [ 7.297165360812841, 53.67763648659038 ], [ 7.33448517938545, 53.67763648659038 ], [ 7.33448517938545, 53.657615847344665 ], [ 7.297165360812841, 53.657615847344665 ], [ 7.214232432048854, 53.650105643507075 ], [ 7.188765439882471, 53.645911927698577 ], [ 7.168619320060878, 53.642594095426027 ], [ 7.160326027543807, 53.655112595418856 ] ] ], [ [ [ 3.423903729561721, 51.34173733771852 ], [ 3.450313534161515, 51.365101545833987 ], [ 3.478195432271927, 51.366380166149618 ], [ 3.486280963328403, 51.335129371077471 ], [ 3.475273216245939, 51.317503444437151 ], [ 3.431242227916129, 51.321910564405378 ], [ 3.423903729561721, 51.34173733771852 ] ] ], [ [ [ 7.695243423191803, 53.697647569754352 ], [ 7.72426994924734, 53.712649612256229 ], [ 7.774029707044719, 53.712649612256229 ], [ 7.811349524718994, 53.715149430258293 ], [ 7.827936110651469, 53.700148283346074 ], [ 7.78232299956179, 53.695146706882824 ], [ 7.740856535179814, 53.695146706882824 ], [ 7.720123302539638, 53.687643222546818 ], [ 7.695243423191803, 53.697647569754352 ] ] ], [ [ [ 4.010983578151442, 51.94390579327105 ], [ 4.02199132523387, 51.983441287553973 ], [ 4.047676069025141, 51.981245790672276 ], [ 4.084368559898876, 51.968070537923673 ], [ 4.055014567379585, 51.961481451228501 ], [ 4.040337570670742, 51.94390579327105 ], [ 4.032999073214659, 51.926323210650267 ], [ 4.010983578151442, 51.94390579327105 ] ] ], [ [ [ 7.482031198352609, 53.690806230778939 ], [ 7.48782333947188, 53.699592582115031 ], [ 7.499999999554868, 53.699592582115031 ], [ 7.519767875641236, 53.699592582115031 ], [ 7.566236643717128, 53.694313052751539 ], [ 7.603973321005763, 53.694313052751539 ], [ 7.598181179886485, 53.683778470397677 ], [ 7.525581956314691, 53.690806230778939 ], [ 7.513975734521957, 53.682018036773421 ], [ 7.499999999554868, 53.680324015196618 ], [ 7.499451501717115, 53.680257529212781 ], [ 7.482031198352609, 53.690806230778939 ] ] ] ] } }
]
}
