{
"type": "FeatureCollection",
"name": "Nuremberg",
"crs": { "type": "name", "properties": { "name": "urn:ogc:def:crs:OGC:1.3:CRS84" } },
"features": [
{ "type": "Feature", "properties": { "OBJECTID": 99.0, "YEAR": 1700.0, "OWNER_ID": 9662.0, "SHORT_NAME": "Nuremberg", "LONG_NAME": "Imperial City of Nuremberg", "VARIANTS": null, "SHAPE_LENG": 339429.1, "Shape__Are": 2502944862.7202148, "Shape__Len": 339896.88085531408 }, "geometry": { "type": "MultiPolygon", "coordinates": [ [ [ [ 11.508211938186561, 49.558518449632977 ], [ 11.499999999796566, 49.54398858129079 ], [ 11.499644017212407, 49.543358621307277 ], [ 11.499999999796566, 49.541689302247001 ], [ 11.505269426523366, 49.516972550270793 ], [ 11.524958358662577, 49.505664034549852 ], [ 11.541856561183941, 49.503788793352768 ], [ 11.54751149093177, 49.499999999800124 ], [ 11.564358197529474, 49.488826411954626 ], [ 11.567170902634112, 49.475755396147356 ], [ 11.568686291348145, 49.471927028470695 ], [ 11.567346696647006, 49.471997374194991 ], [ 11.565720601353989, 49.460576430540591 ], [ 11.543065144685727, 49.443766666515785 ], [ 11.50003955351684, 49.43700047986966 ], [ 11.499999999796566, 49.437002755798396 ], [ 11.459409156559678, 49.439338260208707 ], [ 11.392761241202447, 49.41441553040881 ], [ 11.372500977847595, 49.383782067851278 ], [ 11.345802257984426, 49.359136382829604 ], [ 11.306751120856312, 49.346088909922422 ], [ 11.252213905884011, 49.349056426367255 ], [ 11.170645471324223, 49.363732036748964 ], [ 11.107139874508942, 49.360925248908281 ], [ 11.070047332398161, 49.344110233387106 ], [ 11.025769208550528, 49.380816518880785 ], [ 11.002806112135122, 49.412599565768694 ], [ 10.999999999766354, 49.422032970690715 ], [ 10.988632718161107, 49.460228100675977 ], [ 10.986369369683633, 49.490073850264409 ], [ 10.986338323907415, 49.499999999800124 ], [ 10.986105678215132, 49.57508492487846 ], [ 10.999999999766354, 49.57297490065195 ], [ 11.01847375656622, 49.570169290432332 ], [ 11.060730248816402, 49.568589159552424 ], [ 11.112171978914095, 49.574631419723545 ], [ 11.158757399517844, 49.585572872864539 ], [ 11.160273623665089, 49.585602124397063 ], [ 11.163658658911972, 49.585832012736496 ], [ 11.212535653059422, 49.589151274638134 ], [ 11.215191021835308, 49.589334670292132 ], [ 11.263332878771683, 49.592856055080738 ], [ 11.268668667641785, 49.593946098142951 ], [ 11.27290530398138, 49.597373271788364 ], [ 11.275874465065792, 49.600653258486957 ], [ 11.279593828108593, 49.608530198218006 ], [ 11.263310905081518, 49.627838102705631 ], [ 11.270540435097018, 49.643515545060673 ], [ 11.295854776547188, 49.649533867169538 ], [ 11.32680551460256, 49.654361130534738 ], [ 11.330773625639109, 49.654954536656973 ], [ 11.364546297192033, 49.659187912454506 ], [ 11.379055238874129, 49.662705245703755 ], [ 11.38420226834684, 49.664612904153216 ], [ 11.397068194967538, 49.67003728700184 ], [ 11.426008288719697, 49.680869630669655 ], [ 11.441604359880532, 49.686312072949605 ], [ 11.472615683911929, 49.674271241398706 ], [ 11.451168810745452, 49.662342221168991 ], [ 11.450839196409829, 49.619405543046447 ], [ 11.44132434422669, 49.601804973944034 ], [ 11.454355077566047, 49.599582520597593 ], [ 11.472022379006118, 49.616321520015198 ], [ 11.499999999796566, 49.59900771772908 ], [ 11.50412676499039, 49.596453367789024 ], [ 11.500171399251093, 49.55859510229886 ], [ 11.508211938186561, 49.558518449632977 ] ], [ [ 11.379291022381699, 49.565077572723112 ], [ 11.404319698673202, 49.572319941980822 ], [ 11.397090169556019, 49.583188782420912 ], [ 11.382631109525022, 49.586816063503498 ], [ 11.370137333366964, 49.578487143902109 ], [ 11.363887070317414, 49.587327956374452 ], [ 11.359975652856757, 49.583466688720243 ], [ 11.354833677305839, 49.584168759871851 ], [ 11.34795573531613, 49.586391919620802 ], [ 11.337649809625807, 49.58724020367783 ], [ 11.323370718977147, 49.590950833164705 ], [ 11.322179933796086, 49.59538590053657 ], [ 11.311536923380235, 49.596979781584771 ], [ 11.307578700998331, 49.597064884442574 ], [ 11.298999951731739, 49.596766438424105 ], [ 11.294052887241275, 49.596467990568918 ], [ 11.290427135837602, 49.588015346909046 ], [ 11.31393958798186, 49.583188782420912 ], [ 11.333804315032278, 49.562663209902809 ], [ 11.346461485757363, 49.539713452054166 ], [ 11.34465959645145, 49.526418710850329 ], [ 11.359118656482448, 49.521586020578823 ], [ 11.371775827207534, 49.546959604015512 ], [ 11.377555056841226, 49.557702414072672 ], [ 11.379291022381699, 49.565077572723112 ] ] ], [ [ [ 10.645773008437153, 49.221069872379836 ], [ 10.608719824213916, 49.223355632896755 ], [ 10.611422657274471, 49.231478380718279 ], [ 10.647680177599419, 49.232484516607911 ], [ 10.647790048745188, 49.24053285944975 ], [ 10.612631241674572, 49.247297113307233 ], [ 10.614455104670649, 49.285066491613094 ], [ 10.604786432164783, 49.299906908170847 ], [ 10.590349346722265, 49.307871401687862 ], [ 10.592349003731236, 49.316373198116885 ], [ 10.627002404249962, 49.324567882789353 ], [ 10.650932367287137, 49.345928744973776 ], [ 10.661501984445961, 49.346539749146388 ], [ 10.680004306773547, 49.316052952126071 ], [ 10.713339251746403, 49.301333913969117 ], [ 10.737335138549016, 49.245489515989966 ], [ 10.704175987589057, 49.243958837000982 ], [ 10.70937332181936, 49.233493424973808 ], [ 10.691298497854019, 49.232777376879831 ], [ 10.645773008437153, 49.221069872379836 ] ] ] ] } }
]
}
