{
"type": "FeatureCollection",
"name": "Orange",
"crs": { "type": "name", "properties": { "name": "urn:ogc:def:crs:OGC:1.3:CRS84" } },
"features": [
{ "type": "Feature", "properties": { "OBJECTID": 23.0, "YEAR": 1700.0, "OWNER_ID": 2528.0, "SHORT_NAME": "Orange", "LONG_NAME": "Principality of Orange", "VARIANTS": null, "SHAPE_LENG": 87569.1, "Shape__Are": 488093229.5703125, "Shape__Len": 87693.159950964968 }, "geometry": { "type": "MultiPolygon", "coordinates": [ [ [ [ 4.816183924121908, 44.025562768996281 ], [ 4.795917246795916, 44.055111496026015 ], [ 4.747294203684332, 44.090748374141505 ], [ 4.742573553273032, 44.102870424406881 ], [ 4.734177187161928, 44.12442507495971 ], [ 4.737650138729044, 44.138319846544327 ], [ 4.739317658034747, 44.138076382261545 ], [ 4.739735989987851, 44.139624970103966 ], [ 4.760323333530896, 44.148184281967758 ], [ 4.778515777509686, 44.156112642455291 ], [ 4.799417340061026, 44.170249223906573 ], [ 4.809150459502007, 44.176579787479589 ], [ 4.817023145531702, 44.173930370525035 ], [ 4.841749902547755, 44.165283012596866 ], [ 4.8437712853119, 44.164927849061137 ], [ 4.865281434010341, 44.176953785238382 ], [ 4.886604132156787, 44.174163534122769 ], [ 4.931659049891849, 44.16810061939124 ], [ 4.996100049836051, 44.15830849564685 ], [ 5.000000000302123, 44.153851546758304 ], [ 5.011070293484558, 44.141180085589411 ], [ 5.018234152161202, 44.130931793511614 ], [ 5.000038000835271, 44.102418389495845 ], [ 5.000000000302123, 44.102369804279341 ], [ 4.996012163160256, 44.097278380777723 ], [ 4.995855617348936, 44.095871977874211 ], [ 4.993924866512156, 44.092849692927935 ], [ 4.992813352265036, 44.078417890967437 ], [ 4.901358720848259, 44.053963124450362 ], [ 4.897838914952573, 44.052736310762462 ], [ 4.890394916654548, 44.051003134643388 ], [ 4.817361480712106, 44.026088030053501 ], [ 4.816183924121908, 44.025562768996281 ] ] ] ] } }
]
}
