{
"type": "FeatureCollection",
"name": "Palatinate-Sulzbach",
"crs": { "type": "name", "properties": { "name": "urn:ogc:def:crs:OGC:1.3:CRS84" } },
"features": [
{ "type": "Feature", "properties": { "OBJECTID": 96.0, "YEAR": 1700.0, "OWNER_ID": 7234.0, "SHORT_NAME": "Sulzbach", "LONG_NAME": "Duchy of Palatinate-Sulzbach", "VARIANTS": "Pfalz-Sulzbach", "SHAPE_LENG": 370184.1, "Shape__Are": 1965830292.730957, "Shape__Len": 370773.26541594061 }, "geometry": { "type": "MultiPolygon", "coordinates": [ [ [ [ 12.28144752062242, 49.647684273950482 ], [ 12.279620197315866, 49.647328209747201 ], [ 12.241209199659215, 49.642244590105136 ], [ 12.202380691109649, 49.651710211872221 ], [ 12.16394771886452, 49.639877895461964 ], [ 12.148763509091777, 49.658647570811254 ], [ 12.129579984402774, 49.64164562271484 ], [ 12.123844703946041, 49.596526481060629 ], [ 12.115011053226006, 49.571105640166529 ], [ 12.127382558792426, 49.542787709399811 ], [ 12.147423078957425, 49.522450082397853 ], [ 12.11999920935251, 49.520326513383296 ], [ 12.019313172970847, 49.541836174256474 ], [ 12.008238148361819, 49.553824153264131 ], [ 12.003447760836687, 49.575318990152105 ], [ 11.999999999826779, 49.577094276739444 ], [ 11.947479332885736, 49.604129667635576 ], [ 11.940337700325841, 49.649022631004051 ], [ 11.977474191613583, 49.652469718575446 ], [ 11.992570504829036, 49.698558214676908 ], [ 11.999999999826779, 49.709019367632393 ], [ 12.027355750183698, 49.747518297601594 ], [ 12.041067684986153, 49.743567747097963 ], [ 12.070710954789893, 49.770632007523531 ], [ 12.0726886381087, 49.798889703055522 ], [ 12.014083299964321, 49.817481212936457 ], [ 12.009732397920587, 49.827421884657312 ], [ 11.999999999826779, 49.831357399693715 ], [ 11.990263208072918, 49.83529437008719 ], [ 11.999999999826779, 49.847551841588235 ], [ 12.001184412359214, 49.849042663575844 ], [ 12.066294129879035, 49.871656959786122 ], [ 12.070117649884082, 49.905187951040133 ], [ 12.089081432281546, 49.926221879862261 ], [ 12.114637490611736, 49.907904867788666 ], [ 12.109956974232375, 49.888490787969943 ], [ 12.115494486986046, 49.860881957010882 ], [ 12.131887281158892, 49.840954196671667 ], [ 12.166145144474866, 49.822386310714684 ], [ 12.167551496578028, 49.772336678002112 ], [ 12.167251768293591, 49.753725789516871 ], [ 12.164914586384601, 49.753742309318582 ], [ 12.140940674170468, 49.749005136691096 ], [ 12.137622561615624, 49.741905795366769 ], [ 12.126525562418117, 49.73538864198359 ], [ 12.136545822949772, 49.714023121658528 ], [ 12.162233727014213, 49.706845686509361 ], [ 12.194777598479879, 49.709063219101047 ], [ 12.203215712895481, 49.727572729639682 ], [ 12.208731306756222, 49.755826804004961 ], [ 12.232683188686327, 49.761247953020025 ], [ 12.27307186876347, 49.776182893837593 ], [ 12.291002860773727, 49.766625064635569 ], [ 12.338313432017538, 49.776619944462055 ], [ 12.374351210050946, 49.770996258118977 ], [ 12.408147614195361, 49.752211888985336 ], [ 12.420189506324471, 49.745550351386676 ], [ 12.421064846296884, 49.745071990385505 ], [ 12.408806841968296, 49.735199091772941 ], [ 12.413751048917842, 49.713425043284396 ], [ 12.40021490812828, 49.703183616153382 ], [ 12.386151385300034, 49.691918457617071 ], [ 12.360815069261385, 49.682533684556049 ], [ 12.32422793460081, 49.671263711621691 ], [ 12.284828095733914, 49.658107222550939 ], [ 12.28144752062242, 49.647684273950482 ] ] ], [ [ [ 11.713980858227149, 49.64350101113957 ], [ 11.697478234231037, 49.624155432080812 ], [ 11.689171966448001, 49.606980555674937 ], [ 11.7105749128954, 49.603866447717138 ], [ 11.728286140156236, 49.561960827010303 ], [ 11.717408884148581, 49.555404765307507 ], [ 11.733032579402719, 49.524266026690121 ], [ 11.756786748426999, 49.520765880199903 ], [ 11.766577892747126, 49.499999999800124 ], [ 11.770103146925019, 49.49259763953895 ], [ 11.761687007097898, 49.478845753445903 ], [ 11.741053182027088, 49.45553991588158 ], [ 11.709849739797457, 49.444086077184942 ], [ 11.658825519694366, 49.444173188875666 ], [ 11.630258988556475, 49.45031416405979 ], [ 11.602439581748815, 49.470154531017684 ], [ 11.568686291348145, 49.471927028470695 ], [ 11.567170902634112, 49.475755396147356 ], [ 11.564358197529474, 49.488826411954626 ], [ 11.54751149093177, 49.499999999800124 ], [ 11.541856561183941, 49.503788793352768 ], [ 11.524958358662577, 49.505664034549852 ], [ 11.505269426523366, 49.516972550270793 ], [ 11.499999999796566, 49.541689302247001 ], [ 11.499644017212407, 49.543358621307277 ], [ 11.499999999796566, 49.54398858129079 ], [ 11.508211938186561, 49.558518449632977 ], [ 11.532407630969615, 49.558287784994945 ], [ 11.56576455053095, 49.568018543590476 ], [ 11.581520090621025, 49.577323128827317 ], [ 11.607229969273945, 49.581316531122063 ], [ 11.654079081346197, 49.630146935338971 ], [ 11.683480634269914, 49.639541873895936 ], [ 11.699939351309885, 49.668840032597998 ], [ 11.713980858227149, 49.64350101113957 ] ] ] ] } }
]
}
