{
"type": "FeatureCollection",
"name": "ParmaPiacenza",
"crs": { "type": "name", "properties": { "name": "urn:ogc:def:crs:OGC:1.3:CRS84" } },
"features": [
{ "type": "Feature", "properties": { "OBJECTID": 72.0, "YEAR": 1700.0, "OWNER_ID": 4908.0, "SHORT_NAME": "Parma Piacenza", "LONG_NAME": "Duchy of Parma and Piacenza", "VARIANTS": null, "SHAPE_LENG": 515558.8, "Shape__Are": 10761147794.534668, "Shape__Len": 516454.620970171 }, "geometry": { "type": "MultiPolygon", "coordinates": [ [ [ [ 9.409388095793298, 44.684017092203412 ], [ 9.433894995533489, 44.695877971410937 ], [ 9.446159415629836, 44.718656907198728 ], [ 9.433302617689053, 44.744554557698997 ], [ 9.43944579706516, 44.777578880678796 ], [ 9.460113210144442, 44.798811422369802 ], [ 9.454781807747876, 44.812484366108308 ], [ 9.429090151420491, 44.818152286059906 ], [ 9.412788784184004, 44.833559107370498 ], [ 9.397321134379554, 44.847690455143528 ], [ 9.362436648542197, 44.849508928851705 ], [ 9.329790034960851, 44.87267733585967 ], [ 9.307564887483355, 44.898971752461136 ], [ 9.286941354410757, 44.925382637521629 ], [ 9.284966761296529, 44.950448006419364 ], [ 9.301202308073833, 44.979404066140241 ], [ 9.299434817056781, 45.000000000297035 ], [ 9.299425173642206, 45.000102485330558 ], [ 9.317613374877872, 45.004494531074982 ], [ 9.319917066694755, 45.0225861850233 ], [ 9.330755391514623, 45.023756967738656 ], [ 9.330097194109319, 45.036312095490302 ], [ 9.354604093849511, 45.054320495126014 ], [ 9.3940082051039, 45.055593009394507 ], [ 9.433390376804104, 45.064806917021812 ], [ 9.459433072286638, 45.066956613846074 ], [ 9.467638605688657, 45.082002211638262 ], [ 9.497740186967203, 45.074735788257108 ], [ 9.499999999675717, 45.075804659455819 ], [ 9.50877597136799, 45.079955426268334 ], [ 9.527841769144064, 45.079282894563967 ], [ 9.535454924701645, 45.061194658720488 ], [ 9.562989535021524, 45.067000484141523 ], [ 9.548487241770848, 45.092980495305056 ], [ 9.561300160603261, 45.104935782992875 ], [ 9.582428311506932, 45.102904438847361 ], [ 9.581287434926425, 45.08665106553363 ], [ 9.592718137590731, 45.073492946616071 ], [ 9.608185787395181, 45.071021803883468 ], [ 9.616128041655415, 45.080028526880525 ], [ 9.62740516474549, 45.09930921961363 ], [ 9.642170736239635, 45.099543061842191 ], [ 9.662158011461116, 45.069837372168585 ], [ 9.712137168393586, 45.054759296721016 ], [ 9.739298800004129, 45.057275025026492 ], [ 9.748732969101708, 45.081125026674179 ], [ 9.765144035905745, 45.069062359982624 ], [ 9.772958818328847, 45.07630056012637 ], [ 9.77785273938542, 45.07924458939496 ], [ 9.780995195369606, 45.079614044011009 ], [ 9.785263827902991, 45.079143708915659 ], [ 9.788520810102749, 45.072923423532799 ], [ 9.791779109232717, 45.066697776884716 ], [ 9.800028521743105, 45.054291241523366 ], [ 9.821123982953585, 45.053572185106724 ], [ 9.840155773207947, 45.054886840961579 ], [ 9.847141227367491, 45.057282776892336 ], [ 9.84775795853928, 45.060325927419314 ], [ 9.846805326621507, 45.064565473596218 ], [ 9.838601329338623, 45.071328875163445 ], [ 9.830341824256019, 45.078339436807077 ], [ 9.826013954117855, 45.081774730124657 ], [ 9.812925469885512, 45.097978492436049 ], [ 9.81597884982444, 45.103079809332691 ], [ 9.829420566897856, 45.10980998218745 ], [ 9.840259988560689, 45.112865513136903 ], [ 9.849093442549677, 45.113591270873066 ], [ 9.863189407136096, 45.112124549957706 ], [ 9.87502468225828, 45.104554509645304 ], [ 9.88417099969779, 45.097263204213192 ], [ 9.88653765982283, 45.094836799464176 ], [ 9.882340331963437, 45.086338230100161 ], [ 9.882072006984702, 45.083438572762937 ], [ 9.884114395055109, 45.07526391481953 ], [ 9.892720551022702, 45.066984837281339 ], [ 9.903646415768693, 45.065679967290549 ], [ 9.913194015137195, 45.066711377162051 ], [ 9.926865881484721, 45.072489587827306 ], [ 9.944086092306202, 45.086080943270076 ], [ 9.937947081113013, 45.095621398343738 ], [ 9.939263476821937, 45.101356476254267 ], [ 9.956005397636694, 45.103923334953841 ], [ 9.972761139930411, 45.106491393034368 ], [ 9.999999999705929, 45.111091473060547 ], [ 10.002318283756287, 45.111482354570875 ], [ 10.008825959948817, 45.097588110183324 ], [ 10.015212556715777, 45.077167585048201 ], [ 10.026402067116191, 45.056470588898883 ], [ 10.059539243487672, 45.027620379173172 ], [ 10.096961399934074, 45.017566181134931 ], [ 10.128758147069519, 45.021049496289145 ], [ 10.158950773500425, 45.040774497093395 ], [ 10.183232324563388, 45.040130762179771 ], [ 10.240101697167297, 45.025161875052675 ], [ 10.27319492526013, 45.021005590505041 ], [ 10.285874069675382, 45.002693833279189 ], [ 10.299130900886913, 45.000000000297035 ], [ 10.306551843923151, 44.99834682110103 ], [ 10.308207951929811, 45.000000000297035 ], [ 10.319736396686922, 45.010496445328805 ], [ 10.33608524258112, 45.006295171891175 ], [ 10.334633616285956, 45.000000000297035 ], [ 10.332503438557778, 44.989871520356836 ], [ 10.375726798328037, 44.976754789263047 ], [ 10.4026013122041, 44.978809996585149 ], [ 10.415522174397687, 44.995248988009813 ], [ 10.442704328020893, 44.994622980829298 ], [ 10.44729694694465, 44.978328313673998 ], [ 10.490378142931306, 44.962459337784701 ], [ 10.463843560541909, 44.940455314938887 ], [ 10.446593770893067, 44.923164786143154 ], [ 10.466040986152256, 44.905965476839718 ], [ 10.480104509878819, 44.877663750999609 ], [ 10.472237726678863, 44.854626093180414 ], [ 10.463272230224577, 44.826298937999155 ], [ 10.448857119370542, 44.806042867422953 ], [ 10.452724587654235, 44.783620806521888 ], [ 10.457514975179366, 44.747069522478554 ], [ 10.441517718209273, 44.685517991814649 ], [ 10.417060372235099, 44.665228330312139 ], [ 10.41018243024539, 44.607629392525986 ], [ 10.401964059019644, 44.5477566748512 ], [ 10.36386070111014, 44.525751650026471 ], [ 10.351569235435536, 44.500000000095532 ], [ 10.346940524898608, 44.490382898358163 ], [ 10.242211225322039, 44.460787978549924 ], [ 10.215446582591747, 44.472801195066076 ], [ 10.180990950674394, 44.453318614215242 ], [ 10.142821669897765, 44.440658656892708 ], [ 10.129065786816664, 44.422338601401364 ], [ 10.106652046130106, 44.400957894812237 ], [ 10.09153375922449, 44.402131625952094 ], [ 10.059758986677528, 44.40367512789404 ], [ 10.028401724125166, 44.412710219154363 ], [ 10.002098541464745, 44.435227524487729 ], [ 9.999999999705929, 44.481895631307815 ], [ 9.999967089925494, 44.482628338866895 ], [ 9.936889795464637, 44.492694615757948 ], [ 9.8820399748583, 44.493256477511054 ], [ 9.839125474747339, 44.491169534679273 ], [ 9.814113956277762, 44.480524956596973 ], [ 9.787171723802322, 44.457013258662954 ], [ 9.762204085339427, 44.435757804862178 ], [ 9.746231817703904, 44.434279434190103 ], [ 9.719903903525404, 44.429667317564302 ], [ 9.700991684425249, 44.425472704663505 ], [ 9.693422409772666, 44.42328688608805 ], [ 9.651561026228846, 44.436416631968697 ], [ 9.596250466001489, 44.463229368231296 ], [ 9.55039601532421, 44.462313859307521 ], [ 9.499999999675717, 44.456059819207951 ], [ 9.498881063547708, 44.455920953539184 ], [ 9.461210206718267, 44.45388085778869 ], [ 9.441573970651939, 44.472463959637274 ], [ 9.461495425414236, 44.494412290724533 ], [ 9.468496274002801, 44.500000000095532 ], [ 9.485146668168206, 44.513402517798049 ], [ 9.491267908888442, 44.536690488047192 ], [ 9.48992957272702, 44.562508295576286 ], [ 9.469459619228653, 44.575606906773338 ], [ 9.444316461637341, 44.58873487973279 ], [ 9.431635182824975, 44.613026688561369 ], [ 9.431832642405894, 44.64147533984594 ], [ 9.419348823174445, 44.675979351785401 ], [ 9.407128283084782, 44.681951274488313 ], [ 9.409388095793298, 44.684017092203412 ] ] ] ] } }
]
}
