{
"type": "FeatureCollection",
"name": "Passau",
"crs": { "type": "name", "properties": { "name": "urn:ogc:def:crs:OGC:1.3:CRS84" } },
"features": [
{ "type": "Feature", "properties": { "OBJECTID": 54.0, "YEAR": 1700.0, "OWNER_ID": 9642.0, "SHORT_NAME": "Passau", "LONG_NAME": "Prince-Bishopric of Passau", "VARIANTS": null, "SHAPE_LENG": 340003.00000000006, "Shape__Are": 2765748490.5058594, "Shape__Len": 340563.64864129602 }, "geometry": { "type": "MultiPolygon", "coordinates": [ [ [ [ 13.501796773317784, 48.949554421740061 ], [ 13.511540879154689, 48.950914138522634 ], [ 13.534965434741657, 48.965923075691826 ], [ 13.551753765218937, 48.965690863406259 ], [ 13.590911887205815, 48.96059643937182 ], [ 13.62976237034386, 48.949593018619197 ], [ 13.612270863815001, 48.938819495863534 ], [ 13.639672759729747, 48.898681341886117 ], [ 13.664657486844291, 48.876513742384759 ], [ 13.725394327731893, 48.880584599697087 ], [ 13.758113993210458, 48.847033703689135 ], [ 13.800809970942034, 48.779397866249049 ], [ 13.839946119238748, 48.779660084859337 ], [ 13.84638620978256, 48.753980635960005 ], [ 13.851592474165106, 48.733211336658094 ], [ 13.830958649094296, 48.718861357251996 ], [ 13.844780455042523, 48.673801341486133 ], [ 13.833200022983288, 48.662822034592288 ], [ 13.825377188061978, 48.613180745527181 ], [ 13.811577355803918, 48.57257513776139 ], [ 13.796459068898299, 48.549384373267145 ], [ 13.750796566637669, 48.531233983928516 ], [ 13.722768641089626, 48.521042588934364 ], [ 13.712407543569499, 48.520150245586194 ], [ 13.640200141768432, 48.543852125634849 ], [ 13.555467414078215, 48.554740414572329 ], [ 13.568893683722008, 48.5891898253875 ], [ 13.552566812416288, 48.59479019416851 ], [ 13.547864322346763, 48.620605227676307 ], [ 13.528526978233343, 48.632236655897827 ], [ 13.510420191311878, 48.633960683138106 ], [ 13.499999999917415, 48.630105611492979 ], [ 13.490555465159774, 48.626611239201402 ], [ 13.483018295397128, 48.593474237034599 ], [ 13.477986190991979, 48.571858359721467 ], [ 13.49492834179199, 48.572326460933297 ], [ 13.498026712055292, 48.56897651496206 ], [ 13.499999999917415, 48.564692558921401 ], [ 13.502069975250198, 48.560198306778474 ], [ 13.499999999917415, 48.560306153389483 ], [ 13.499424375653028, 48.560336143701825 ], [ 13.499424375653028, 48.549545031868071 ], [ 13.478203497052469, 48.541064528766405 ], [ 13.45910470595264, 48.546718356124252 ], [ 13.455118758866123, 48.56264443355429 ], [ 13.422874760313654, 48.564324255248145 ], [ 13.41837003794719, 48.543003208659123 ], [ 13.449265840429675, 48.535420864265021 ], [ 13.470097434101861, 48.534264383106127 ], [ 13.465438891412665, 48.506837751056729 ], [ 13.443464637105818, 48.508258504053813 ], [ 13.430342979886666, 48.500000000192749 ], [ 13.416699994375527, 48.491496746464897 ], [ 13.3947037654802, 48.493165017361441 ], [ 13.388815538761509, 48.500000000192749 ], [ 13.374597321549761, 48.5166650260635 ], [ 13.357435428458212, 48.529198975684167 ], [ 13.329967609676336, 48.533283549494236 ], [ 13.301840564019843, 48.556628063603938 ], [ 13.326539625975723, 48.577329020276558 ], [ 13.356578432982213, 48.578660027331523 ], [ 13.366400924912497, 48.602407447977264 ], [ 13.317837820989938, 48.61543159058472 ], [ 13.295841592094611, 48.611251369851011 ], [ 13.271076606373292, 48.61152908768927 ], [ 13.263912999224919, 48.619246103346661 ], [ 13.281712146399238, 48.64557440886847 ], [ 13.314014300984887, 48.643704707825457 ], [ 13.321507521570574, 48.652716609759729 ], [ 13.293644166484263, 48.661639279134519 ], [ 13.319859452587391, 48.700451187997984 ], [ 13.356556458393735, 48.692878003458929 ], [ 13.375630111936967, 48.699123410084809 ], [ 13.386793033103286, 48.694512390363727 ], [ 13.394989430638864, 48.711363897145148 ], [ 13.409272695758652, 48.714587651081608 ], [ 13.415974843735464, 48.696905504430795 ], [ 13.440871675191035, 48.685011768087982 ], [ 13.464472024790897, 48.671348726549894 ], [ 13.481414175590908, 48.668793791302967 ], [ 13.488753576752176, 48.675699116241539 ], [ 13.483260012277151, 48.695037717699286 ], [ 13.457132623629628, 48.716746428453384 ], [ 13.430324032620691, 48.729857543629748 ], [ 13.459637688088808, 48.788851435094074 ], [ 13.471020352444981, 48.791866295236034 ], [ 13.483084218264255, 48.818395030654763 ], [ 13.471393915059251, 48.832963811800973 ], [ 13.499999999917415, 48.850781838178165 ], [ 13.500685596837201, 48.8512088013237 ], [ 13.510749805647505, 48.877691417296653 ], [ 13.508706199461569, 48.913037763359256 ], [ 13.502113923528842, 48.948562230537703 ], [ 13.501796773317784, 48.949554421740061 ] ] ] ] } }
]
}
