{
"type": "FeatureCollection",
"name": "Piombino",
"crs": { "type": "name", "properties": { "name": "urn:ogc:def:crs:OGC:1.3:CRS84" } },
"features": [
{ "type": "Feature", "properties": { "OBJECTID": 61.0, "YEAR": 1700.0, "OWNER_ID": 8797.0, "SHORT_NAME": "Piombino", "LONG_NAME": "Principality of Piombino", "VARIANTS": null, "SHAPE_LENG": 278252.6, "Shape__Are": 1127473153.8701172, "Shape__Len": 278719.66668464418 }, "geometry": { "type": "MultiPolygon", "coordinates": [ [ [ [ 10.519944234875728, 43.049393678516395 ], [ 10.556047535127643, 43.046933577603987 ], [ 10.572176637831989, 43.056896202447575 ], [ 10.587470719648817, 43.083024172510477 ], [ 10.6778068811632, 43.084220358219191 ], [ 10.67894438726476, 43.078315073644163 ], [ 10.684750746020033, 43.048162820892884 ], [ 10.743487929898663, 43.043941237676606 ], [ 10.765967592554029, 43.043326576531413 ], [ 10.783371202525601, 43.021372640342257 ], [ 10.798731206311238, 43.005691039473305 ], [ 10.804891243471969, 43.00000000005209 ], [ 10.8246608272557, 42.981881140542882 ], [ 10.822463401645352, 42.969755007273911 ], [ 10.848920404628499, 42.940128208534226 ], [ 10.872147192512406, 42.914828025632573 ], [ 10.892781017583216, 42.87613420363332 ], [ 10.860720579877588, 42.859578133147707 ], [ 10.834922804667377, 42.845689467373155 ], [ 10.817848808133116, 42.869650677791029 ], [ 10.797083137328055, 42.87034250129404 ], [ 10.781371545516627, 42.899375945215112 ], [ 10.765354950513412, 42.900581862456065 ], [ 10.765616004528239, 42.923782336830129 ], [ 10.737730674853449, 42.940240701688907 ], [ 10.640077085867965, 42.976147626581692 ], [ 10.599073126296529, 42.978765516138871 ], [ 10.562727708515975, 42.969995947487305 ], [ 10.556003585950684, 42.945656207170742 ], [ 10.52585490869674, 42.944724195568234 ], [ 10.49999999973614, 42.963480615516119 ], [ 10.494937131625772, 42.967152794638764 ], [ 10.483224853832287, 42.994390215663103 ], [ 10.488494379373769, 43.00000000005209 ], [ 10.49999999973614, 43.012347539862155 ], [ 10.513900914023234, 43.027262313435713 ], [ 10.519944234875728, 43.049393678516395 ] ] ], [ [ [ 10.45237043853157, 42.83784960958225 ], [ 10.440704670113606, 42.834743691155658 ], [ 10.418054169450766, 42.825063340306819 ], [ 10.416708784209309, 42.824488302166714 ], [ 10.374644824280711, 42.785902274331129 ], [ 10.370672807369305, 42.782257418487838 ], [ 10.368211603153874, 42.779840501165374 ], [ 10.346479064828733, 42.78021108895345 ], [ 10.347797520374606, 42.750750443467538 ], [ 10.342941209982348, 42.749686501793356 ], [ 10.332327644544883, 42.774507011143761 ], [ 10.298970725881862, 42.764096510691026 ], [ 10.289697590578747, 42.739578139757533 ], [ 10.253571915089735, 42.748267884279656 ], [ 10.214062205077065, 42.753345738990298 ], [ 10.220127098971107, 42.720437029264403 ], [ 10.165916612047422, 42.724533437427695 ], [ 10.146425447611275, 42.720356388511661 ], [ 10.102015478927708, 42.732257811136947 ], [ 10.069955040323762, 42.748864352626477 ], [ 10.073185256321315, 42.793486327941885 ], [ 10.101026636819146, 42.811058719370976 ], [ 10.130867675224259, 42.817033153233126 ], [ 10.176288460604869, 42.815261818092594 ], [ 10.191736361846115, 42.800058443221744 ], [ 10.226235942042109, 42.798512126522475 ], [ 10.236234227985285, 42.811960557985422 ], [ 10.237508734354199, 42.825116232391267 ], [ 10.259768654718025, 42.828126988351897 ], [ 10.25911529204558, 42.839939161998082 ], [ 10.285412610503821, 42.834131957647344 ], [ 10.319710112880024, 42.84050573439788 ], [ 10.314572446547519, 42.834486119860763 ], [ 10.326064982049463, 42.827853289427914 ], [ 10.373661218451941, 42.827241487224875 ], [ 10.368958728382417, 42.848860158881152 ], [ 10.409896765086724, 42.882391844294624 ], [ 10.424421747086532, 42.899810136144829 ], [ 10.443715142921304, 42.88985513545299 ], [ 10.436903124697038, 42.847974956967597 ], [ 10.451971338610402, 42.838654076579374 ], [ 10.45237043853157, 42.83784960958225 ] ] ] ] } }
]
}
