{
"type": "FeatureCollection",
"name": "PLC",
"crs": { "type": "name", "properties": { "name": "urn:ogc:def:crs:OGC:1.3:CRS84" } },
"features": [
{ "type": "Feature", "properties": { "OBJECTID": 25.0, "YEAR": 1700.0, "OWNER_ID": 2750.0, "SHORT_NAME": "Poland-Lithuania-Saxony", "LONG_NAME": "Commonwealth of the Crown of the Polish Kingdom and the Grand Duchy of Lithuania", "VARIANTS": null, "SHAPE_LENG": 12369310.0, "Shape__Are": 2073281004772.6953, "Shape__Len": 12384314.099366717 }, "geometry": { "type": "MultiPolygon", "coordinates": [ [ [ [ 30.697201372811911, 51.75948480545658 ], [ 30.647636674297011, 51.666784085012289 ], [ 30.614026089364064, 51.64964881073967 ], [ 30.574413615676153, 51.603215800266597 ], [ 30.535128516823871, 51.579291591268053 ], [ 30.530217879916492, 51.540633352239929 ], [ 30.56164595845933, 51.526186099708504 ], [ 30.562177579647841, 51.500000000093614 ], [ 30.56221340985126, 51.498253949068754 ], [ 30.593204987116081, 51.463923864629336 ], [ 30.613633239022327, 51.393012127577876 ], [ 30.655908311127529, 51.337200311652609 ], [ 30.629194502262536, 51.306457384612088 ], [ 30.627208422390765, 51.26738542413807 ], [ 30.601433033197438, 51.25096232761787 ], [ 30.607063897078806, 51.21235871794682 ], [ 30.575308442802029, 51.204634088805349 ], [ 30.553614337998003, 51.178620027894482 ], [ 30.513870913297861, 51.158298683371328 ], [ 30.510902706224282, 51.108430258531335 ], [ 30.504900815672691, 51.053331949033783 ], [ 30.50000000004632, 51.020050787568991 ], [ 30.4970491295594, 50.999999999968175 ], [ 30.492613310670176, 50.970167861245656 ], [ 30.486611420118585, 50.896705266203149 ], [ 30.49091095559606, 50.796729783453358 ], [ 30.457213071485484, 50.792346563649772 ], [ 30.44189188300496, 50.810008943194511 ], [ 30.421092606225116, 50.816924219925632 ], [ 30.393243836185761, 50.817412473309425 ], [ 30.361532031946957, 50.800874977939543 ], [ 30.276108767501206, 50.687184073590188 ], [ 30.245815591742236, 50.657797713486161 ], [ 30.213776410871176, 50.586253411472697 ], [ 30.228467974660635, 50.499999999891088 ], [ 30.228879349161851, 50.497608156371115 ], [ 30.147253644307753, 50.459311572398867 ], [ 30.1183136215225, 50.415677036575019 ], [ 30.000000000016104, 50.36464575151566 ], [ 29.969728583249946, 50.351580174658764 ], [ 29.954909338315886, 50.301179868833323 ], [ 29.987603341621728, 50.271257325028223 ], [ 30.000000000016104, 50.271795493082223 ], [ 30.112049830743086, 50.276659571581725 ], [ 30.17569169030887, 50.252364429485183 ], [ 30.275955991919155, 50.260120676700154 ], [ 30.363343510768527, 50.228400576693552 ], [ 30.463433212226928, 50.234825610484449 ], [ 30.50000000004632, 50.229836302067341 ], [ 30.540170104743471, 50.224354737916343 ], [ 30.66987640502483, 50.227713072415405 ], [ 30.723544214295487, 50.163029973849525 ], [ 30.821364109287838, 50.160382030854159 ], [ 30.889327329799237, 50.09356540006916 ], [ 31.000000000076529, 50.049604476897201 ], [ 31.072963340477386, 50.020600125169892 ], [ 31.229558108166117, 50.018634797149907 ], [ 31.2822656157031, 50.029867948706105 ], [ 31.378012130747745, 50.034647212432368 ], [ 31.449096333914781, 50.030173304859289 ], [ 31.499206659251776, 50.001912958283931 ], [ 31.500000000106738, 50.000742579278295 ], [ 31.500503346821688, 50.000000000210534 ], [ 31.5435551705935, 49.930622149665872 ], [ 31.513763970720344, 49.840270396910718 ], [ 31.528452232302826, 49.804058776343176 ], [ 31.642968295115878, 49.771214807736705 ], [ 31.686334678357472, 49.698149640665079 ], [ 31.758510134270406, 49.664751623582966 ], [ 31.822413894962331, 49.661568266263487 ], [ 31.863575948142298, 49.592271100968851 ], [ 31.948497235803909, 49.546974241714075 ], [ 32.00000000013695, 49.548940151576687 ], [ 32.066221581348543, 49.551467775673849 ], [ 32.187071419091545, 49.499999999800124 ], [ 32.320396168371623, 49.443737629451192 ], [ 32.500000000167162, 49.396878286355339 ], [ 32.526948486713614, 49.389843437508205 ], [ 32.597006911742554, 49.326678191740612 ], [ 32.763924930928482, 49.299673923530264 ], [ 32.899043844003039, 49.30182898845495 ], [ 33.000000000197382, 49.232998978117593 ], [ 33.00616121325281, 49.228795251706735 ], [ 33.175305387070196, 49.196075541408767 ], [ 33.177946218409843, 49.195491844781834 ], [ 33.222236509937993, 49.171245438995619 ], [ 33.228411829238333, 49.164226759126265 ], [ 33.24398883455558, 49.145282613771087 ], [ 33.262473831076285, 49.107734439086457 ], [ 33.263640100334932, 49.105364461359322 ], [ 33.265944819824497, 49.100680705510648 ], [ 33.147805818232925, 49.093150473199735 ], [ 33.019496320963256, 49.081450808934818 ], [ 33.000000000197382, 49.080577510149482 ], [ 32.773942630363265, 49.070450596563326 ], [ 32.587665788345468, 49.043012533607936 ], [ 32.558834891104297, 49.018810502066046 ], [ 32.546344813310277, 49.000000000276607 ], [ 32.520641045896227, 48.961656006576767 ], [ 32.500000000167162, 48.959729874642548 ], [ 32.29385690216634, 48.940489399852211 ], [ 32.217207309725737, 48.916335666371161 ], [ 32.132766172481794, 48.863557474805781 ], [ 32.00000000013695, 48.834576263612327 ], [ 31.994548101321438, 48.833385821055614 ], [ 31.701459441217978, 48.842087142195908 ], [ 31.511035839304764, 48.831464922853023 ], [ 31.500000000106738, 48.828375528888976 ], [ 31.366619451972785, 48.791021569827606 ], [ 31.198370105281274, 48.807724080389093 ], [ 31.099764507808818, 48.810344716379269 ], [ 31.000000000076529, 48.799156435407163 ], [ 30.922283162365996, 48.790438992675668 ], [ 30.871412382598272, 48.773260761785117 ], [ 30.863442815061823, 48.770569033474857 ], [ 30.854538192942766, 48.737177271135742 ], [ 30.834109941934834, 48.682442933618781 ], [ 30.820447457592138, 48.586791565598666 ], [ 30.812524962674896, 48.514907680928971 ], [ 30.812260748386898, 48.500000000192749 ], [ 30.811346409853055, 48.448886360472017 ], [ 30.867960601627466, 48.417311743616196 ], [ 30.937800776466549, 48.306921763428669 ], [ 30.890527708089213, 48.282120042448312 ], [ 30.91715427437045, 48.195444743205712 ], [ 30.866484762142132, 48.167480188688138 ], [ 30.865868317532914, 48.162939141232464 ], [ 30.860845633760146, 48.113810395755188 ], [ 30.866527131182508, 48.080507308331121 ], [ 30.874652441436389, 48.032841676438288 ], [ 30.875184694140547, 48.029717761192948 ], [ 30.805235393757382, 48.013348325914308 ], [ 30.792244762110624, 48.000000000254126 ], [ 30.773065263670727, 47.980477371754453 ], [ 30.80084855820396, 47.926409005327436 ], [ 30.750170781475031, 47.916660775021583 ], [ 30.735089668652506, 47.931173488523335 ], [ 30.707044472993118, 47.94527551463738 ], [ 30.648356900372686, 47.947308442785193 ], [ 30.635349168396182, 47.917924807267759 ], [ 30.604466715777132, 47.905050560876873 ], [ 30.524477890491042, 47.892580103511698 ], [ 30.50000000004632, 47.893041618965029 ], [ 30.465113740934584, 47.89369937096118 ], [ 30.416269268495366, 47.924157342912189 ], [ 30.362208607984659, 47.927353221567856 ], [ 30.305878141906213, 47.932524313801423 ], [ 30.237980396900927, 47.903321155597034 ], [ 30.171283029287313, 47.891228229444295 ], [ 30.111111353579243, 47.887303231466497 ], [ 30.059975250104149, 47.884352017617687 ], [ 30.000000000016104, 47.880628351567168 ], [ 29.905890158825265, 47.874784850424568 ], [ 29.766100378175818, 47.795139822078156 ], [ 29.614241315764247, 47.73291585371441 ], [ 29.507254663964723, 47.716232356245932 ], [ 29.499999999985889, 47.71359145312725 ], [ 29.395662915642152, 47.67559489923643 ], [ 29.308231555413652, 47.576721112569146 ], [ 29.275211308251126, 47.500000000208502 ], [ 29.257138990585428, 47.458362978674515 ], [ 29.184001756108504, 47.405517649264887 ], [ 29.181187634360654, 47.403483238163311 ], [ 29.135376744788136, 47.410182870980293 ], [ 29.156787170608588, 47.447313220353834 ], [ 29.130422447063005, 47.475637156415004 ], [ 29.08600836319712, 47.499970986097402 ], [ 29.085975821725956, 47.500000000208502 ], [ 29.009991531466234, 47.568354897218697 ], [ 28.99999999995568, 47.599876386670815 ], [ 28.982426427834042, 47.655271522805272 ], [ 28.99999999995568, 47.687288852696796 ], [ 29.014902180051713, 47.714423682485588 ], [ 28.99999999995568, 47.740630807995707 ], [ 28.98382323443899, 47.769064417098072 ], [ 28.973609086027988, 47.813443009859142 ], [ 28.99999999995568, 47.830611163999606 ], [ 29.034828498292956, 47.853259500370172 ], [ 29.037709411578799, 47.898234333533381 ], [ 28.99999999995568, 47.905089657839177 ], [ 28.870703728499237, 47.928587939484409 ], [ 28.844186229371598, 47.975775509672353 ], [ 28.804962592352737, 47.969838088082241 ], [ 28.802958610853988, 47.969534719305798 ], [ 28.767309383825364, 48.000000000254126 ], [ 28.756606533933493, 48.009232538404312 ], [ 28.751189468191434, 48.013904797096579 ], [ 28.689926405888485, 48.019205611674543 ], [ 28.644906360752753, 48.000000000254126 ], [ 28.644748444112327, 47.999933273805141 ], [ 28.613080220741217, 47.99977370996951 ], [ 28.6131019429031, 48.000000000254126 ], [ 28.616157559647085, 48.032133200942909 ], [ 28.691235911519186, 48.064298922297851 ], [ 28.688638724827616, 48.085287932859757 ], [ 28.606881891094869, 48.128262909457611 ], [ 28.573509094709205, 48.126158633939227 ], [ 28.567222341194498, 48.125418147201202 ], [ 28.553764140933932, 48.107107988571286 ], [ 28.539420500043899, 48.062587243616861 ], [ 28.503517770238727, 48.059148644213032 ], [ 28.501099743547432, 48.059282983465955 ], [ 28.499999999925468, 48.059344082121555 ], [ 28.485170279736884, 48.060167973428385 ], [ 28.469102638865962, 48.063334976483375 ], [ 28.460742500013652, 48.066795364027747 ], [ 28.457292203059698, 48.068223424889432 ], [ 28.447684138089418, 48.074685536824525 ], [ 28.445387829525856, 48.077734695925365 ], [ 28.442619545213702, 48.08141032787637 ], [ 28.441150576043661, 48.08336066717348 ], [ 28.439255938379613, 48.093678785661822 ], [ 28.443651951121968, 48.110097968249924 ], [ 28.443171798907663, 48.133186643712072 ], [ 28.432093869147003, 48.1503118263646 ], [ 28.428854531656054, 48.154322621052366 ], [ 28.38953540911238, 48.159814300559205 ], [ 28.319139742152739, 48.166617480935898 ], [ 28.321106492076229, 48.169370318820263 ], [ 28.338040280459257, 48.1930661991764 ], [ 28.354995332863378, 48.204128502732523 ], [ 28.362978194567717, 48.209336078850264 ], [ 28.361297229278829, 48.215310699803027 ], [ 28.345679065850209, 48.257058439739367 ], [ 28.300151902871971, 48.25490139868451 ], [ 28.283942787225271, 48.247116655649279 ], [ 28.255110492205517, 48.227528850174622 ], [ 28.242708233713664, 48.212981252227578 ], [ 28.211694762708738, 48.206533421086782 ], [ 28.150693601531941, 48.240324396424029 ], [ 28.150016725456929, 48.252187054021185 ], [ 28.149926301040431, 48.253771588943351 ], [ 28.146350406135028, 48.275331317693549 ], [ 28.132082032387707, 48.27811396386722 ], [ 28.117519446011787, 48.280401095407562 ], [ 28.096567347835816, 48.269080809537435 ], [ 28.067714562244433, 48.276263728523467 ], [ 28.063393046788587, 48.32886550283353 ], [ 28.061428933420462, 48.341533603860356 ], [ 28.040716910902489, 48.360314241158484 ], [ 27.999999999895255, 48.371547390392216 ], [ 27.998703589006457, 48.371905008631337 ], [ 27.9722952154229, 48.370581730178579 ], [ 27.971013508158673, 48.370891318950811 ], [ 27.960967987001226, 48.370523563338566 ], [ 27.840471596796661, 48.405426211078776 ], [ 27.796166639373169, 48.447013348744257 ], [ 27.738351942646329, 48.464637239096341 ], [ 27.657468113266251, 48.451848191646214 ], [ 27.599282390767499, 48.476262152338485 ], [ 27.564471352086084, 48.464303400422196 ], [ 27.523025483378618, 48.482095369606434 ], [ 27.503488567745048, 48.500000000192749 ], [ 27.49999999986504, 48.503228306181406 ], [ 27.497635290880801, 48.505416481039276 ], [ 27.496115132112614, 48.506823103780675 ], [ 27.484409129051386, 48.547047121552787 ], [ 27.483609348174152, 48.549794145232916 ], [ 27.457157323654307, 48.590008717317943 ], [ 27.402441792199792, 48.603547743499234 ], [ 27.387775323746109, 48.581321934497744 ], [ 27.352855159520612, 48.575983351407984 ], [ 27.33559150347704, 48.594907166334949 ], [ 27.299580084709017, 48.590842218737876 ], [ 27.280112094112251, 48.558998498750093 ], [ 27.2215771695131, 48.55223807286584 ], [ 27.165333880441406, 48.569503158634781 ], [ 27.148101216275144, 48.565191246710391 ], [ 27.145716980611571, 48.563978349798454 ], [ 27.138589617789965, 48.560352377042946 ], [ 27.128737985410183, 48.55418566602809 ], [ 27.120636070879556, 48.547979415728506 ], [ 27.074847005876862, 48.537338515077295 ], [ 27.013649419080039, 48.553101467849181 ], [ 26.999999999834831, 48.571086487454231 ], [ 26.995927436290305, 48.576451414205522 ], [ 26.979907810371323, 48.566855255285184 ], [ 26.955747422277248, 48.582228706213066 ], [ 26.940338900483113, 48.569517787679423 ], [ 26.937916313943436, 48.536372379462172 ], [ 26.89527006425104, 48.533956959880207 ], [ 26.877788157119305, 48.544013125792198 ], [ 26.868015094089213, 48.567400793430707 ], [ 26.854781661295888, 48.581917480710231 ], [ 26.842881960798156, 48.589561399174706 ], [ 26.839078196542836, 48.59051700349869 ], [ 26.836558874023471, 48.5911499129449 ], [ 26.821929426040956, 48.594824993508837 ], [ 26.817500742470028, 48.594360086632193 ], [ 26.813988799528016, 48.593991412181353 ], [ 26.807140300720057, 48.590815751266533 ], [ 26.804062960915875, 48.586411343341524 ], [ 26.802957300989448, 48.581492613577431 ], [ 26.813136965771644, 48.569808024707932 ], [ 26.814681048472483, 48.56892036796804 ], [ 26.819788100220105, 48.56539210857914 ], [ 26.820938566316268, 48.564572972258425 ], [ 26.824442669660797, 48.561857362808496 ], [ 26.826490646150589, 48.560270154257871 ], [ 26.827978253566144, 48.552820646593645 ], [ 26.823705553461153, 48.539504932619799 ], [ 26.81245108857749, 48.538133377502696 ], [ 26.798776703353909, 48.539759920236662 ], [ 26.790815560218196, 48.549083774209194 ], [ 26.785803421768552, 48.555191360777535 ], [ 26.783198817687687, 48.55836493028751 ], [ 26.782343055598574, 48.559732872563174 ], [ 26.775139680930891, 48.568644873158895 ], [ 26.768029280996789, 48.577196648972638 ], [ 26.763108093376403, 48.577785077988956 ], [ 26.756389953590901, 48.578588358128187 ], [ 26.7449824085963, 48.576890219454626 ], [ 26.73813674756633, 48.57411047182913 ], [ 26.734738360659382, 48.569416701836033 ], [ 26.734289015269429, 48.567325730670213 ], [ 26.733626590392394, 48.564243056742001 ], [ 26.735525155490869, 48.555909009166406 ], [ 26.740311837465455, 48.547701346471229 ], [ 26.753432870355486, 48.541834752667754 ], [ 26.756295014241786, 48.541304013445576 ], [ 26.759673524126441, 48.540374827543836 ], [ 26.762081722350217, 48.539712494137412 ], [ 26.76723397372967, 48.538193236607299 ], [ 26.768235746188438, 48.534444444724613 ], [ 26.76163496231165, 48.522507757426979 ], [ 26.754703090862172, 48.52217112357669 ], [ 26.734847704494079, 48.52375192311667 ], [ 26.718368501374059, 48.530261901319228 ], [ 26.714004076990349, 48.531985891582217 ], [ 26.695928527186258, 48.539998219259473 ], [ 26.678181227176875, 48.548619261794649 ], [ 26.674000254943859, 48.550934079671663 ], [ 26.663094188168415, 48.556971783387247 ], [ 26.659334292241677, 48.557349169847576 ], [ 26.65465333029794, 48.557819001904704 ], [ 26.650084899411517, 48.557322817117594 ], [ 26.646517368719724, 48.553549695591897 ], [ 26.643997659924786, 48.544320487593438 ], [ 26.645462998104449, 48.536628114344687 ], [ 26.645840693867342, 48.534885292435682 ], [ 26.646617763537563, 48.531299424977114 ], [ 26.652116598428361, 48.526964324747098 ], [ 26.657255633793358, 48.524596494374734 ], [ 26.65929705707315, 48.523655869934537 ], [ 26.672378150865651, 48.521012434361204 ], [ 26.69755646133066, 48.517939062854552 ], [ 26.702844901798766, 48.504218773342757 ], [ 26.707740353584583, 48.502151475172724 ], [ 26.71283492503796, 48.500000000192749 ], [ 26.714777777079942, 48.49918759662328 ], [ 26.722858863272389, 48.495809094135247 ], [ 26.726715016376765, 48.494196851635031 ], [ 26.745462560810612, 48.486535126708425 ], [ 26.743933930929288, 48.483987537503864 ], [ 26.740578103505559, 48.477427108368211 ], [ 26.734374318390493, 48.469107269615634 ], [ 26.728499437043663, 48.462006675865489 ], [ 26.722563250170268, 48.461334488906296 ], [ 26.710123574151883, 48.459925846170151 ], [ 26.691183531532435, 48.461501971886754 ], [ 26.665696613834715, 48.481182849419895 ], [ 26.653978934471429, 48.494062669115763 ], [ 26.648654730275233, 48.498825592488103 ], [ 26.647341848775699, 48.500000000192749 ], [ 26.644805188771343, 48.502291657853789 ], [ 26.641806346451634, 48.504606731671387 ], [ 26.637693733316791, 48.507781450947839 ], [ 26.636036325447918, 48.509060825457745 ], [ 26.624398718315796, 48.511451389876356 ], [ 26.618364732755733, 48.508635509187535 ], [ 26.613271725269268, 48.502309339680899 ], [ 26.611412705806231, 48.500000000192749 ], [ 26.610629698271982, 48.499036891882895 ], [ 26.618539490112795, 48.484810734126697 ], [ 26.620248456787397, 48.481736544137583 ], [ 26.621078906148433, 48.480373160372743 ], [ 26.624441713481922, 48.474851921809318 ], [ 26.626450525221959, 48.471082165059826 ], [ 26.628772250718164, 48.466724841359905 ], [ 26.629435545164394, 48.460737786128412 ], [ 26.62986743449175, 48.456839063718895 ], [ 26.62954944255927, 48.452327294977991 ], [ 26.620157882352245, 48.44299005788428 ], [ 26.612290997642663, 48.440134805149775 ], [ 26.608443477348168, 48.438738305332038 ], [ 26.593559848361068, 48.436282118816131 ], [ 26.570206989113558, 48.447085947058945 ], [ 26.544130964337356, 48.500000000192749 ], [ 26.533126140372833, 48.522537042853735 ], [ 26.510733585553936, 48.538919423609919 ], [ 26.499999999804619, 48.540183255681455 ], [ 26.479654639941213, 48.542578744502173 ], [ 26.452831588751152, 48.537924042480171 ], [ 26.38015399795059, 48.522024550200065 ], [ 26.334823260592376, 48.532083100043529 ], [ 26.306254201595276, 48.54754035811564 ], [ 26.268998751804357, 48.538655942303166 ], [ 26.23257265542982, 48.54989658740466 ], [ 26.218211738140244, 48.583047711012789 ], [ 26.217120483597711, 48.61459849723412 ], [ 26.191388687848491, 48.642156308761514 ], [ 26.185020820955206, 48.643673658816304 ], [ 26.162339476637086, 48.647181127536136 ], [ 26.146821828400554, 48.629840451752457 ], [ 26.149323116342277, 48.626449376214381 ], [ 26.15183100420639, 48.623049122220159 ], [ 26.184033628153507, 48.587785979848874 ], [ 26.160026015641488, 48.572589765912063 ], [ 26.129863724419412, 48.574579136861111 ], [ 26.085427815983699, 48.601632617280799 ], [ 26.085471466021673, 48.640461779419375 ], [ 26.065566972350254, 48.676750160256944 ], [ 26.049962024037782, 48.684749051903736 ], [ 26.033156695638692, 48.679873967357914 ], [ 26.022287794861498, 48.652745818788773 ], [ 25.99999999977441, 48.651434347856849 ], [ 25.998956760183816, 48.651372960547498 ], [ 25.994438963736702, 48.642463070600677 ], [ 25.950312895022268, 48.647534168769688 ], [ 25.890573301779341, 48.643208056506005 ], [ 25.845526290117096, 48.663858747243538 ], [ 25.822762708627973, 48.688981525609989 ], [ 25.781360489958477, 48.690980879702799 ], [ 25.749430364562912, 48.668764591031476 ], [ 25.718176817899995, 48.677917961534533 ], [ 25.706173011643983, 48.69766427226692 ], [ 25.671455171376667, 48.712258242841493 ], [ 25.618217849163205, 48.691944043359257 ], [ 25.612412372553539, 48.62477005643823 ], [ 25.61885077785788, 48.579435212441908 ], [ 25.63607078296516, 48.511539264797946 ], [ 25.640429642285685, 48.500000000192749 ], [ 25.655757025548411, 48.459803621205893 ], [ 25.642749264825813, 48.395296602641643 ], [ 25.584388940378545, 48.391430248690455 ], [ 25.526945271220242, 48.404496173794755 ], [ 25.519506289114783, 48.405983679875412 ], [ 25.50753584359348, 48.408377210220756 ], [ 25.506451500688748, 48.408594022553039 ], [ 25.49999999974419, 48.407766026616066 ], [ 25.465489540051792, 48.403336669983737 ], [ 25.422184780340373, 48.381123372944323 ], [ 25.352453578331776, 48.333457680793153 ], [ 25.299525718547169, 48.302751948384604 ], [ 25.295119033819237, 48.300194602612841 ], [ 25.280528660754957, 48.282831725144 ], [ 25.256750504017646, 48.254522449196713 ], [ 25.196054894903266, 48.209567796119572 ], [ 25.194971756639333, 48.208329224642803 ], [ 25.191219731751115, 48.204038541092373 ], [ 25.166045378364934, 48.172792996157391 ], [ 25.167147595947188, 48.165096194792113 ], [ 25.170126672635707, 48.153460993253283 ], [ 25.138668534666824, 48.149081513404184 ], [ 25.117833727720871, 48.133654154306186 ], [ 25.102018654480286, 48.136705582579502 ], [ 25.094939557240586, 48.138071394758185 ], [ 25.074233075531279, 48.120309553236616 ], [ 25.070124053860948, 48.115681123415548 ], [ 25.069070349795613, 48.115880048415697 ], [ 25.059691236645165, 48.11765065863969 ], [ 25.047906100092245, 48.119875396554015 ], [ 25.044443543829608, 48.117582753048019 ], [ 25.030293241948286, 48.108212418885316 ], [ 25.004624509728639, 48.111964843959456 ], [ 24.999999999713978, 48.112640856135741 ], [ 24.999498023828163, 48.112714234835259 ], [ 24.980389839045404, 48.103766601990976 ], [ 24.972511896074678, 48.087733910189563 ], [ 24.985885638528863, 48.076718215577245 ], [ 24.994450572604698, 48.06966219611062 ], [ 24.995722289704652, 48.068614439569586 ], [ 24.981874258340017, 48.063979141118246 ], [ 24.978065820150274, 48.062704283237366 ], [ 24.976183749018738, 48.061407474182055 ], [ 24.971622958303811, 48.058264803120352 ], [ 24.926549113065708, 48.021950152254945 ], [ 24.925642038309256, 48.021079801790087 ], [ 24.927170588240514, 48.000000000254126 ], [ 24.929199522242911, 47.972277858143208 ], [ 24.950348000224832, 47.967589759884923 ], [ 24.95757209363623, 47.95726863018875 ], [ 24.943189382319549, 47.951490214598309 ], [ 24.956720916548331, 47.941703173408172 ], [ 24.960191100406046, 47.932408115289832 ], [ 24.952912141490355, 47.92676611459337 ], [ 24.95488761225862, 47.922355941497685 ], [ 24.958490786304257, 47.899477688919923 ], [ 24.962351780429699, 47.885471463370102 ], [ 24.959143497698118, 47.803950041925638 ], [ 24.947561984965599, 47.797765483113416 ], [ 24.948318270315095, 47.797134995064361 ], [ 24.916642290889815, 47.778923230941871 ], [ 24.893033614805582, 47.765345500167093 ], [ 24.888757696036933, 47.762885969190876 ], [ 24.817848093021777, 47.788454701359598 ], [ 24.76348188224528, 47.835334241005235 ], [ 24.714331858641945, 47.875817259660657 ], [ 24.649991597570317, 47.927062695573092 ], [ 24.599575721069204, 47.964033487027244 ], [ 24.579889521605093, 47.990982444073637 ], [ 24.586595125400805, 48.000000000254126 ], [ 24.609113270086315, 48.03056683731446 ], [ 24.65474945889564, 48.051042888313184 ], [ 24.64503730972665, 48.070559960791684 ], [ 24.614438582803572, 48.078121921850766 ], [ 24.550141971769914, 48.077683154153284 ], [ 24.524715782880349, 48.119173939772558 ], [ 24.520721798566985, 48.197604307042447 ], [ 24.515767510723318, 48.284610956892784 ], [ 24.499999999683769, 48.299195473891459 ], [ 24.45924061902485, 48.336877372815245 ], [ 24.442457152026517, 48.396735508541823 ], [ 24.397279289065043, 48.42027542624362 ], [ 24.325911359303721, 48.397970900264113 ], [ 24.254063279124729, 48.374057079665583 ], [ 24.190596020609142, 48.394904166600746 ], [ 24.140005543956157, 48.443673697280104 ], [ 24.151759473036101, 48.500000000192749 ], [ 24.153624377362561, 48.509020127896271 ], [ 24.136950035908317, 48.531482863985623 ], [ 24.098254213916107, 48.525860798882739 ], [ 24.053447376726535, 48.515171286548409 ], [ 24.02756879985315, 48.500000000192749 ], [ 24.017545161656024, 48.494180459622342 ], [ 23.999999999653557, 48.488926390246426 ], [ 23.969682816418615, 48.479846323587054 ], [ 23.96199597565154, 48.500000000192749 ], [ 23.950083917030444, 48.531526784289113 ], [ 23.882557197797066, 48.588619518147993 ], [ 23.784606352690801, 48.620269103611939 ], [ 23.69021299061988, 48.666413934170819 ], [ 23.621464068526695, 48.699969690038451 ], [ 23.500378664668428, 48.727203513406273 ], [ 23.499999999623348, 48.727276043155285 ], [ 23.401860367271919, 48.74607031839863 ], [ 23.33137329313886, 48.760815057651342 ], [ 23.293651746174564, 48.768703997930331 ], [ 23.168288632306965, 48.811291023347266 ], [ 23.086422851794872, 48.840326629486697 ], [ 22.999999999593133, 48.85558174733486 ], [ 22.983321293224918, 48.858525287913857 ], [ 22.901237262522976, 48.915275131092713 ], [ 22.896894076109216, 48.950057592285923 ], [ 22.888185879610184, 48.986948266096988 ], [ 22.870530656019106, 49.000000000276607 ], [ 22.80968115741172, 49.04541305740851 ], [ 22.746584924668046, 49.043715137629135 ], [ 22.59223813797723, 49.073844540059412 ], [ 22.533790641014789, 49.099671832284756 ], [ 22.49999999956292, 49.102834062756273 ], [ 22.360063205125648, 49.115927612405095 ], [ 22.306613646044848, 49.12345432893347 ], [ 22.206218394320651, 49.128013644749934 ], [ 22.11018815358004, 49.179379080255501 ], [ 22.064421013758487, 49.223588980192623 ], [ 22.000000000431022, 49.350758948570721 ], [ 21.996916119993251, 49.356838393893781 ], [ 21.881461580016353, 49.392735769163572 ], [ 21.872113344657169, 49.392061944472339 ], [ 21.836698392864758, 49.38950913723518 ], [ 21.809613499837354, 49.386413114199421 ], [ 21.796234741190631, 49.403983710181471 ], [ 21.75361040949285, 49.42924579810559 ], [ 21.696406940858363, 49.437944317436042 ], [ 21.66249080655794, 49.441893717883907 ], [ 21.620215675163927, 49.465133519451534 ], [ 21.587609043799247, 49.467194228374929 ], [ 21.500396125101759, 49.43778459283137 ], [ 21.500000000400814, 49.437747187928679 ], [ 21.480251598891481, 49.435882371496319 ], [ 21.380292848445304, 49.466976551997121 ], [ 21.311260200656154, 49.462492201164615 ], [ 21.258312617461169, 49.444260300410754 ], [ 21.196373112071186, 49.423668635761913 ], [ 21.140173596106653, 49.447584936998808 ], [ 21.120661997692739, 49.441022553830798 ], [ 21.095279458841144, 49.439701259416601 ], [ 21.089954145225576, 49.425716573865039 ], [ 21.107850690437942, 49.409548593465622 ], [ 21.093555279197201, 49.396717894330784 ], [ 21.044252480910131, 49.391820124888014 ], [ 21.011471248495255, 49.36978135331163 ], [ 21.000000000370598, 49.347853334298669 ], [ 20.996695686836834, 49.341535105368912 ], [ 20.968213989899436, 49.336398994095191 ], [ 20.876374159990526, 49.358409182931673 ], [ 20.804002278457567, 49.33679186033541 ], [ 20.77113374596675, 49.226009891890605 ], [ 20.790885420936981, 49.2035462478241 ], [ 20.796516284818349, 49.181787573502234 ], [ 20.749963443415005, 49.187946940464535 ], [ 20.725999533043243, 49.183290997388376 ], [ 20.71004541766467, 49.163246436011924 ], [ 20.681018094803481, 49.138913376432697 ], [ 20.653300275776346, 49.108078142571976 ], [ 20.626171732710983, 49.068182960830924 ], [ 20.58734496060486, 49.045808254580329 ], [ 20.551202669876353, 49.040904660459375 ], [ 20.502052646273025, 49.027625922161576 ], [ 20.500000000340389, 49.028193145014981 ], [ 20.453993876313906, 49.040904660459375 ], [ 20.403512524306684, 49.048355003973811 ], [ 20.390548441469832, 49.0640277968985 ], [ 20.488542937512385, 49.09734705198165 ], [ 20.500000000340389, 49.100377087424555 ], [ 20.551180844408211, 49.11391054962958 ], [ 20.584551353683164, 49.142448696765271 ], [ 20.588458037920589, 49.181729186724588 ], [ 20.637324335827948, 49.229801442554795 ], [ 20.681694671739496, 49.256785906759255 ], [ 20.700660644229618, 49.262003232558271 ], [ 20.689769942238797, 49.310477417326467 ], [ 20.644832154036997, 49.31977932614118 ], [ 20.571063469492351, 49.297737196453873 ], [ 20.519425390131431, 49.343426455530818 ], [ 20.570932519378438, 49.365288062177321 ], [ 20.579400640219475, 49.381514311405581 ], [ 20.566436558280937, 49.401658766713851 ], [ 20.521476945509313, 49.414735133324498 ], [ 20.500000000340389, 49.420742440014799 ], [ 20.471672170438108, 49.428664873552975 ], [ 20.438978238099171, 49.415330751035626 ], [ 20.38015971536483, 49.425527760719476 ], [ 20.332777522341729, 49.430523808120931 ], [ 20.275835953935065, 49.451562589019723 ], [ 20.260056439606693, 49.47829443628536 ], [ 20.222473694930201, 49.465104494528767 ], [ 20.181529892838402, 49.459763656592656 ], [ 20.154183098684868, 49.467353857217553 ], [ 20.159573887806552, 49.343441004207747 ], [ 20.119808637638275, 49.283624445086168 ], [ 20.126432760644452, 49.273414126462889 ], [ 20.131551390777773, 49.269146717631799 ], [ 20.135878425482723, 49.267864192915482 ], [ 20.138699314239599, 49.267566943090294 ], [ 20.141681707508145, 49.26790338923594 ], [ 20.130066413629368, 49.230705538303553 ], [ 20.051889067164844, 49.241961594146709 ], [ 20.001102164891826, 49.233417725122273 ], [ 20.000000000310173, 49.234245057465508 ], [ 19.970549881767251, 49.256217505578867 ], [ 19.939025193008863, 49.249920926377257 ], [ 19.924316598958246, 49.228211943500312 ], [ 19.836196752828002, 49.240576597185104 ], [ 19.802345033123341, 49.24462942649896 ], [ 19.785682610516279, 49.296091646335775 ], [ 19.808930970543418, 49.311452817749114 ], [ 19.771435031869469, 49.377807175750739 ], [ 19.768229875275082, 49.416725339522294 ], [ 19.779711360600714, 49.48810114191042 ], [ 19.821136908518138, 49.491103688055041 ], [ 19.823561150652889, 49.499999999800124 ], [ 19.827152064491532, 49.513310753970259 ], [ 19.776901360323393, 49.53280298340335 ], [ 19.729833858822424, 49.552785019854987 ], [ 19.654820028445609, 49.562502248151475 ], [ 19.635018309229217, 49.578083802193561 ], [ 19.554977212773373, 49.576182096712827 ], [ 19.550345103011409, 49.595736851426928 ], [ 19.533770493418324, 49.595692982412601 ], [ 19.534363227893927, 49.558009735081193 ], [ 19.504199633216373, 49.552419122179643 ], [ 19.500000000279961, 49.552584827902443 ], [ 19.482685569659907, 49.553268000144961 ], [ 19.460249475295818, 49.584475913353515 ], [ 19.409603614810614, 49.588483351589296 ], [ 19.400800410690504, 49.575216586551242 ], [ 19.341483065156989, 49.573183101293694 ], [ 19.325303611880969, 49.554131498815842 ], [ 19.255382906669922, 49.550033402882207 ], [ 19.243242827781948, 49.530840933813188 ], [ 19.154200949945771, 49.526301560180727 ], [ 19.128326372372026, 49.499999999800124 ], [ 19.105552823176517, 49.477075713352797 ], [ 19.109197042145802, 49.444173188875666 ], [ 19.019255086530915, 49.466628267886655 ], [ 19.012493523981213, 49.449704456350993 ], [ 19.000000000249752, 49.447346458552772 ], [ 18.991879539101767, 49.44581376146126 ], [ 18.962594069174006, 49.446496107342185 ], [ 18.948390396585022, 49.455554431193939 ], [ 18.970804537920195, 49.466744362671612 ], [ 18.972187585029943, 49.486505511064031 ], [ 18.97076961142195, 49.499999999800124 ], [ 18.970233756473505, 49.505151280455813 ], [ 18.962253193557981, 49.51443072946077 ], [ 19.000000000249752, 49.552747998958331 ], [ 19.012339851880505, 49.565267790312333 ], [ 19.014161961365144, 49.595590621808661 ], [ 19.000000000249752, 49.595996153634189 ], [ 18.96922391265192, 49.596877423696967 ], [ 18.952759069101713, 49.620428635451162 ], [ 18.981890866928762, 49.642741289036323 ], [ 18.996577507950466, 49.720776523061012 ], [ 19.000000000249752, 49.752134803783214 ], [ 19.00140719497265, 49.76502219433133 ], [ 19.057146181521937, 49.770923408220092 ], [ 19.045993993426634, 49.918596694177083 ], [ 19.034380789927518, 49.978374651216022 ], [ 19.050801728318216, 49.981276003379278 ], [ 19.061628812518936, 50.000000000210534 ], [ 19.070208291217536, 50.013588313621852 ], [ 19.116441574026542, 50.044602475127185 ], [ 19.224977827776009, 50.04778772060827 ], [ 19.238676578005037, 50.079376498761704 ], [ 19.26433978199243, 50.102328582916755 ], [ 19.268159625193018, 50.130847477745718 ], [ 19.252748531522226, 50.163797849464963 ], [ 19.22800735834246, 50.194396867064853 ], [ 19.205593217007287, 50.213431895020555 ], [ 19.21408907692598, 50.222437471605964 ], [ 19.201773373806695, 50.245545283543905 ], [ 19.173278216513076, 50.264493741462772 ], [ 19.09189797900531, 50.275470866128117 ], [ 19.07859438509335, 50.307806222584439 ], [ 19.079296885611836, 50.340647082535604 ], [ 19.063666259855278, 50.362668940119647 ], [ 19.054863056633486, 50.385787426683343 ], [ 19.00401961709143, 50.395432157261169 ], [ 19.000000000249752, 50.396871334148024 ], [ 18.974141413586381, 50.406128648833793 ], [ 18.984744773263905, 50.454601253498979 ], [ 18.985952195244032, 50.482224885607351 ], [ 18.998772820723264, 50.497410966824937 ], [ 19.000000000249752, 50.497789057454192 ], [ 19.007176318559395, 50.499999999891088 ], [ 19.060812353520134, 50.516698127188675 ], [ 19.089395322929409, 50.522820370572624 ], [ 19.131281887148958, 50.551402402310586 ], [ 19.12155665222123, 50.571159353925104 ], [ 19.098308292194087, 50.608607021295768 ], [ 19.07596000994565, 50.637666654749793 ], [ 19.000000000249752, 50.657336346881266 ], [ 18.91730477109985, 50.678740698297766 ], [ 18.854606643842324, 50.696353595399557 ], [ 18.829931330647607, 50.711301476385422 ], [ 18.802511876262319, 50.716260998184481 ], [ 18.790788907618634, 50.729761447707183 ], [ 18.772655625786179, 50.770437475931558 ], [ 18.733622967901773, 50.789349365526292 ], [ 18.729517733528681, 50.80458421788871 ], [ 18.708113436015097, 50.817847937936989 ], [ 18.682757576229122, 50.852658727382718 ], [ 18.658938434755292, 50.852605983833833 ], [ 18.637929293558773, 50.8628371689029 ], [ 18.661243512672655, 50.898220186144968 ], [ 18.598828137337325, 50.956917752380932 ], [ 18.596108589324285, 50.959473616965973 ], [ 18.573606634975139, 50.971693529795836 ], [ 18.551368118769584, 50.985921905376962 ], [ 18.501265255737653, 50.999999999968175 ], [ 18.500000000219536, 51.000359333022942 ], [ 18.467902334531907, 51.009474142518961 ], [ 18.450449600189025, 51.021641130565371 ], [ 18.458462490776675, 51.033233973669198 ], [ 18.461338350140736, 51.053172686348688 ], [ 18.438968114863385, 51.08338289844113 ], [ 18.431218661521008, 51.11557467453418 ], [ 18.352253268871806, 51.126348845939759 ], [ 18.232455061882469, 51.125421279772951 ], [ 18.210721467138555, 51.146551886937466 ], [ 18.142117949950517, 51.144896234205682 ], [ 18.043153259028074, 51.126971629672852 ], [ 18.019224352409676, 51.125090001967095 ], [ 18.000000000189324, 51.139650634221439 ], [ 17.984011538624177, 51.151756869801396 ], [ 17.906890207590216, 51.207993933652084 ], [ 17.946932709296213, 51.292253265414161 ], [ 17.946355122212928, 51.293118047471381 ], [ 17.962344901606595, 51.307322030028487 ], [ 17.978334899290878, 51.321726503485685 ], [ 17.976810913699577, 51.322966099063187 ], [ 17.923772161384726, 51.322926516933052 ], [ 17.899755441752355, 51.349544319929642 ], [ 17.87352145721659, 51.363084679932562 ], [ 17.844653096634815, 51.357692749791887 ], [ 17.798551532897605, 51.384079440502447 ], [ 17.736358328000026, 51.412913328942174 ], [ 17.736270514986057, 51.439702316364894 ], [ 17.731001764690667, 51.460793288760811 ], [ 17.793765751034936, 51.471039202588749 ], [ 17.722792180785028, 51.500000000093614 ], [ 17.722110749353217, 51.500281051545059 ], [ 17.671574654012581, 51.516609599409975 ], [ 17.644087600503845, 51.500000000093614 ], [ 17.643079496718961, 51.499397400061525 ], [ 17.64168375461762, 51.500000000093614 ], [ 17.549076212788808, 51.540407649294323 ], [ 17.567911994241435, 51.571729756390049 ], [ 17.534894493228734, 51.616763696221312 ], [ 17.529876846309769, 51.61669041076798 ], [ 17.500000000159112, 51.616254041459996 ], [ 17.459573318650506, 51.615663578724799 ], [ 17.364033316408214, 51.628478950620952 ], [ 17.281884720193542, 51.656336844989042 ], [ 17.231019327622572, 51.660097600501636 ], [ 17.223431561149866, 51.655059129171931 ], [ 17.207068467076944, 51.644191699545601 ], [ 17.203182763891299, 51.628743966628981 ], [ 17.228362999445963, 51.597275715605633 ], [ 17.137586824240799, 51.582063946969114 ], [ 17.097258933158933, 51.609645592123336 ], [ 17.038490415144874, 51.595551883727111 ], [ 17.073395884728956, 51.568452568523064 ], [ 17.056052915530639, 51.553722194018341 ], [ 17.0000000001289, 51.559953068901592 ], [ 16.98608830426177, 51.561499368068993 ], [ 16.910591505452231, 51.567523767901676 ], [ 16.851098534789088, 51.566342836513016 ], [ 16.802296735919128, 51.580339535342581 ], [ 16.767940094752827, 51.600471260077512 ], [ 16.702585639318684, 51.684640741202273 ], [ 16.651720246747718, 51.729284478725972 ], [ 16.609482433167244, 51.733977764287054 ], [ 16.607265167365529, 51.749693399428196 ], [ 16.635211496241372, 51.754714899627324 ], [ 16.627879152244972, 51.777516019754366 ], [ 16.581821494565588, 51.775851903101014 ], [ 16.548452743293648, 51.776868870545982 ], [ 16.516313367929058, 51.784501994332949 ], [ 16.500000000098691, 51.785148759946061 ], [ 16.483339772974187, 51.785809267971956 ], [ 16.43664547476137, 51.796530113173993 ], [ 16.401959536364735, 51.798668694950727 ], [ 16.380840629125341, 51.793863344548193 ], [ 16.35015015905892, 51.790311806637675 ], [ 16.325518751922033, 51.782917369579366 ], [ 16.305102345201124, 51.772246105774023 ], [ 16.299482345544803, 51.744644904580738 ], [ 16.276036407359129, 51.727697905158493 ], [ 16.220692577126908, 51.720967566163999 ], [ 16.204359451750179, 51.720861777034258 ], [ 16.153406247063561, 51.708191697738187 ], [ 16.141749137506622, 51.757833233354134 ], [ 16.113934526804258, 51.758903459103998 ], [ 16.082958666463654, 51.783788920340122 ], [ 16.104911792395018, 51.827938526240274 ], [ 16.088468900975407, 51.847920237972815 ], [ 16.112705151795222, 51.869896416620733 ], [ 16.098435620119499, 51.914132416229066 ], [ 16.055495306020536, 51.909536966404119 ], [ 16.042608821454557, 51.919254008498072 ], [ 16.034091008506948, 51.944550531917415 ], [ 16.003049289079602, 51.950642192926658 ], [ 16.000000000068475, 51.949244075709743 ], [ 15.975761553766104, 51.938129046922498 ], [ 15.961448116032557, 51.949602853726446 ], [ 15.998109836014539, 51.980141428261973 ], [ 15.970317178341093, 51.997426824389947 ], [ 15.957282288496916, 51.999999999749583 ], [ 15.941624443787251, 52.003125663306825 ], [ 15.905753036439409, 52.013569527629052 ], [ 15.87161005237691, 52.016990642694424 ], [ 15.865578816559935, 52.017594943147245 ], [ 15.818182017828633, 52.051617076303089 ], [ 15.803627094980405, 52.088080280650836 ], [ 15.764857875239592, 52.111046810323188 ], [ 15.76552094420868, 52.111914057292438 ], [ 15.785493814046264, 52.138029221057288 ], [ 15.822858033648419, 52.177982299999407 ], [ 15.764704203138882, 52.208627829966197 ], [ 15.767865453675444, 52.239384313017545 ], [ 15.740994827707931, 52.284580985762581 ], [ 15.681721388232237, 52.337289303979404 ], [ 15.611449432761951, 52.366559097078706 ], [ 15.508950288913105, 52.383136667503663 ], [ 15.500000000038265, 52.384286076741297 ], [ 15.462686656522225, 52.389077587820971 ], [ 15.455428569063844, 52.427198881758109 ], [ 15.439819896336202, 52.455764308050391 ], [ 15.415737317617095, 52.452212735043162 ], [ 15.352051300465206, 52.369379570589508 ], [ 15.319582626971972, 52.371659540521726 ], [ 15.308671923991344, 52.494812614971991 ], [ 15.324794434858134, 52.500000000004945 ], [ 15.338813565639983, 52.50456197052543 ], [ 15.311064814024363, 52.517172197174006 ], [ 15.319538720914142, 52.533258575514282 ], [ 15.379887863298164, 52.539619761650137 ], [ 15.38585911321373, 52.554635923257585 ], [ 15.384190675829796, 52.59371213916215 ], [ 15.40083114540794, 52.629440527194411 ], [ 15.435319505646035, 52.658862943639555 ], [ 15.465768491496094, 52.675148656172787 ], [ 15.487106929024623, 52.683117163651531 ], [ 15.493605054329054, 52.707265257958504 ], [ 15.500000000038265, 52.708405246493527 ], [ 15.583986073217147, 52.723374161976032 ], [ 15.672720606851907, 52.726878180659483 ], [ 15.756076625046708, 52.751741973101659 ], [ 15.843428112470036, 52.755349409219356 ], [ 15.955279287958458, 52.767451287381064 ], [ 15.956157412708253, 52.783973611456055 ], [ 15.938221709034327, 52.78982293155623 ], [ 15.942195224335629, 52.809490919077184 ], [ 15.95027397490834, 52.84175872008214 ], [ 15.974641944799949, 52.841719158719087 ], [ 15.977012881804059, 52.862576208712966 ], [ 15.950164209763773, 52.864500561859607 ], [ 15.945751631189259, 52.880748697066423 ], [ 15.965728975535276, 52.946443098812601 ], [ 15.949358460479791, 52.999999999855014 ], [ 15.947090771342864, 53.007500362478716 ], [ 16.000000000068475, 53.023352930887569 ], [ 16.002039445258013, 53.023963868659315 ], [ 16.02293882130996, 53.097315071400779 ], [ 16.013696554814953, 53.163019963568345 ], [ 16.028866165167699, 53.177358769990562 ], [ 16.023773040001927, 53.207358027350587 ], [ 16.052136478223751, 53.276816462144467 ], [ 16.056658821942829, 53.300304896100577 ], [ 16.073079760333528, 53.318608687869556 ], [ 16.054265931011496, 53.320983512260106 ], [ 16.028361242807744, 53.338526707008349 ], [ 16.000000000068475, 53.327454123400997 ], [ 15.997078039164039, 53.326313188782478 ], [ 15.984630616972957, 53.351593653332863 ], [ 15.969461006620213, 53.374395128220534 ], [ 15.998219601159105, 53.413563928560528 ], [ 16.000000000068475, 53.411634217230414 ], [ 16.031281009127948, 53.37771547648439 ], [ 16.059995697609015, 53.389308302509889 ], [ 16.098303901946021, 53.388728736236622 ], [ 16.146512965442064, 53.391007438457009 ], [ 16.16973937244029, 53.401516860342227 ], [ 16.327011565074663, 53.420329848726851 ], [ 16.302204532808155, 53.467240290032805 ], [ 16.240340625140906, 53.476192871672239 ], [ 16.207937811632728, 53.493553630150316 ], [ 16.213134854808878, 53.498018273172306 ], [ 16.215441849731064, 53.499999999893774 ], [ 16.224929530571799, 53.508246146251516 ], [ 16.24896820323308, 53.506810646931797 ], [ 16.265409853180966, 53.499999999893774 ], [ 16.289691251530332, 53.490058396801388 ], [ 16.344547100730544, 53.499999999893774 ], [ 16.346747425204313, 53.500403471682191 ], [ 16.365327286513963, 53.499999999893774 ], [ 16.395110160801064, 53.499360859314059 ], [ 16.397977647866671, 53.499999999893774 ], [ 16.418863443188155, 53.504710477141472 ], [ 16.463999069161602, 53.506358720468555 ], [ 16.492186882253808, 53.517974352941366 ], [ 16.500000000098691, 53.519999189021526 ], [ 16.552382353435437, 53.533572010883965 ], [ 16.645598723956482, 53.499999999893774 ], [ 16.672926966102771, 53.49026864426439 ], [ 16.698458451916675, 53.448934835295773 ], [ 16.767698609638149, 53.43987122762762 ], [ 16.772506344529731, 53.409969916418952 ], [ 16.799398923526155, 53.413893035168805 ], [ 16.835731346277811, 53.457260066137394 ], [ 16.886750410949485, 53.453853890023233 ], [ 16.923948968636836, 53.499999999893774 ], [ 16.925474377159549, 53.501913790102876 ], [ 16.931666505735485, 53.509681596722764 ], [ 16.920294786452732, 53.552775505033139 ], [ 16.928000333737288, 53.592084798790346 ], [ 16.912259942836165, 53.640381443018626 ], [ 16.919109317501523, 53.678549899165695 ], [ 16.890745879279695, 53.726257926807676 ], [ 16.851032674804031, 53.759724276517758 ], [ 16.849012987160854, 53.794734801795499 ], [ 16.908505957823998, 53.82202554743133 ], [ 16.899373457371873, 53.847584525163491 ], [ 16.823503455274178, 53.838684182934507 ], [ 16.814656345994557, 53.866407429307571 ], [ 16.824842596326096, 53.89258453232631 ], [ 16.936935256030878, 53.930075900380224 ], [ 16.979414553827716, 53.89740448788605 ], [ 17.0000000001289, 53.912043090163792 ], [ 17.028238305726592, 53.932115366416141 ], [ 17.091748697748862, 53.938088451871842 ], [ 17.100815339114249, 53.967139071694504 ], [ 17.169111512999184, 53.9695447975189 ], [ 17.178373937689166, 53.99999999987628 ], [ 17.181668701233146, 54.010959353567564 ], [ 17.239581046628007, 54.01639541428284 ], [ 17.242083702703905, 54.01644857500974 ], [ 17.313541127125404, 54.012368278929046 ], [ 17.332508627649826, 54.033948086382999 ], [ 17.448772380814447, 54.009909273965278 ], [ 17.500000000159112, 54.011490120672661 ], [ 17.532765040440992, 54.012501193542604 ], [ 17.578669026019668, 54.016049866836354 ], [ 17.640137777369844, 54.028580761735704 ], [ 17.656405043659831, 54.084319157706311 ], [ 17.650280121643561, 54.124277569233563 ], [ 17.587647854371088, 54.137345503866136 ], [ 17.580425275519257, 54.162555175087753 ], [ 17.640928090003989, 54.186161174625624 ], [ 17.719871530522589, 54.248110455570334 ], [ 17.761357809044799, 54.273610756770211 ], [ 17.839077003036319, 54.32133965109211 ], [ 17.849946955740712, 54.346825637252842 ], [ 17.850382862334015, 54.347847344611566 ], [ 17.897669895022439, 54.349402984320214 ], [ 17.857385909998396, 54.408407647339907 ], [ 17.946888803238387, 54.424438390328007 ], [ 17.987985053925478, 54.405050660354533 ], [ 18.000000000189324, 54.410268658773539 ], [ 18.082559120200639, 54.446105416109724 ], [ 18.043895114739161, 54.499999999751346 ], [ 18.032066930917829, 54.516676986639027 ], [ 18.000805679404717, 54.56358232051327 ], [ 18.094413807916116, 54.599995863548379 ], [ 18.087542479323528, 54.65789286704819 ], [ 18.004318180200521, 54.704396964918395 ], [ 18.000000000189324, 54.720547171669878 ], [ 17.99277083578815, 54.747570144040331 ], [ 18.000000000189324, 54.749590773523131 ], [ 18.092723416604951, 54.775498987333577 ], [ 18.07401935422412, 54.823437508046474 ], [ 18.069189666303622, 54.835611022495861 ], [ 18.160580528114988, 54.845091411617283 ], [ 18.241324125089321, 54.845196883253031 ], [ 18.319696783262916, 54.85323827552218 ], [ 18.399935457877302, 54.851300579412857 ], [ 18.437189912334887, 54.838156047756314 ], [ 18.500000000219536, 54.825912199347634 ], [ 18.509986476909987, 54.823965147686614 ], [ 18.586493119541117, 54.807024467173598 ], [ 18.674722731714237, 54.783831612812989 ], [ 18.774894844616806, 54.73737935743285 ], [ 18.805892657986327, 54.724052109361374 ], [ 18.870895863161223, 54.649640182171161 ], [ 18.866988206946662, 54.636323715801019 ], [ 18.836451408980949, 54.630452478703013 ], [ 18.793686720011607, 54.710283930602003 ], [ 18.668509997582312, 54.772685841916079 ], [ 18.557668665915482, 54.801164814300108 ], [ 18.500000000219536, 54.813830101795041 ], [ 18.460328506319147, 54.822540505284074 ], [ 18.417234521017789, 54.807301591798108 ], [ 18.416685692600009, 54.775446160090254 ], [ 18.463599522000276, 54.746327825522805 ], [ 18.473500382057626, 54.728931344914798 ], [ 18.480525381852608, 54.660965667251062 ], [ 18.495299835888282, 54.653773358329722 ], [ 18.500000000219536, 54.655466629752127 ], [ 18.513169680475464, 54.660210733799737 ], [ 18.511237804947939, 54.621120364117502 ], [ 18.535474055767757, 54.603112851076631 ], [ 18.551697415999918, 54.562652975728909 ], [ 18.537493743410934, 54.552229583386023 ], [ 18.539381711982319, 54.537340073278841 ], [ 18.557471087756944, 54.532955859087416 ], [ 18.563793587931752, 54.503050879343071 ], [ 18.566777405030027, 54.499999999751346 ], [ 18.591037417187426, 54.475489439203002 ], [ 18.617403120794982, 54.443540704241222 ], [ 18.661441090831193, 54.415384032123299 ], [ 18.712394295517811, 54.396084176239455 ], [ 18.753468594074306, 54.409895165228598 ], [ 18.797133360822357, 54.40516914686755 ], [ 18.868722503417334, 54.36976585934854 ], [ 18.897700630041992, 54.335888038270106 ], [ 18.901784130575102, 54.336239483407525 ], [ 18.927678500729499, 54.334071684598015 ], [ 18.928053460224039, 54.334031065540124 ], [ 18.953998322883926, 54.331822396741522 ], [ 18.95767656913786, 54.332116241806197 ], [ 18.957698522166773, 54.332129430733332 ], [ 19.000000000249752, 54.330208729701525 ], [ 19.040483758914878, 54.3283704780563 ], [ 19.099823057477312, 54.331641445999168 ], [ 19.30541407965061, 54.359038721582749 ], [ 19.421611973728485, 54.379699788562469 ], [ 19.500000000279961, 54.408331044468802 ], [ 19.503058070322989, 54.409447599467846 ], [ 19.58140877636599, 54.440725911621911 ], [ 19.681300483745879, 54.499999999751346 ], [ 19.723840655877943, 54.525528186601328 ], [ 19.834703940573693, 54.600393790118929 ], [ 19.867436050413886, 54.627456892346835 ], [ 19.888335426465837, 54.632016458025277 ], [ 19.893845660977586, 54.633222536625034 ], [ 19.893823707948673, 54.630995902237281 ], [ 19.893691988876881, 54.616307651984734 ], [ 19.861223316281958, 54.595923523584595 ], [ 19.841399643138342, 54.568374745117005 ], [ 19.757670422553694, 54.526538110925905 ], [ 19.737297921890615, 54.506228497205441 ], [ 19.719334606699807, 54.499999999751346 ], [ 19.684456747734298, 54.488051705608839 ], [ 19.661888934298414, 54.464224782280795 ], [ 19.632954715528211, 54.452233766537063 ], [ 19.61029908907836, 54.430793665696896 ], [ 19.566963619560642, 54.419108670081059 ], [ 19.517217836854147, 54.395465271395366 ], [ 19.500000000279961, 54.389956457026848 ], [ 19.388879863888292, 54.354385906061133 ], [ 19.312504939430642, 54.335782537996963 ], [ 19.244603921862776, 54.337008959712797 ], [ 19.209478920192932, 54.331285345004972 ], [ 19.20392477962335, 54.315983276290659 ], [ 19.242364703032152, 54.300807476999907 ], [ 19.259993062504655, 54.261258028844715 ], [ 19.264332035819734, 54.262584831568311 ], [ 19.289717594807314, 54.270346552198816 ], [ 19.332811581006986, 54.261007009050481 ], [ 19.37017580060914, 54.263173655157253 ], [ 19.392260644713986, 54.274757987331398 ], [ 19.411447677324169, 54.270623931818228 ], [ 19.404642207818327, 54.239122756969486 ], [ 19.426902677052791, 54.235408148106124 ], [ 19.426353849533328, 54.259580130804366 ], [ 19.45074377155554, 54.272895732782004 ], [ 19.482553850588111, 54.299764759438681 ], [ 19.500000000279961, 54.30781631620679 ], [ 19.511751508400216, 54.313238852759326 ], [ 19.549840181549776, 54.322104790081646 ], [ 19.574099867618724, 54.321840912005484 ], [ 19.61411893317727, 54.321405611469302 ], [ 19.641187137303316, 54.340898977778579 ], [ 19.696618779651189, 54.399850075719883 ], [ 19.713284788332864, 54.405808325820445 ], [ 19.738044327568613, 54.393806033610346 ], [ 19.765902844328799, 54.398507032787023 ], [ 19.810094486465715, 54.391224862545371 ], [ 19.842563159060635, 54.395254578345053 ], [ 19.880871363397642, 54.389499601419281 ], [ 19.898741207984823, 54.371874056705892 ], [ 19.889389176345244, 54.353186369390784 ], [ 19.957926834446546, 54.333039441219199 ], [ 19.993644569693682, 54.326444705451124 ], [ 20.000000000310173, 54.329697440840441 ], [ 20.039492436618243, 54.350022587008965 ], [ 20.063019845711981, 54.348651538546292 ], [ 20.086438129261634, 54.330493999188491 ], [ 20.079781487242169, 54.306984045814559 ], [ 20.086045278021587, 54.29229337223493 ], [ 20.167998358609616, 54.287078434986661 ], [ 20.32097016775689, 54.279776408306709 ], [ 20.350543116541871, 54.268695443931911 ], [ 20.374768927141453, 54.241383083775986 ], [ 20.438803637947291, 54.218615513386197 ], [ 20.489590540220309, 54.208047181462092 ], [ 20.500000000340389, 54.206376436527378 ], [ 20.609431915750619, 54.188808227211673 ], [ 20.627459411076906, 54.194564978640102 ], [ 20.648935264792765, 54.19306962406651 ], [ 20.697321411384134, 54.16046268371435 ], [ 20.717749662392066, 54.167031160125966 ], [ 20.750138043566892, 54.159416398429848 ], [ 20.785538281853263, 54.130891575039144 ], [ 20.834579179912506, 54.117105675250478 ], [ 20.994753257003037, 54.128916762373706 ], [ 21.000000000370598, 54.127386272978562 ], [ 21.06131967360443, 54.109494945672978 ], [ 21.090412471971735, 54.097890522763485 ], [ 21.122429827374653, 54.076038832833312 ], [ 21.176686912607071, 54.069694769070409 ], [ 21.245042984358523, 54.05151987519266 ], [ 21.215666461193564, 54.016900440020258 ], [ 21.205271004012136, 53.99999999987628 ], [ 21.173893305685375, 53.949558577038822 ], [ 21.084105031154351, 53.861966096335799 ], [ 21.010423645787331, 53.806376461499312 ], [ 21.000000000370598, 53.799653236717539 ], [ 20.944861181855892, 53.764070821386561 ], [ 20.889425542903322, 53.707609842739998 ], [ 20.818406814344083, 53.663588612640353 ], [ 20.739705667423912, 53.645177584035743 ], [ 20.677111410566059, 53.606992018770846 ], [ 20.603866526477056, 53.588410232593716 ], [ 20.506046631484704, 53.5380084499308 ], [ 20.500000000340389, 53.537528357482408 ], [ 20.476102656029493, 53.535630895648595 ], [ 20.413617524715725, 53.544409913442223 ], [ 20.384044575930737, 53.559798663038357 ], [ 20.357767209953273, 53.585783450702742 ], [ 20.372455471535751, 53.616074342705822 ], [ 20.38002876525092, 53.620502092217187 ], [ 20.374092350205441, 53.648966412547665 ], [ 20.356719607245349, 53.664515572739639 ], [ 20.283867574396396, 53.704699463654919 ], [ 20.275420917900757, 53.70314588941342 ], [ 20.231833408063771, 53.710168856470467 ], [ 20.216622864178479, 53.712619353100777 ], [ 20.220999184951488, 53.724331798294962 ], [ 20.226489561305574, 53.739021178504473 ], [ 20.210045066393185, 53.775856247285994 ], [ 20.205801359413986, 53.781847792957031 ], [ 20.193770377324, 53.798829257606513 ], [ 20.192778347992814, 53.800229177233817 ], [ 20.158244909395442, 53.804207080037614 ], [ 20.154956010951953, 53.826078770420807 ], [ 20.166467156851638, 53.852408991429797 ], [ 20.20511171827879, 53.863830138951748 ], [ 20.216622864178479, 53.885174318847234 ], [ 20.205933942665084, 53.907499532676354 ], [ 20.198533920493496, 53.938239090067256 ], [ 20.191956122708202, 53.956077431191467 ], [ 20.188254141167835, 53.959423047421247 ], [ 20.17238749385016, 53.973759262936909 ], [ 20.171174010038502, 53.975193832396691 ], [ 20.167110426951869, 53.979039321672225 ], [ 20.160608694911573, 53.984702029690823 ], [ 20.150215952438934, 53.99999999987628 ], [ 20.145129958099886, 54.007575311953829 ], [ 20.14365774960493, 54.009767829009306 ], [ 20.144982207693531, 54.011534737464231 ], [ 20.148534048410571, 54.016272741119138 ], [ 20.155616293347034, 54.026240243555478 ], [ 20.154663146694602, 54.026747980446117 ], [ 20.151365435778175, 54.028551763719683 ], [ 20.141800415381368, 54.032190884843502 ], [ 20.121244796740875, 54.035694219243666 ], [ 20.093289156827119, 54.054206919858984 ], [ 20.096578055270605, 54.062709977452634 ], [ 20.09161019747626, 54.068341058231113 ], [ 20.078489111585629, 54.083210158244306 ], [ 20.053000145729062, 54.076711201613371 ], [ 20.04828896895074, 54.078382220508892 ], [ 20.018546229593905, 54.087351217757522 ], [ 20.009308920900949, 54.090158801915599 ], [ 20.000000000310173, 54.094166716142162 ], [ 19.990710403379477, 54.098142593592925 ], [ 19.974212632980848, 54.105202571461383 ], [ 19.956148969684595, 54.124957624761748 ], [ 19.955172554869669, 54.132915942710376 ], [ 19.958101797517802, 54.142935344209967 ], [ 19.962495662388314, 54.147354894387853 ], [ 19.965667142939335, 54.161945874532258 ], [ 19.966401318953054, 54.165322849381873 ], [ 19.95025443499598, 54.165835477451637 ], [ 19.93494191166468, 54.181409288332667 ], [ 19.92596308331326, 54.210428269062589 ], [ 19.903899091801112, 54.222330079780122 ], [ 19.906351842869718, 54.240056016639741 ], [ 19.892682042647348, 54.238586200947061 ], [ 19.875106585860241, 54.22212067590273 ], [ 19.857531129971445, 54.21888560126709 ], [ 19.846302365888068, 54.217709147360324 ], [ 19.836538223128748, 54.218003263993573 ], [ 19.770916777612385, 54.20735838648995 ], [ 19.649485616692839, 54.199288896338793 ], [ 19.649924481438376, 54.145043838772658 ], [ 19.62193424560639, 54.113897141664083 ], [ 19.5357901810615, 54.104747473139575 ], [ 19.530257993520834, 54.083642462312227 ], [ 19.560114243996967, 54.057309094368755 ], [ 19.524945336269298, 54.02863390681847 ], [ 19.500000000279961, 54.029072804657929 ], [ 19.454717287755152, 54.029869514724432 ], [ 19.429000033035436, 53.99999999987628 ], [ 19.414872364207692, 53.983779107915772 ], [ 19.338343768547656, 53.928141604641375 ], [ 19.302296736070186, 53.85548116248868 ], [ 19.250114156374533, 53.764969138970557 ], [ 19.193848295334689, 53.751161978455407 ], [ 19.21613071759807, 53.726694271925403 ], [ 19.200390326696947, 53.71425004213048 ], [ 19.141336418408702, 53.73059472990667 ], [ 19.092732198595591, 53.729391576875749 ], [ 19.04869422766107, 53.684850577697645 ], [ 19.022921258529113, 53.6762597115247 ], [ 19.000000000249752, 53.677791460126031 ], [ 18.880686957175691, 53.685763832558003 ], [ 18.731929486386033, 53.67306749988439 ], [ 18.725434452184498, 53.672513066403759 ], [ 18.708289061144718, 53.641865390539671 ], [ 18.724622186521444, 53.600029784803169 ], [ 18.730439765234614, 53.55638680263273 ], [ 18.732962260603568, 53.556652206765548 ], [ 18.815991096202215, 53.565387144442902 ], [ 18.86189508178089, 53.567909018933214 ], [ 18.934867271485611, 53.564988939978811 ], [ 19.000000000249752, 53.570306862400876 ], [ 19.007532116988923, 53.570921797342713 ], [ 19.047530712637084, 53.56279874782733 ], [ 19.050516337145712, 53.535524633041945 ], [ 19.028239548217481, 53.499999999893774 ], [ 19.026850867772591, 53.497810591462304 ], [ 19.057146181521937, 53.474562880857363 ], [ 19.101118292471401, 53.455326864965024 ], [ 19.160742981308022, 53.464965689752042 ], [ 19.17527595112734, 53.490229223179234 ], [ 19.236319715804804, 53.499999999893774 ], [ 19.247348062155041, 53.501786015155403 ], [ 19.356477050380111, 53.504936449806735 ], [ 19.388572519686875, 53.528630276940213 ], [ 19.369275722830434, 53.547118953795668 ], [ 19.383808691751433, 53.570444014575529 ], [ 19.425146427553205, 53.568785003333488 ], [ 19.46211549083829, 53.538645983972415 ], [ 19.489754476411029, 53.528975685661905 ], [ 19.500000000279961, 53.528195886901862 ], [ 19.575108229220092, 53.522478869021072 ], [ 19.649397606049508, 53.516937847853733 ], [ 19.675829169642121, 53.530078318094112 ], [ 19.736771046501751, 53.579919032578069 ], [ 19.785485032357744, 53.563661564204089 ], [ 19.785506985386661, 53.544370073164181 ], [ 19.850817534762967, 53.529746202940103 ], [ 19.823969833801506, 53.499999999893774 ], [ 19.823266361305883, 53.499229483145584 ], [ 19.856525347433259, 53.48785073173098 ], [ 19.957356052999852, 53.376964467893899 ], [ 19.927829099754049, 53.289057416929175 ], [ 19.886666989081899, 53.293466994501543 ], [ 19.888006129235499, 53.268310423791903 ], [ 19.875097691640608, 53.247764764098648 ], [ 19.920277223671889, 53.237970707018853 ], [ 19.940496053132577, 53.199817190534752 ], [ 19.978299335109629, 53.205042999927848 ], [ 20.000000000310173, 53.199434784626135 ], [ 20.014000772222566, 53.195794865560423 ], [ 20.11762613214648, 53.143682094757125 ], [ 20.311494198252511, 53.110627417757151 ], [ 20.37863006589566, 53.142533363533829 ], [ 20.412181796804454, 53.160633455407556 ], [ 20.442005557013395, 53.212628522423763 ], [ 20.468101348319113, 53.269073071556683 ], [ 20.500000000340389, 53.3146811578263 ], [ 20.509109019729298, 53.327696081250551 ], [ 20.528271813098179, 53.326537870549203 ], [ 20.528548262440342, 53.328146759994475 ], [ 20.561414095493735, 53.328269984542821 ], [ 20.583547530370609, 53.331136433456322 ], [ 20.617068228079599, 53.3322940288406 ], [ 20.630164955252987, 53.33274629940415 ], [ 20.656803484398857, 53.327111502846094 ], [ 20.747374483494813, 53.298926302257591 ], [ 20.787332276764459, 53.278782566131923 ], [ 20.827290070034106, 53.268304051677248 ], [ 20.897882171596923, 53.249758818461416 ], [ 20.929031283718174, 53.243955041320369 ], [ 20.962801377106235, 53.258296479226601 ], [ 21.000000000370598, 53.291036589262909 ], [ 21.008764941649499, 53.298747324388756 ], [ 21.10638841192014, 53.364946524876117 ], [ 21.247945716824304, 53.429805584089536 ], [ 21.382933679784948, 53.472853951477191 ], [ 21.500000000400814, 53.492060267821742 ], [ 21.508864245942796, 53.493514212133121 ], [ 21.650050525075052, 53.495931800263804 ], [ 21.845428414831932, 53.491464408971282 ], [ 21.89113007914737, 53.48159505377189 ], [ 21.927683023928232, 53.499999999893774 ], [ 21.929127499633736, 53.50073581799407 ], [ 21.956845319559179, 53.520246602692083 ], [ 22.000000000431022, 53.501699374834715 ], [ 22.002241432710505, 53.50073581799407 ], [ 22.035109965201329, 53.521880951975618 ], [ 22.076293843849442, 53.518333137640013 ], [ 22.110297279124122, 53.5494958598821 ], [ 22.268310675292685, 53.625777663948973 ], [ 22.384621721163754, 53.713197824578536 ], [ 22.445901145381278, 53.759182578007952 ], [ 22.49999999956292, 53.772779662515021 ], [ 22.502297086965832, 53.773356909285909 ], [ 22.547518599965283, 53.818977998579093 ], [ 22.606599023825765, 53.844459732406122 ], [ 22.636608473888774, 53.861491623024719 ], [ 22.635429921066933, 53.879689064205373 ], [ 22.683706942114224, 53.897865383168892 ], [ 22.693135365587242, 53.946494048541204 ], [ 22.686347107802238, 53.955290185400493 ], [ 22.671943237567355, 53.973948361068373 ], [ 22.643761110810896, 53.99999999987628 ], [ 22.634316842852893, 54.008832583043962 ], [ 22.56567704630379, 54.023757546845161 ], [ 22.571984487121178, 54.056100860637144 ], [ 22.606817274015622, 54.060429094109736 ], [ 22.557230750032584, 54.133197612187665 ], [ 22.579754206456368, 54.246114827592372 ], [ 22.637088625204768, 54.244766733020867 ], [ 22.672641639073195, 54.271046601767779 ], [ 22.734973995703228, 54.263900248916165 ], [ 22.794709170133274, 54.337866113973085 ], [ 22.732114913275417, 54.355677675966838 ], [ 22.716553649136895, 54.389354728480001 ], [ 22.662602114170269, 54.408447139809475 ], [ 22.658487790643132, 54.419623094464782 ], [ 22.636106497104635, 54.480365005236202 ], [ 22.642708880880942, 54.499999999751346 ], [ 22.660288658564568, 54.552880293544192 ], [ 22.659568431590579, 54.612754098396053 ], [ 22.633465665764994, 54.668275875403999 ], [ 22.728077278025768, 54.716778440642074 ], [ 22.817276276595031, 54.735502174508603 ], [ 22.801169386532717, 54.784452198911147 ], [ 22.781374061524517, 54.858233674236843 ], [ 22.692786164385161, 54.898924980162178 ], [ 22.590011981549146, 54.920735589324046 ], [ 22.597781701782651, 54.964110887380592 ], [ 22.567379400479595, 54.992703909133155 ], [ 22.569455159166175, 54.999999999764796 ], [ 22.581762110897962, 55.038524377520105 ], [ 22.49999999956292, 55.072901169481284 ], [ 22.494680143212701, 55.075136870494219 ], [ 22.377763324717996, 55.074564511230186 ], [ 22.335160817590047, 55.088999465800697 ], [ 22.195655068063761, 55.091544893725178 ], [ 22.18277828620117, 55.110035227362964 ], [ 22.186575844894506, 55.132797815220478 ], [ 22.293431313018147, 55.143293848599079 ], [ 22.362529436313409, 55.17172416523556 ], [ 22.353035537334275, 55.210263144294423 ], [ 22.3433888636714, 55.252032508269757 ], [ 22.274858191768068, 55.26499647981656 ], [ 22.243364637719115, 55.263415451609276 ], [ 22.160734980195063, 55.226219820143811 ], [ 22.123108586378923, 55.207073366808856 ], [ 22.107241771076293, 55.159300790653973 ], [ 22.030614004103828, 55.157832104945236 ], [ 22.000000000431022, 55.16301174538124 ], [ 21.956212392661129, 55.170419077817165 ], [ 21.942397132736382, 55.19658254236554 ], [ 21.912431332711343, 55.227232171207277 ], [ 21.871945856467388, 55.235190445038207 ], [ 21.835323414422891, 55.211369029595474 ], [ 21.719476024104257, 55.262497030799757 ], [ 21.691430828444876, 55.31506839490352 ], [ 21.645423612965324, 55.342772345352309 ], [ 21.588023719609126, 55.332282647235616 ], [ 21.53514161192026, 55.414199741163877 ], [ 21.504259159301213, 55.496501322780766 ], [ 21.501787789750026, 55.500000000025729 ], [ 21.500000000400814, 55.502563230132026 ], [ 21.4280242435688, 55.60561881325102 ], [ 21.256784864335565, 55.779908591497716 ], [ 21.197748090513048, 55.869850887024697 ], [ 21.145673509874115, 55.905218013293762 ], [ 21.036507997946217, 55.916027531616294 ], [ 21.033776454729182, 55.950098731161169 ], [ 21.082097125814443, 55.998313015203905 ], [ 21.081982639124742, 56.000000000175547 ], [ 21.077666639324736, 56.064373397629467 ], [ 21.063875187449963, 56.102412489777954 ], [ 21.049141293247683, 56.143009331390687 ], [ 21.016032685098867, 56.190805363469799 ], [ 21.000000000370598, 56.210857707924077 ], [ 20.985281183492045, 56.229257508568217 ], [ 20.994775081572865, 56.260777283483129 ], [ 20.98927516780541, 56.332454480270492 ], [ 20.984189930746147, 56.369558291784607 ], [ 21.000000000370598, 56.402277402367673 ], [ 21.012802576899148, 56.428751798059984 ], [ 21.014264855416954, 56.472201852722456 ], [ 21.010816673995492, 56.499999999986564 ], [ 21.009878019863535, 56.507664381370859 ], [ 21.041655299608458, 56.505721363378171 ], [ 21.04209718808324, 56.499999999986564 ], [ 21.043532253936142, 56.481658002131212 ], [ 21.036002610258951, 56.467183815148374 ], [ 21.034802231968968, 56.427779501334371 ], [ 21.04772266476785, 56.41753414167961 ], [ 21.062738302084266, 56.415924731978016 ], [ 21.072515926759362, 56.427906827035613 ], [ 21.064623693389098, 56.499999999986564 ], [ 21.063152978792459, 56.513598159706909 ], [ 21.044470731099985, 56.518442802041335 ], [ 21.011340298381342, 56.519203378136929 ], [ 21.016621961958943, 56.57399467043625 ], [ 21.030197145327381, 56.590138573932023 ], [ 21.033275787688734, 56.611502361465348 ], [ 21.037355763232668, 56.635635974768689 ], [ 21.043510429366314, 56.670789271563194 ], [ 21.043995600468115, 56.674082783692867 ], [ 21.047060928898638, 56.715942816466061 ], [ 21.045671109389964, 56.747440867317323 ], [ 21.038141465712773, 56.805604734872105 ], [ 21.025002782724037, 56.860234540663214 ], [ 21.043466779328345, 56.868895084486624 ], [ 21.053476185516423, 56.876439130723178 ], [ 21.058576919412651, 56.880580728199455 ], [ 21.071269279842358, 56.889518430818811 ], [ 21.084519488673617, 56.898505763926089 ], [ 21.10005914563461, 56.901675603638481 ], [ 21.175268284127238, 56.918477602027075 ], [ 21.194772026773993, 56.922884582135744 ], [ 21.216482281490201, 56.928805730048644 ], [ 21.235267106008333, 56.934475285809029 ], [ 21.248251267090097, 56.944192759116561 ], [ 21.30542032306268, 56.999999999884416 ], [ 21.307178915368528, 57.001738671078428 ], [ 21.322591303511647, 57.047180430636381 ], [ 21.330771799070067, 57.071277086111827 ], [ 21.334634834167836, 57.118936773432765 ], [ 21.358555094501625, 57.193916003160851 ], [ 21.36086855010733, 57.264232541931378 ], [ 21.363640331560887, 57.31514910118343 ], [ 21.416675214831809, 57.364708155443196 ], [ 21.4744897848962, 57.399910861731207 ], [ 21.500000000400814, 57.420773315339602 ], [ 21.54070700119383, 57.454039119013828 ], [ 21.597736494903867, 57.50000000018067 ], [ 21.639399898742223, 57.534004672135069 ], [ 21.645270838281586, 57.563486086158463 ], [ 21.662730882215936, 57.586553985419478 ], [ 21.725456089187706, 57.604493323693994 ], [ 21.781284579380326, 57.614626990948501 ], [ 21.831875056033322, 57.623789212611989 ], [ 21.848335448431293, 57.622244731896444 ], [ 21.929760426531782, 57.614603644384729 ], [ 22.000000000431022, 57.623112845629279 ], [ 22.047397471102158, 57.628853700522306 ], [ 22.114269438867662, 57.644206200975155 ], [ 22.113047236007851, 57.6382223007842 ], [ 22.085678617284493, 57.629775501092247 ], [ 22.073151035725662, 57.622703873358006 ], [ 22.094539589365578, 57.62494453860733 ], [ 22.118350724155285, 57.635574137773382 ], [ 22.132624309927888, 57.645500832783434 ], [ 22.150695455292137, 57.652556344838061 ], [ 22.228960101832602, 57.670486306079539 ], [ 22.302248635061261, 57.691727269284151 ], [ 22.372438011102421, 57.712070984618464 ], [ 22.471785660118691, 57.740814423851475 ], [ 22.49999999956292, 57.745941929454247 ], [ 22.592303612585027, 57.762711538377737 ], [ 22.592565513711165, 57.745757846125223 ], [ 22.574668968498791, 57.70512024393296 ], [ 22.579252229672235, 57.654445355385 ], [ 22.604940319687937, 57.621653513401967 ], [ 22.640231433328545, 57.604259795886065 ], [ 22.680127632712423, 57.57142244495607 ], [ 22.757124432095175, 57.552854544723814 ], [ 22.771989288089468, 57.549268766771853 ], [ 22.839428707246906, 57.51752862575502 ], [ 22.865594206022038, 57.50000000018067 ], [ 22.893009216441619, 57.481876264933376 ], [ 22.922988468738037, 57.451806385597209 ], [ 22.935873623797391, 57.438874645814508 ], [ 22.988624781372348, 57.423958495037454 ], [ 22.999999999593133, 57.417925499248796 ], [ 23.031729264386119, 57.401092194300922 ], [ 23.110583186888341, 57.389404587158438 ], [ 23.117152528831866, 57.366690512596215 ], [ 23.071036187808232, 57.362006876024537 ], [ 23.071516339124223, 57.325212514118249 ], [ 23.096636977747995, 57.268812466113935 ], [ 23.142556892253289, 57.245116231414762 ], [ 23.15593565090002, 57.230853911915759 ], [ 23.173875846150359, 57.232878428311707 ], [ 23.142600542291259, 57.286417762240006 ], [ 23.151461514372347, 57.293991829716589 ], [ 23.127344829316847, 57.34013423523551 ], [ 23.144630273099313, 57.337175901639299 ], [ 23.161239139047446, 57.309088826914987 ], [ 23.198538158027965, 57.251815050094962 ], [ 23.208381257310865, 57.237694932609934 ], [ 23.213270069648416, 57.21312881329122 ], [ 23.213139119534503, 57.19116716865387 ], [ 23.219359260275951, 57.153932856655921 ], [ 23.252424218386793, 57.108851739524631 ], [ 23.307095980327404, 57.084176146457459 ], [ 23.361112990800144, 57.060360777458293 ], [ 23.436867755216557, 57.03840152531123 ], [ 23.443749629132267, 57.038069453748157 ], [ 23.445194886372065, 57.036711035718817 ], [ 23.48202379360821, 57.002078200131308 ], [ 23.484658948493568, 56.999999999884416 ], [ 23.499999999623348, 56.988061250185325 ], [ 23.502654586864931, 56.985995001145866 ], [ 23.602439515998579, 56.908275876599099 ], [ 23.637394768419071, 56.910925341639178 ], [ 23.640087883504883, 56.911129460433152 ], [ 23.645470239242684, 56.911775947322603 ], [ 23.660078793310003, 56.913530556488716 ], [ 23.669500593504431, 56.908360409064812 ], [ 23.673872998521123, 56.906030572339596 ], [ 23.716468753013078, 56.887308370612608 ], [ 23.824677153124878, 56.839914359899133 ], [ 23.841071570553439, 56.833355532323544 ], [ 23.901638775379421, 56.809114725718018 ], [ 23.999999999653557, 56.838309951531421 ], [ 24.010141948668544, 56.841318949001042 ], [ 24.017254536898673, 56.843429025979638 ], [ 24.073199050798451, 56.8628085672701 ], [ 24.123047475907622, 56.856790632187135 ], [ 24.204738656267832, 56.817447210185982 ], [ 24.253561303238911, 56.814022566830651 ], [ 24.279010832156189, 56.862734740155318 ], [ 24.301227222856291, 56.862982481113882 ], [ 24.335667159408995, 56.863573783782854 ], [ 24.326989905379929, 56.869009202348664 ], [ 24.33759334321088, 56.866000193892681 ], [ 24.347188162522297, 56.863004755572376 ], [ 24.371608092766571, 56.855379930816859 ], [ 24.393800557737396, 56.848466151784926 ], [ 24.439881795294674, 56.853763904435773 ], [ 24.454126022327159, 56.848005260628597 ], [ 24.470873373457806, 56.837756430026722 ], [ 24.470153594743145, 56.83538614073376 ], [ 24.457036288963231, 56.810435060842238 ], [ 24.483684680712603, 56.784453091382467 ], [ 24.491444651530333, 56.78391413733253 ], [ 24.499999999683769, 56.78331993323296 ], [ 24.551604250287717, 56.779735605458811 ], [ 24.585379782076505, 56.80673992205319 ], [ 24.587768563215413, 56.808649067943485 ], [ 24.589752452096207, 56.81023454493176 ], [ 24.616948464927621, 56.788031476224724 ], [ 24.732814836648206, 56.758560503738856 ], [ 24.767641029010147, 56.744989516649866 ], [ 24.861072425667491, 56.703049517487955 ], [ 24.836571470977852, 56.692756683458249 ], [ 24.817649845618355, 56.684805787862679 ], [ 24.814574334784087, 56.683513294546103 ], [ 24.810383924850697, 56.647823845882392 ], [ 24.860035924339847, 56.629639724253067 ], [ 24.862656015376214, 56.629873403108242 ], [ 24.900019424697977, 56.632684632596821 ], [ 24.901241627557788, 56.633314582935427 ], [ 24.935070461782278, 56.6444419619881 ], [ 24.959074047146874, 56.63049854647889 ], [ 24.999999999713978, 56.605447142357313 ], [ 25.002117035089555, 56.604150821507204 ], [ 25.030765907603019, 56.595757692109586 ], [ 25.033283280778214, 56.59502009924644 ], [ 25.082826263419431, 56.61073477522114 ], [ 25.127705583872647, 56.605271187191796 ], [ 25.153950819807346, 56.594608609855129 ], [ 25.162441233240472, 56.591158586687527 ], [ 25.164146594975843, 56.590465585722747 ], [ 25.200332614794071, 56.571938220445354 ], [ 25.267575754756869, 56.56669142746388 ], [ 25.306693720253914, 56.57211768315981 ], [ 25.321658358415025, 56.574193298565376 ], [ 25.326634748407937, 56.576625325257474 ], [ 25.329624521336545, 56.577301113000786 ], [ 25.389163400402282, 56.605796917850647 ], [ 25.433334472017506, 56.605796917850647 ], [ 25.451081215969726, 56.589694767778028 ], [ 25.49999999974419, 56.565629873608849 ], [ 25.520594166890156, 56.555494268206786 ], [ 25.592857080084201, 56.563559363266151 ], [ 25.660711324171857, 56.585957242769659 ], [ 25.739324099325948, 56.611353491009076 ], [ 25.750456144497637, 56.614948367984255 ], [ 25.796463460588502, 56.611073280939607 ], [ 25.793691672846741, 56.612485633139109 ], [ 25.797924606330735, 56.612186218187716 ], [ 25.80182186813914, 56.609407074724622 ], [ 25.949917815061998, 56.620869718239732 ], [ 25.969384709714113, 56.633269428974039 ], [ 25.972504735663975, 56.632148000070131 ], [ 25.99999999977441, 56.611665449201844 ], [ 26.010240337669202, 56.604034074480339 ], [ 26.109893755241881, 56.618636333095118 ], [ 26.157450653519749, 56.616150497663043 ], [ 26.169541759851704, 56.594039173566891 ], [ 26.172968300857971, 56.567801611498659 ], [ 26.22421364126825, 56.572931406329019 ], [ 26.264371829813161, 56.559562097367177 ], [ 26.31398028796049, 56.565148801688245 ], [ 26.34298584823561, 56.587720933613063 ], [ 26.355186081009958, 56.622884047256832 ], [ 26.353330946760526, 56.651660165736807 ], [ 26.397177577437844, 56.660672226487939 ], [ 26.453158965383402, 56.671197159983905 ], [ 26.4911128184768, 56.708948395359009 ], [ 26.499999999804619, 56.715757664140156 ], [ 26.519114424285334, 56.730398750224381 ], [ 26.570970867922146, 56.750766955550482 ], [ 26.642950055420233, 56.786160999526288 ], [ 26.676735314166915, 56.815636251148057 ], [ 26.722808104865575, 56.829819742505684 ], [ 26.777436336244147, 56.805500225702666 ], [ 26.860371725493682, 56.784461911166609 ], [ 26.860371725493682, 56.779758845933046 ], [ 26.909107178390023, 56.785324482601617 ], [ 26.943896391603293, 56.787183383502573 ], [ 26.968253206215707, 56.818724115324336 ], [ 26.987326162666278, 56.824455488276662 ], [ 26.999572228384743, 56.831699637279939 ], [ 26.999572228384743, 56.842826207416238 ], [ 26.992610019929803, 56.855804943250725 ], [ 26.950858599159915, 56.879883077166546 ], [ 26.946280783573723, 56.879612046991078 ], [ 26.952168105688926, 56.896648583066359 ], [ 26.963604459654686, 56.928802836524483 ], [ 26.932940190750156, 56.954348929266672 ], [ 26.943852741565323, 56.980131727288061 ], [ 26.930975930956638, 56.985910165587391 ], [ 26.908299649543462, 56.994911177856871 ], [ 26.907793257539701, 56.999999999884416 ], [ 26.9053532607515, 57.024842956604338 ], [ 26.929906500983943, 57.035933510316404 ], [ 26.972814652700784, 57.051966820064195 ], [ 26.999999999834831, 57.091899643236282 ], [ 27.008542344874531, 57.104438670420734 ], [ 27.051581446705292, 57.121189188150439 ], [ 27.099160170451302, 57.152965078866771 ], [ 27.142417523370231, 57.171581603715083 ], [ 27.184954647518545, 57.195406811002179 ], [ 27.232948047972748, 57.226676540102474 ], [ 27.297615825813814, 57.256977888533463 ], [ 27.31372275180874, 57.275692901218989 ], [ 27.315250508527601, 57.29302773315036 ], [ 27.307393472048481, 57.307765184975068 ], [ 27.281312474198863, 57.324783105531623 ], [ 27.33026617908169, 57.386183756650219 ], [ 27.389695932603335, 57.436965626640962 ], [ 27.406021109686431, 57.48022373951548 ], [ 27.406905862206393, 57.50000000018067 ], [ 27.408247269707772, 57.530377775149404 ], [ 27.42289188125228, 57.561592400129264 ], [ 27.461369568937311, 57.537256871706518 ], [ 27.49999999986504, 57.510706148263289 ], [ 27.515190271469326, 57.500260547423331 ], [ 27.515609244819519, 57.50000000018067 ], [ 27.576256907253924, 57.46278098034032 ], [ 27.675997625800861, 57.42218759214866 ], [ 27.760635372819458, 57.377249678233142 ], [ 27.833683990290236, 57.341166695693715 ], [ 27.883925375335611, 57.253233740352975 ], [ 27.898766444839495, 57.208576867191844 ], [ 27.866094267001792, 57.1767324171174 ], [ 27.813997747706985, 57.153711319676098 ], [ 27.772442752557119, 57.149548501698085 ], [ 27.741385632412545, 57.138282048360324 ], [ 27.738592019202638, 57.107264029107924 ], [ 27.748195064387104, 57.089888150423931 ], [ 27.725693383125815, 57.057917607605212 ], [ 27.670639045773687, 56.999999999884416 ], [ 27.652906666781167, 56.981576421152432 ], [ 27.670803250621102, 56.958813063505623 ], [ 27.740447152553756, 56.940131827524063 ], [ 27.833247488113898, 56.925967155109561 ], [ 27.881350013213876, 56.897969110324432 ], [ 27.919107440687249, 56.795117525604034 ], [ 27.919439462507839, 56.776338118431077 ], [ 27.91945664188933, 56.775366171098796 ], [ 27.941041668759979, 56.753639248262523 ], [ 27.970854757881661, 56.738461278540626 ], [ 27.972011488828617, 56.737414294859214 ], [ 27.978690268929945, 56.731939225809192 ], [ 27.99303276985788, 56.720178955577708 ], [ 27.995939134212357, 56.720708333707051 ], [ 27.999999999895255, 56.721825552895993 ], [ 28.002771272902361, 56.722587961945365 ], [ 28.054728626989981, 56.736879158721699 ], [ 28.111255641757648, 56.738065754484886 ], [ 28.165992998680306, 56.725302057546898 ], [ 28.205387308416626, 56.69985476663318 ], [ 28.211476511620571, 56.689419409256985 ], [ 28.221516058981379, 56.683571544479477 ], [ 28.242468157157354, 56.678876284231308 ], [ 28.3054554026975, 56.675893381330276 ], [ 28.333958986188485, 56.674087212290637 ], [ 28.358272149864611, 56.663866150496595 ], [ 28.407094904633521, 56.602773181720728 ], [ 28.494984591608187, 56.578726415612046 ], [ 28.499999999925468, 56.579671943881095 ], [ 28.515805738771935, 56.582651560242226 ], [ 28.534313425838398, 56.599282157137381 ], [ 28.568513361293277, 56.62185717134129 ], [ 28.561136477028462, 56.575723870639912 ], [ 28.594136031498415, 56.555073433181889 ], [ 28.645403197376833, 56.552817210391247 ], [ 28.683444350546178, 56.538657205199797 ], [ 28.74045151752815, 56.551414309063368 ], [ 28.859354675507738, 56.581191360741116 ], [ 28.945694780295394, 56.611913694853079 ], [ 28.99999999995568, 56.647861207716268 ], [ 29.00412057935046, 56.650587435012525 ], [ 29.059163487437228, 56.668668181986462 ], [ 29.135594995876311, 56.670206566693544 ], [ 29.192733113870499, 56.66581267899253 ], [ 29.160235536184683, 56.624704349062611 ], [ 29.119029743135211, 56.576401508619597 ], [ 29.114206395523997, 56.557633439767493 ], [ 29.164447781467686, 56.534458460770807 ], [ 29.236360950877216, 56.499999999986564 ], [ 29.244938758709395, 56.495941780552613 ], [ 29.280983726858334, 56.471298103850401 ], [ 29.306296468408991, 56.476910915386554 ], [ 29.350212866742847, 56.4734215775946 ], [ 29.397422994659795, 56.44316715922217 ], [ 29.46219968155096, 56.420460462858223 ], [ 29.499999999985889, 56.414207878578722 ], [ 29.510106861704195, 56.412535918614545 ], [ 29.556468338595831, 56.427823522076046 ], [ 29.590655145172828, 56.439092600889822 ], [ 29.597467815573996, 56.458753223758336 ], [ 29.671619510314752, 56.452808193289634 ], [ 29.806782368973007, 56.455214148364746 ], [ 29.945262643093443, 56.432675457065926 ], [ 30.000000000016104, 56.408573208432195 ], [ 30.009101047755188, 56.404564289853809 ], [ 30.092319981240998, 56.407054382673259 ], [ 30.161767305738348, 56.381276905140453 ], [ 30.128069420729453, 56.336318492826088 ], [ 30.046771092507615, 56.3093434324418 ], [ 30.000000000016104, 56.305695151460434 ], [ 29.912197613117385, 56.29884538082046 ], [ 29.895916086970576, 56.253789352826963 ], [ 29.944542415221143, 56.212323778585876 ], [ 30.000000000016104, 56.212554219470015 ], [ 30.014579136952815, 56.212614799817842 ], [ 30.086339916157549, 56.23099119167923 ], [ 30.150723828165471, 56.256487008831613 ], [ 30.21495496369301, 56.238553317011352 ], [ 30.263930387144462, 56.189710488310283 ], [ 30.348829849337932, 56.144513700924598 ], [ 30.50000000004632, 56.12072041665769 ], [ 30.512845136058079, 56.118697987157049 ], [ 30.715861795036236, 56.056753398434758 ], [ 30.842556237307726, 56.036293468519396 ], [ 30.907944101985599, 56.028129839283785 ], [ 30.901351664356117, 56.000000000175547 ], [ 30.901069209776278, 55.998809874824403 ], [ 30.926320797615642, 55.975600853101561 ], [ 30.962310312762096, 55.980040313318078 ], [ 31.000000000076529, 55.99897324423317 ], [ 31.000525983438315, 55.999237399827138 ], [ 31.002578960849291, 56.000000000175547 ], [ 31.037759526912719, 56.01323669245091 ], [ 31.090512949140507, 56.000000000175547 ], [ 31.100681160402829, 55.997481050059932 ], [ 31.107959978283024, 56.000000000175547 ], [ 31.145422522086289, 56.013131378549424 ], [ 31.167858678434126, 56.014968477796394 ], [ 31.219321908809828, 56.000000000175547 ], [ 31.302170065357071, 55.976202059661517 ], [ 31.373712594371955, 55.963644136109046 ], [ 31.387855230030645, 55.995193053937314 ], [ 31.405138122597702, 56.000000000175547 ], [ 31.500000000106738, 56.026718334731541 ], [ 31.530023636364714, 56.035170780155831 ], [ 31.682537118765818, 56.025287366809771 ], [ 31.770208364209473, 56.035357896825268 ], [ 31.83164589281532, 56.037661700747648 ], [ 31.787765834927967, 56.000000000175547 ], [ 31.766105253453709, 55.981635619638432 ], [ 31.722542444592101, 55.923595667702493 ], [ 31.790047338357333, 55.844313609342215 ], [ 31.882214544898485, 55.807311510448649 ], [ 31.906025679688188, 55.765066460876085 ], [ 31.770775815601411, 55.714977462209497 ], [ 31.678652259098229, 55.651931453904361 ], [ 31.500000000106738, 55.534341656422207 ], [ 31.477839931080005, 55.519731111066967 ], [ 31.450489756566057, 55.500000000025729 ], [ 31.313017117309919, 55.401933461061212 ], [ 31.220631660578917, 55.386070817468081 ], [ 31.037323026533009, 55.390822169843844 ], [ 31.030142583159584, 55.314011847546595 ], [ 31.18887620630214, 55.20989062885149 ], [ 31.259305658001296, 55.149799997507117 ], [ 31.274753722735923, 54.999999999764796 ], [ 31.274779621165568, 54.999717637644252 ], [ 31.371966590158184, 54.937628345665239 ], [ 31.422884442545111, 54.89577811282939 ], [ 31.44433847169114, 54.846739373637654 ], [ 31.420985662749285, 54.789574970403073 ], [ 31.35806403015749, 54.759555230941373 ], [ 31.248174879454158, 54.750186817723915 ], [ 31.154479919787406, 54.688848603542638 ], [ 31.095770522597139, 54.678510593827021 ], [ 31.093956859971108, 54.673539728659115 ], [ 31.077153751309098, 54.627456892346835 ], [ 31.09664352515318, 54.596215366031672 ], [ 31.061286936006461, 54.528544596240828 ], [ 31.058783961028634, 54.499999999751346 ], [ 31.057794927578914, 54.488853141211067 ], [ 31.081365986710626, 54.474950594533915 ], [ 31.145357046580173, 54.473018579317845 ], [ 31.232940991947888, 54.464684893420142 ], [ 31.268406705740379, 54.443303953649938 ], [ 31.290450010848172, 54.393871877214671 ], [ 31.299441933043166, 54.293428688667206 ], [ 31.361403263901291, 54.275656065658858 ], [ 31.49084766305651, 54.270808850522691 ], [ 31.500000000106738, 54.265235363560393 ], [ 31.522712242877375, 54.251401047253104 ], [ 31.561953691691691, 54.256131636821785 ], [ 31.585524750823403, 54.302985219781185 ], [ 31.634020022060533, 54.320614074679987 ], [ 31.651589191538971, 54.361542851142943 ], [ 31.708596234553436, 54.385785432438666 ], [ 31.732691095039105, 54.428412198264695 ], [ 31.778851085202398, 54.438081934367986 ], [ 32.00000000013695, 54.382004208441614 ], [ 32.008821687094034, 54.379765655430155 ], [ 32.067967585562315, 54.350207147675633 ], [ 32.142914822928802, 54.243273203637564 ], [ 32.194705677871774, 54.216420063678356 ], [ 32.227792461450768, 54.172009790998437 ], [ 32.323582626533373, 54.125178939002211 ], [ 32.345713231717113, 54.097638504778892 ], [ 32.386956473734145, 53.99999999987628 ], [ 32.389057790388875, 53.995078958440239 ], [ 32.425200081117374, 53.970530710619826 ], [ 32.388359388883032, 53.940114369646011 ], [ 32.380458719433925, 53.909478262722537 ], [ 32.417081160580118, 53.881296276169721 ], [ 32.42751353672309, 53.839541335903142 ], [ 32.492093874351028, 53.7376278576114 ], [ 32.495716832892484, 53.709316289412627 ], [ 32.449098515983025, 53.667971630348831 ], [ 32.421096971259935, 53.621734885529044 ], [ 32.448334638971069, 53.592482746901617 ], [ 32.459443592050064, 53.505414975909233 ], [ 32.46337885618825, 53.499999999893774 ], [ 32.477885763186222, 53.480267574291787 ], [ 32.500000000167162, 53.473371824319955 ], [ 32.509248367121266, 53.470487627784522 ], [ 32.544146629521826, 53.429818743437117 ], [ 32.600346145486355, 53.424923213177685 ], [ 32.637841589188582, 53.423725564722972 ], [ 32.679396493608607, 53.436411021583481 ], [ 32.729419518869662, 53.476574070362553 ], [ 32.762004325664513, 53.48068816623379 ], [ 32.778089391156996, 53.466674938279141 ], [ 32.757159163364932, 53.418302818778656 ], [ 32.704757206992056, 53.378110738394547 ], [ 32.65864086686674, 53.34165206450924 ], [ 32.563680053403878, 53.303076705136363 ], [ 32.500000000167162, 53.257847185576622 ], [ 32.486724910697482, 53.248412335091658 ], [ 32.454838505408475, 53.194299628486284 ], [ 32.346258858539215, 53.143258153173505 ], [ 32.300928219995683, 53.132963028077391 ], [ 32.256208682882061, 53.106279568787436 ], [ 32.118492586709195, 53.066561605558398 ], [ 32.026216255522272, 53.05857111474473 ], [ 32.00000000013695, 53.05366458740798 ], [ 31.95613600502519, 53.045453925054581 ], [ 31.808816885227429, 53.076076576465205 ], [ 31.723808297489875, 53.078518013164548 ], [ 31.691005240505174, 53.101041665892076 ], [ 31.653597095980569, 53.171666191229129 ], [ 31.616101652278338, 53.192036825091577 ], [ 31.571469415240653, 53.187629967941149 ], [ 31.512738193480562, 53.169521348380179 ], [ 31.500000000106738, 53.171613992583332 ], [ 31.457935480527723, 53.178523669350902 ], [ 31.439165933657627, 53.133718352914109 ], [ 31.42816610612271, 53.057124172113397 ], [ 31.350185185278217, 53.06832674616355 ], [ 31.240186909929115, 53.059818897509238 ], [ 31.252583540475715, 53.000309716473986 ], [ 31.252902179195207, 52.999999999855014 ], [ 31.284728932756082, 52.96941131102912 ], [ 31.323340367908816, 52.932272640045362 ], [ 31.500000000106738, 52.903215927170365 ], [ 31.512301692202538, 52.901191833158116 ], [ 31.545170224693358, 52.872407960960274 ], [ 31.562084641805605, 52.672673091450221 ], [ 31.618065907580281, 52.621435672760988 ], [ 31.683912097207685, 52.569195737861236 ], [ 31.727213005841474, 52.534785876033659 ], [ 31.70517873868376, 52.500000000004945 ], [ 31.68362837151172, 52.46633839854632 ], [ 31.689128285279171, 52.438674656616541 ], [ 31.766476279225621, 52.416668005937069 ], [ 31.766934605971787, 52.392529604437918 ], [ 31.71357234696692, 52.371066495959177 ], [ 31.676076902366379, 52.311906390530162 ], [ 31.714379874016853, 52.294958714665732 ], [ 31.79185881807722, 52.254913090595579 ], [ 31.851593992507265, 52.206127760039863 ], [ 31.904323325512387, 52.209275973348248 ], [ 31.986931157568296, 52.224497992715719 ], [ 31.985185152456214, 52.190820015418701 ], [ 31.989921190110024, 52.146110145154346 ], [ 31.95967166349071, 52.118960348332706 ], [ 31.940291015190702, 52.070011647191642 ], [ 31.889285862727828, 52.036162939504365 ], [ 31.791618742419221, 52.053794031491947 ], [ 31.723939247603784, 52.058426344052357 ], [ 31.543249619429385, 52.052347164707477 ], [ 31.500000000106738, 52.048529537002914 ], [ 31.430457737158587, 52.042390380903257 ], [ 31.370242410514233, 52.069348194370463 ], [ 31.292305140606025, 52.038247702286888 ], [ 31.216419425177381, 52.017435527838138 ], [ 31.119518462703233, 51.999999999749583 ], [ 31.000000000076529, 51.9787257196596 ], [ 30.933588541065014, 51.966900092715541 ], [ 30.860125406786157, 51.937023615852574 ], [ 30.869204629955412, 51.901701226977401 ], [ 30.808530977463217, 51.858942633705894 ], [ 30.770293481318848, 51.806020940632926 ], [ 30.706804397335127, 51.775125483917861 ], [ 30.705145693197291, 51.774319805015615 ], [ 30.697201372811911, 51.75948480545658 ] ], [ [ 23.983650851925422, 54.151349836616802 ], [ 23.977095041305024, 54.165495077850942 ], [ 23.970897162612953, 54.171753326713578 ], [ 23.961496893239246, 54.178335491678162 ], [ 23.948687114018753, 54.179635463087969 ], [ 23.928111762086417, 54.180527547408843 ], [ 23.902797099039375, 54.183169800266825 ], [ 23.878759638205413, 54.186703834504264 ], [ 23.82048674229317, 54.176100821900988 ], [ 23.773868425383718, 54.144275394545552 ], [ 23.791350293887891, 54.115965480830852 ], [ 23.82048674229317, 54.080550753762296 ], [ 23.890414218106514, 54.077007610405047 ], [ 23.925377955114865, 54.094720289965018 ], [ 23.977823561525714, 54.119505283169111 ], [ 23.983650851925422, 54.151349836616802 ] ] ], [ [ [ 20.218926046650594, 49.029684656616304 ], [ 20.208272828678172, 49.067786554864618 ], [ 20.212117286615857, 49.084105620476222 ], [ 20.221087686074966, 49.102994645231725 ], [ 20.290287913682057, 49.101277760027259 ], [ 20.330013969456175, 49.090116549150636 ], [ 20.327730317256655, 49.071751360825189 ], [ 20.3487971123281, 49.055862760313616 ], [ 20.354820827449519, 49.033643520444663 ], [ 20.372891972813775, 49.021519726874885 ], [ 20.345785254318233, 49.007371545187191 ], [ 20.312654821599594, 49.009392961525975 ], [ 20.288559961113922, 49.005350046309097 ], [ 20.292988022152354, 49.000000000276607 ], [ 20.303619248468305, 48.987281927366041 ], [ 20.306631106478171, 48.973266219209656 ], [ 20.246393955263997, 48.967258273600926 ], [ 20.234346525021156, 48.987281927366041 ], [ 20.226145292752719, 49.000000000276607 ], [ 20.216275379656906, 49.015456715315679 ], [ 20.218926046650594, 49.029684656616304 ] ] ], [ [ [ 20.605590706120996, 48.980767873079685 ], [ 20.640685394141581, 48.977880523639556 ], [ 20.640576268597499, 48.937410924411189 ], [ 20.63317757503421, 48.907153294307911 ], [ 20.611156095394566, 48.889786417326341 ], [ 20.566632983002648, 48.891181804794449 ], [ 20.552097497002226, 48.907211416437853 ], [ 20.500000000340389, 48.902573584698253 ], [ 20.485989406248677, 48.901326257205632 ], [ 20.460585042827258, 48.918863426345588 ], [ 20.46898768816218, 48.949099404663968 ], [ 20.500000000340389, 48.951937305451601 ], [ 20.512615972529911, 48.95309173246882 ], [ 20.541054019429343, 48.964558814344265 ], [ 20.560871169007374, 48.985657121269753 ], [ 20.605590706120996, 48.980767873079685 ] ] ], [ [ [ 20.182904871280268, 49.275277222599499 ], [ 20.181879093142165, 49.291693532794653 ], [ 20.202220044972474, 49.30495948831917 ], [ 20.271099917179573, 49.300125330155275 ], [ 20.294976527475388, 49.2812063735687 ], [ 20.475120528827684, 49.230209745579614 ], [ 20.43900006356732, 49.206478773655952 ], [ 20.286573881242148, 49.249381598360323 ], [ 20.272540371127548, 49.267453142566836 ], [ 20.182904871280268, 49.275277222599499 ] ] ], [ [ [ 20.89760993804839, 48.991633825192203 ], [ 20.920919096952275, 48.99105359443476 ], [ 20.964852931585803, 48.980956487930591 ], [ 20.948200414701382, 48.950986726567109 ], [ 20.907234787141434, 48.918267816355915 ], [ 20.863410077153681, 48.912107917883048 ], [ 20.843483802929882, 48.917526925552217 ], [ 20.850707895442966, 48.967200222342761 ], [ 20.88043361981001, 48.97602324534666 ], [ 20.89760993804839, 48.991633825192203 ] ] ], [ [ [ 20.82150597242989, 49.05638957759875 ], [ 20.844640530283581, 49.040187377266626 ], [ 20.863017226811944, 49.020699652917486 ], [ 20.86585448377161, 49.011795117143485 ], [ 20.862340649875922, 49.0002812872481 ], [ 20.86178286525476, 49.000000000276607 ], [ 20.806010183797483, 48.972148854648275 ], [ 20.755288756132266, 48.999234223323285 ], [ 20.755192307613466, 49.000000000276607 ], [ 20.751513022008748, 49.029500094654644 ], [ 20.82150597242989, 49.05638957759875 ] ] ] ] } }
]
}
