{
"type": "FeatureCollection",
"name": "Portugal",
"crs": { "type": "name", "properties": { "name": "urn:ogc:def:crs:OGC:1.3:CRS84" } },
"features": [
{ "type": "Feature", "properties": { "OBJECTID": 4.0, "YEAR": 1700.0, "OWNER_ID": 3852.0, "SHORT_NAME": "Portugal", "LONG_NAME": "Kingdom of Portugal", "VARIANTS": null, "SHAPE_LENG": 3329711.0, "Shape__Are": 157293017522.56177, "Shape__Len": 3337321.1026423983 }, "geometry": { "type": "MultiPolygon", "coordinates": [ [ [ [ -6.897135628529061, 40.352115971697927 ], [ -6.907436121208526, 40.316309268356676 ], [ -6.97161105004707, 40.301298247429088 ], [ -6.976376949497572, 40.283432040988387 ], [ -7.000000000422981, 40.275459837413607 ], [ -7.00464290883298, 40.273892857155033 ], [ -7.011934516027864, 40.25626113286323 ], [ -7.017688736564028, 40.211709935845064 ], [ -7.007278429332645, 40.173504297938017 ], [ -7.000000000422981, 40.16848433877999 ], [ -6.980110603838219, 40.154764640234283 ], [ -6.901879565069157, 40.134840977111992 ], [ -6.84908130163733, 40.088270279112898 ], [ -6.831423313031801, 40.002669685280409 ], [ -6.833309331360719, 40.00000000026855 ], [ -6.867200505970987, 39.948614024361532 ], [ -6.892962720472343, 39.907425166409773 ], [ -6.89678422555621, 39.848781219427806 ], [ -6.924347378945917, 39.828689389208634 ], [ -6.981296588422386, 39.812952151735452 ], [ -6.990191471007161, 39.794500566764249 ], [ -6.978419478603452, 39.774392735951572 ], [ -6.985249869171938, 39.749045307449002 ], [ -6.998822800463933, 39.701419583274209 ], [ -7.000000000422981, 39.701010188335104 ], [ -7.07257345402421, 39.675766585569306 ], [ -7.134508190258338, 39.670631352088535 ], [ -7.224796735672797, 39.679526377099315 ], [ -7.35413491263892, 39.671623613499406 ], [ -7.418880869960847, 39.670561718475206 ], [ -7.479409995201942, 39.675992875111447 ], [ -7.499999999554868, 39.674515518312575 ], [ -7.510948392251537, 39.67372994606491 ], [ -7.512068488104595, 39.668002659625863 ], [ -7.515318963806751, 39.651549281620696 ], [ -7.510179698473033, 39.637721910465523 ], [ -7.499999999554868, 39.612506411793397 ], [ -7.497682938111621, 39.606765667791883 ], [ -7.467023047595789, 39.55865739431178 ], [ -7.454723950732836, 39.550339618795981 ], [ -7.449013656017409, 39.53633488643451 ], [ -7.411237859793113, 39.526322286153935 ], [ -7.408361512643847, 39.50000000024815 ], [ -7.40836074997418, 39.499993070041185 ], [ -7.374735898896194, 39.471764221389705 ], [ -7.34528395497662, 39.463426791431779 ], [ -7.31930211406636, 39.451222167327948 ], [ -7.313921259413419, 39.420475681796283 ], [ -7.323233432803846, 39.398200652564462 ], [ -7.30287403496748, 39.363351181388566 ], [ -7.26779964797402, 39.324089825539751 ], [ -7.207116784156895, 39.282790207702647 ], [ -7.162269007146549, 39.256176565148849 ], [ -7.166266213716836, 39.227013288326397 ], [ -7.167232571892171, 39.194044252607469 ], [ -7.15036523907722, 39.168824157763773 ], [ -7.117399268124156, 39.156654681114098 ], [ -7.092559485977334, 39.143594942764715 ], [ -7.092186120094111, 39.10898353404923 ], [ -7.085531431012082, 39.084569311540356 ], [ -7.047074791752458, 39.082233742946315 ], [ -7.017798549319314, 39.093422848161531 ], [ -7.000000000422981, 39.091670276567527 ], [ -6.98452510121417, 39.090146472675578 ], [ -6.964912435144269, 39.065725675273704 ], [ -6.945299768176079, 39.031023387493605 ], [ -6.959907761694643, 38.999999999654428 ], [ -6.96036616210267, 38.999033174789602 ], [ -6.984634914867753, 38.975915511466148 ], [ -7.000000000422981, 38.959900503850072 ], [ -7.009913949832312, 38.949565269425456 ], [ -7.048721992064786, 38.911704185947514 ], [ -7.041078981897052, 38.883837354436849 ], [ -7.062646326329633, 38.869309611448216 ], [ -7.064622966704404, 38.845715178626726 ], [ -7.08471881231114, 38.823224546265344 ], [ -7.120188527199878, 38.814747453482347 ], [ -7.126623590771381, 38.793619780434824 ], [ -7.052675272814303, 38.769774065676465 ], [ -7.024519127132478, 38.740999042485157 ], [ -7.00879385397929, 38.718666436015262 ], [ -7.003061596353489, 38.674241212085008 ], [ -7.000000000422981, 38.660428359447572 ], [ -6.997856443186969, 38.650755782246584 ], [ -7.000000000422981, 38.648229514233719 ], [ -7.064535115961194, 38.572130231235235 ], [ -7.156734413917542, 38.575965088339096 ], [ -7.184099903808788, 38.614075831115279 ], [ -7.202175183219971, 38.633149676873686 ], [ -7.233845356833585, 38.641892323964399 ], [ -7.277485186349338, 38.585655899166873 ], [ -7.284557166237056, 38.528485484918136 ], [ -7.279813229696924, 38.514547719293752 ], [ -7.274856030413433, 38.499999999878447 ], [ -7.270479093396125, 38.487242302951657 ], [ -7.273070688973388, 38.429889471910194 ], [ -7.267975349460443, 38.401560200430978 ], [ -7.249746331473201, 38.349834320036415 ], [ -7.214408391351778, 38.310372629840849 ], [ -7.176083528656137, 38.289052224646767 ], [ -7.169362950842964, 38.276712348575337 ], [ -7.153835341188237, 38.24821827745145 ], [ -7.109624482290771, 38.201706510510036 ], [ -7.041562160535561, 38.173931273427186 ], [ -7.006268146234874, 38.179971033079852 ], [ -7.000000000422981, 38.180400283855242 ], [ -6.955182970948179, 38.183469338106107 ], [ -6.956434843365192, 38.176698833833122 ], [ -6.963287196844051, 38.139423602737125 ], [ -6.976113397267941, 38.104324508281145 ], [ -6.996341018540325, 38.077819087365832 ], [ -6.988456419053323, 38.031825498609663 ], [ -6.999613457152845, 38.012882597363983 ], [ -7.000000000422981, 38.012864729184628 ], [ -7.026407916764048, 38.011643985465398 ], [ -7.061855670539054, 38.043579475660053 ], [ -7.086761340518722, 38.043736414734248 ], [ -7.104045963241001, 38.029924454419813 ], [ -7.106110454358984, 38.018429924866787 ], [ -7.106242230922966, 38.006724218981425 ], [ -7.127748751325973, 37.999999999985143 ], [ -7.144523168696134, 37.99479082479975 ], [ -7.17147526108015, 37.999999999985143 ], [ -7.202175183219971, 38.005974012924277 ], [ -7.230221515248187, 38.001507507262282 ], [ -7.233634434201494, 37.999999999985143 ], [ -7.268853855994231, 37.984548145233937 ], [ -7.285918852307644, 37.96919009083765 ], [ -7.276321164675545, 37.940770881981216 ], [ -7.298503463412301, 37.874717168792714 ], [ -7.326571758350881, 37.809924101379217 ], [ -7.35591388861687, 37.775637509629341 ], [ -7.393777535584377, 37.752376754563763 ], [ -7.413148612335047, 37.718411156833461 ], [ -7.419737414482561, 37.679991804965987 ], [ -7.437856618816219, 37.633785456972625 ], [ -7.469395015865813, 37.579237225878259 ], [ -7.499999999554868, 37.537913037123715 ], [ -7.500691824494511, 37.53697863892517 ], [ -7.50345912065987, 37.533246728383503 ], [ -7.499999999554868, 37.530817588088325 ], [ -7.461290789969987, 37.503628910290594 ], [ -7.460746595960734, 37.499999999942176 ], [ -7.451715065248253, 37.440153749433499 ], [ -7.429137437717874, 37.377221537304671 ], [ -7.430718750197357, 37.315660606521561 ], [ -7.43941596838531, 37.260759905772787 ], [ -7.427160797343129, 37.205140280034975 ], [ -7.404716130356277, 37.148855441610479 ], [ -7.412379919454839, 37.145370079855148 ], [ -7.479234293715521, 37.14742471061912 ], [ -7.499999999554868, 37.142345763522322 ], [ -7.550569053184964, 37.129975974792018 ], [ -7.779540492223752, 37.000000000102617 ], [ -7.803535111503482, 36.986456553146205 ], [ -7.807587380309128, 37.000000000102617 ], [ -7.814933738922272, 37.024710031213566 ], [ -7.868786211272615, 37.007668896314833 ], [ -7.890959306769277, 37.000000000102617 ], [ -7.932390109831114, 36.985763196448922 ], [ -7.97100048766676, 36.996596168018918 ], [ -7.999999999585081, 36.988145820613177 ], [ -8.009127686863904, 36.98548585155303 ], [ -8.036997980537478, 37.000000000102617 ], [ -8.146482238982687, 37.057368696764492 ], [ -8.260380657037329, 37.066485483598406 ], [ -8.466719962367549, 37.053132413995215 ], [ -8.499999999615302, 37.060025772357456 ], [ -8.512841574705272, 37.062685503441593 ], [ -8.519979443324132, 37.064149738939413 ], [ -8.525997215191614, 37.072742829506097 ], [ -8.522131785185298, 37.089246477412125 ], [ -8.508317263675711, 37.104805732654938 ], [ -8.501640611683319, 37.112314140892266 ], [ -8.512775686872432, 37.109370097999971 ], [ -8.522505150170225, 37.102837046434153 ], [ -8.534321067496336, 37.083635294878384 ], [ -8.548772506220489, 37.082293428368899 ], [ -8.583122125256207, 37.080149877988703 ], [ -8.607961908301334, 37.082415417746788 ], [ -8.620063340767484, 37.087469067290179 ], [ -8.622523159780728, 37.095048905522837 ], [ -8.620919884390874, 37.105241275210375 ], [ -8.625927374058936, 37.105972982111247 ], [ -8.636381606212764, 37.087329661347226 ], [ -8.649493320878362, 37.083373894199767 ], [ -8.664010647435317, 37.061099217112918 ], [ -8.677056475166392, 37.054317899945602 ], [ -8.824689557952574, 37.04818106535766 ], [ -8.935117873896163, 37.00362171424883 ], [ -8.985214728995494, 37.025023957014923 ], [ -8.932833755471014, 37.097348843218477 ], [ -8.924202425115908, 37.154023523206654 ], [ -8.893432721844789, 37.185773275353561 ], [ -8.875774733239295, 37.234711836955341 ], [ -8.879508387579943, 37.268530834286629 ], [ -8.822800767422706, 37.355555117100067 ], [ -8.828730689445299, 37.430926334395579 ], [ -8.834111544098286, 37.49902953112543 ], [ -8.83454636373007, 37.499999999942176 ], [ -8.866264896350364, 37.571237145633468 ], [ -8.870525654251958, 37.580770911332664 ], [ -8.854624679612341, 37.627654930897016 ], [ -8.852428412828701, 37.649266246376989 ], [ -8.850363921710745, 37.668991265720273 ], [ -8.843928858139252, 37.674282869920745 ], [ -8.829191905173436, 37.66456969952285 ], [ -8.810040454831661, 37.646340991997775 ], [ -8.802309594819024, 37.647002666591334 ], [ -8.822844693243479, 37.669322001996477 ], [ -8.829060129507779, 37.679086759262404 ], [ -8.843050351605463, 37.684673497627763 ], [ -8.84680596885652, 37.695776097334765 ], [ -8.843226053091893, 37.714375284886344 ], [ -8.832859671681282, 37.730430478884465 ], [ -8.826754049070557, 37.746499552646327 ], [ -8.835363416515291, 37.831551325914184 ], [ -8.858314409030559, 37.922923017000564 ], [ -8.874127532926966, 37.943250851416195 ], [ -8.919809891548628, 37.958388976586278 ], [ -8.918360354734832, 37.978030901497696 ], [ -8.894728519184268, 37.999712344078553 ], [ -8.894598308383825, 37.999999999985143 ], [ -8.891779135409124, 38.006270676697717 ], [ -8.836769027508351, 38.128521189386404 ], [ -8.831607799264233, 38.168169532848161 ], [ -8.824382079902197, 38.208666049701115 ], [ -8.837252206146861, 38.271462915080811 ], [ -8.869537334064587, 38.343583032019289 ], [ -8.903228073873716, 38.398124536090293 ], [ -8.952204832221677, 38.455988283192319 ], [ -8.939795922603446, 38.464518189045428 ], [ -8.868175648892299, 38.428432514124538 ], [ -8.802089967511822, 38.420418714783494 ], [ -8.762864635372019, 38.412057041609472 ], [ -8.751553858696484, 38.422361536147129 ], [ -8.778633834346023, 38.441786854064915 ], [ -8.795061912546579, 38.466598499700126 ], [ -8.780917951872837, 38.483464117574371 ], [ -8.779109498577162, 38.499999999878447 ], [ -8.778677759268462, 38.503974833237365 ], [ -8.784771392963378, 38.499999999878447 ], [ -8.836725101687588, 38.466338463912116 ], [ -8.865627979135843, 38.472960407680148 ], [ -8.917016905362809, 38.499999999878447 ], [ -8.920336995109601, 38.50175886485686 ], [ -8.938621652050568, 38.499999999878447 ], [ -8.944825375181878, 38.499407394620938 ], [ -8.997579713691268, 38.465697039060231 ], [ -8.999999999645505, 38.461868730595889 ], [ -9.014644710004696, 38.438699968217392 ], [ -9.092612196544117, 38.407806440114818 ], [ -9.193376936124457, 38.398593046013538 ], [ -9.204819488465676, 38.412161135349749 ], [ -9.191378333737626, 38.440624952280039 ], [ -9.205634977283969, 38.499999999878447 ], [ -9.207894262681412, 38.509470835188957 ], [ -9.237192468024956, 38.542873939535795 ], [ -9.319574451042021, 38.616898037323608 ], [ -9.307692645883066, 38.623587264885003 ], [ -9.284939316866282, 38.623813711876473 ], [ -9.241035935120888, 38.643825313737942 ], [ -9.236357886413613, 38.628116071965572 ], [ -9.213165304579094, 38.621949855543455 ], [ -9.182571301896091, 38.633184510126945 ], [ -9.142423537401733, 38.636075622636291 ], [ -9.040472812338898, 38.594264972841316 ], [ -9.051695738271251, 38.612995697972245 ], [ -9.107151485113139, 38.648735916244043 ], [ -9.07548131239786, 38.668026772360307 ], [ -9.039418604318687, 38.667574158598562 ], [ -8.999999999645505, 38.682567938821634 ], [ -8.996723169169542, 38.683814214165501 ], [ -8.999999999645505, 38.685191279165224 ], [ -9.025340531477784, 38.695839556663643 ], [ -9.053123311276368, 38.690427534942614 ], [ -9.076096266702018, 38.692219986380607 ], [ -9.068343443779007, 38.720562545897579 ], [ -8.999999999645505, 38.764054656867359 ], [ -8.979614247933666, 38.777022483692434 ], [ -8.934283292284848, 38.769235184889318 ], [ -8.944210419979395, 38.82671584047624 ], [ -8.984709587446613, 38.847156418563479 ], [ -8.99955635406603, 38.910940857603237 ], [ -8.999999999645505, 38.911029256549867 ], [ -9.014183493378262, 38.913855338015715 ], [ -9.035289622082741, 38.897268947063317 ], [ -9.066191101917823, 38.837188685398644 ], [ -9.118023008072649, 38.809969954810768 ], [ -9.11940665615532, 38.771946931075576 ], [ -9.11174168397552, 38.760751616287941 ], [ -9.142379611580971, 38.718718623695224 ], [ -9.213692408140041, 38.671978313881368 ], [ -9.390162479643342, 38.636824505820051 ], [ -9.443992989083313, 38.658364588636218 ], [ -9.499999999675717, 38.674529811273437 ], [ -9.500085654038058, 38.674554530908381 ], [ -9.499999999675717, 38.675628932023287 ], [ -9.48892861683685, 38.814365265645421 ], [ -9.448649075778523, 38.919128853191154 ], [ -9.454930399875652, 38.990092012633738 ], [ -9.45373403885162, 38.999999999654428 ], [ -9.4475070170151, 39.051916572325425 ], [ -9.429805103487132, 39.114105779427014 ], [ -9.421251740610471, 39.141945759485395 ], [ -9.407886356081693, 39.183619660403643 ], [ -9.403036120097386, 39.202354790029339 ], [ -9.39941359634053, 39.219898342369085 ], [ -9.398541239673174, 39.236605129441621 ], [ -9.398793809998457, 39.243918000886175 ], [ -9.39886826326752, 39.244974756429116 ], [ -9.399626634505104, 39.254156398642671 ], [ -9.4014523911498, 39.263801693522566 ], [ -9.404179935965503, 39.273528564774068 ], [ -9.410521876581376, 39.282060250039713 ], [ -9.444388317876916, 39.319226190787703 ], [ -9.408149908311323, 39.340276323745648 ], [ -9.325416522321413, 39.354445092590581 ], [ -9.25895747595604, 39.386453064354214 ], [ -9.24848128089182, 39.357709055004371 ], [ -9.261878511595738, 39.32610465998745 ], [ -9.219578404341881, 39.337532527014233 ], [ -9.202381632362796, 39.373436421972869 ], [ -9.232316754022563, 39.403388391101679 ], [ -9.187776455062629, 39.463600136846814 ], [ -9.143477745421945, 39.494292778583514 ], [ -9.138901322224447, 39.50000000024815 ], [ -9.091030884064645, 39.560104619898226 ], [ -9.093666404564328, 39.607880822339396 ], [ -9.079720107389083, 39.670996923753307 ], [ -8.999999999645505, 39.831958457191988 ], [ -8.999226914003568, 39.833517525858575 ], [ -8.943347008735669, 40.00000000026855 ], [ -8.920315032199204, 40.063978742780463 ], [ -8.915263617608694, 40.095783855644456 ], [ -8.890994864843611, 40.091356601891569 ], [ -8.871599059269819, 40.09339170699343 ], [ -8.864815359536566, 40.094103472722644 ], [ -8.856293842835044, 40.097658079940068 ], [ -8.876455576274589, 40.111244649963986 ], [ -8.899143016560219, 40.10634992262564 ], [ -8.926201028401051, 40.109435419725635 ], [ -8.933404784852724, 40.136714116815178 ], [ -8.927562714471639, 40.162141682603277 ], [ -8.907444906852874, 40.206983809328776 ], [ -8.877026605656301, 40.304084882323707 ], [ -8.827390966285087, 40.493850263452856 ], [ -8.824947607102793, 40.499999999920512 ], [ -8.763259963267307, 40.656242350385426 ], [ -8.743713185030252, 40.684051335973287 ], [ -8.66352746879681, 40.745115801945914 ], [ -8.658322315630288, 40.759945975564371 ], [ -8.668139629671254, 40.777399397060421 ], [ -8.647450792670769, 40.817767901848768 ], [ -8.642223676593842, 40.869650003268099 ], [ -8.665460184249149, 40.89900971141153 ], [ -8.67824245885226, 40.90193691854644 ], [ -8.686346684748122, 40.892205862157574 ], [ -8.701215414277902, 40.826801516612214 ], [ -8.692803711229988, 40.811664276619759 ], [ -8.71204301141664, 40.787920787843198 ], [ -8.72456173468845, 40.738183165269263 ], [ -8.722167803508018, 40.722961054306253 ], [ -8.727746322557797, 40.70710633520342 ], [ -8.745645900482559, 40.695942846564542 ], [ -8.713294883833678, 40.818766329806479 ], [ -8.70705748465898, 40.857999009496183 ], [ -8.693542383311696, 40.913642881785563 ], [ -8.687071453604196, 40.940268062468164 ], [ -8.689173198755308, 40.999999999862673 ], [ -8.6892677203878, 41.002705637145866 ], [ -8.725462204132649, 41.066074832088354 ], [ -8.715051897799555, 41.100725571199284 ], [ -8.685556028957553, 41.107382093377112 ], [ -8.618372214634419, 41.096362919011227 ], [ -8.563180019123825, 41.081915606873444 ], [ -8.543677166707534, 41.068338035586258 ], [ -8.521011688433944, 41.058217674129679 ], [ -8.52333973178154, 41.069259459905616 ], [ -8.555185606881574, 41.085196429865306 ], [ -8.683820977902004, 41.120111606071319 ], [ -8.737958964494052, 41.145450145268541 ], [ -8.762425381655992, 41.218955163940691 ], [ -8.781291316857764, 41.33297719584521 ], [ -8.809776903500328, 41.380373510165441 ], [ -8.800464730109928, 41.41403674503529 ], [ -8.802353519741464, 41.468667891223483 ], [ -8.806000001566948, 41.499999999681769 ], [ -8.81355448276345, 41.565368997289006 ], [ -8.826863861825842, 41.618213312535431 ], [ -8.848606907744843, 41.661296812712813 ], [ -8.853087292953632, 41.679487158647518 ], [ -8.854053650230631, 41.69207371817415 ], [ -8.83707650466043, 41.695736263205724 ], [ -8.820406836242274, 41.700689239908975 ], [ -8.811709618054328, 41.706093514896764 ], [ -8.82407460275012, 41.70757759380092 ], [ -8.848914384896911, 41.69780139453438 ], [ -8.859741982933993, 41.699624462589085 ], [ -8.871997153976164, 41.733656260396749 ], [ -8.907400981032101, 41.783670985298734 ], [ -8.901888350713502, 41.802615707623673 ], [ -8.878344365906115, 41.868362917108385 ], [ -8.886338779046699, 41.903816245299517 ], [ -8.800684356518797, 41.95361685594618 ], [ -8.772220733684893, 41.984895001979481 ], [ -8.739584202794306, 41.986292277416858 ], [ -8.701017749881109, 41.993872360360641 ], [ -8.696316156330226, 41.999999999713268 ], [ -8.670511598839621, 42.033887908624934 ], [ -8.638050768537132, 42.052164031903729 ], [ -8.581365112188628, 42.045679040302971 ], [ -8.53225657637838, 42.058987915990073 ], [ -8.507526607885133, 42.078582263204588 ], [ -8.499999999615302, 42.078622192061211 ], [ -8.403928682509994, 42.079131851603286 ], [ -8.386512284122039, 42.087051860091094 ], [ -8.347111249597507, 42.095245595251995 ], [ -8.31353032344197, 42.102824255894781 ], [ -8.24882829104248, 42.123567986855875 ], [ -8.215466992194161, 42.134341042435921 ], [ -8.195612736804991, 42.144983073091225 ], [ -8.185883272608912, 42.09380732424254 ], [ -8.172793519955382, 42.073845904506797 ], [ -8.155552822155549, 42.058373472953313 ], [ -8.096253607319383, 42.064064923640387 ], [ -8.073082988395255, 42.04766827313108 ], [ -8.070491392818028, 42.026527442913377 ], [ -8.08358114547155, 42.013745694572748 ], [ -8.102388082918711, 41.999999999713268 ], [ -8.10262278215974, 41.999829796093366 ], [ -8.145911209600968, 41.976269755077134 ], [ -8.172925296519365, 41.947430079760416 ], [ -8.183862707311693, 41.900229990535934 ], [ -8.157924791323909, 41.892188322752311 ], [ -8.144725225016803, 41.886896348692368 ], [ -8.122740589778507, 41.878064686027081 ], [ -8.134358843606156, 41.844737816562208 ], [ -8.103962505319956, 41.834676777285075 ], [ -8.080637994207866, 41.836735760022592 ], [ -8.063111934879934, 41.838282837216326 ], [ -8.012246386002106, 41.87362425931596 ], [ -7.999999999585081, 41.895951133867641 ], [ -7.999090745515737, 41.897608518416618 ], [ -7.975129469902705, 41.906533944184311 ], [ -7.947917719485841, 41.902787026619556 ], [ -7.935684510455736, 41.928914347421788 ], [ -7.914929785622414, 41.938880084557397 ], [ -7.895404969397388, 41.937996090595135 ], [ -7.9017082564049, 41.918496867293349 ], [ -7.917301753892448, 41.898010591957792 ], [ -7.906166678703323, 41.876198457290265 ], [ -7.886971303439083, 41.870422454754092 ], [ -7.873398372147054, 41.887797141795765 ], [ -7.810541204456695, 41.899731436690011 ], [ -7.707733935770432, 41.912338816797572 ], [ -7.632533745396351, 41.885850769582724 ], [ -7.575408835331795, 41.886655062580722 ], [ -7.553534013747108, 41.880880012152403 ], [ -7.578681273046017, 41.864581561334035 ], [ -7.584896709310318, 41.84448027391236 ], [ -7.555862057094703, 41.834547985692495 ], [ -7.530319469002207, 41.836882293878816 ], [ -7.505743239085017, 41.848681309376815 ], [ -7.499999999554868, 41.863735046144065 ], [ -7.49790256452049, 41.869231792924936 ], [ -7.469834269581875, 41.865321759066127 ], [ -7.427665938892003, 41.823342115005296 ], [ -7.394941557258205, 41.837751599950678 ], [ -7.36507232343124, 41.854201786830743 ], [ -7.302303005585761, 41.838894558821963 ], [ -7.24629819137426, 41.846701545764063 ], [ -7.18388027739992, 41.862022983784797 ], [ -7.157129742711165, 41.89128759202891 ], [ -7.151177857778171, 41.937096011587819 ], [ -7.155570392243749, 41.961811394451338 ], [ -7.149442806722658, 41.980783299054693 ], [ -7.114763747624489, 41.990772986918422 ], [ -7.072793080433077, 41.98364224573465 ], [ -7.048392552002309, 41.957441106016752 ], [ -7.010484980112356, 41.958919325485333 ], [ -7.000000000422981, 41.963436752344265 ], [ -6.974312458379582, 41.974502799478991 ], [ -6.972533482401639, 41.974133338737772 ], [ -6.951844644502821, 41.969876354517943 ], [ -6.939765174947071, 41.950210186460311 ], [ -6.895883756112058, 41.939442620169004 ], [ -6.809943819342439, 41.949647747220325 ], [ -6.761340425979371, 41.959578086347172 ], [ -6.758551166005351, 41.98942398947181 ], [ -6.711946375927416, 41.991945306675134 ], [ -6.700481860675824, 41.961618593699313 ], [ -6.663826161202875, 41.95907999956431 ], [ -6.617375109700998, 41.956557371306808 ], [ -6.578281552328555, 41.963032450444793 ], [ -6.552914666620786, 41.984975305401406 ], [ -6.5284043236381, 41.949535258504163 ], [ -6.52728422778508, 41.944971271148503 ], [ -6.519970657679797, 41.915442034843096 ], [ -6.534378170583169, 41.875571006072995 ], [ -6.508901471221781, 41.865289576560365 ], [ -6.507671561715178, 41.826465789192113 ], [ -6.525044035180668, 41.753002738051819 ], [ -6.547621661812713, 41.728173690564297 ], [ -6.522913656229874, 41.710723081595489 ], [ -6.538441264986269, 41.69368720010479 ], [ -6.500577618018763, 41.678034703946238 ], [ -6.500000000392768, 41.677956671850751 ], [ -6.469039220969132, 41.673773978778215 ], [ -6.455729841906741, 41.690669955766282 ], [ -6.406884858326134, 41.70080216928492 ], [ -6.348420225101354, 41.708851938323555 ], [ -6.263710197838349, 41.69034724712283 ], [ -6.209374546849507, 41.663653618205771 ], [ -6.19740489094734, 41.627727121031171 ], [ -6.169424445853638, 41.598712856120478 ], [ -6.14566083463739, 41.579400422215514 ], [ -6.185193644827606, 41.558513820631475 ], [ -6.224309164212125, 41.504099143221239 ], [ -6.226604701122841, 41.499999999681769 ], [ -6.250708295928038, 41.457276163755672 ], [ -6.273088259061589, 41.412525251717305 ], [ -6.282049029479173, 41.378619903223886 ], [ -6.317123417370955, 41.33751715994697 ], [ -6.334320189350051, 41.33478034001952 ], [ -6.352373505850871, 41.340897777020544 ], [ -6.365353444850783, 41.339915806551936 ], [ -6.376510482950297, 41.295550600229511 ], [ -6.40818065656391, 41.279874601686267 ], [ -6.453489649302365, 41.260165472469296 ], [ -6.500000000392768, 41.259357591379562 ], [ -6.501741639692556, 41.259327338966862 ], [ -6.549686153829001, 41.238983161056538 ], [ -6.597279264094299, 41.227599244406321 ], [ -6.624710641818356, 41.230292221299848 ], [ -6.660202320515801, 41.213164921373696 ], [ -6.689017346322556, 41.174829849893506 ], [ -6.724179584059224, 41.145369413146923 ], [ -6.75512498971507, 41.131998853701106 ], [ -6.778712899444888, 41.124892608012694 ], [ -6.79775453613308, 41.115621021510421 ], [ -6.807549888162005, 41.093955256057882 ], [ -6.822177027474212, 41.046349308911715 ], [ -6.874645851741893, 41.026795760173435 ], [ -6.953755397044755, 41.020017771363904 ], [ -6.940213760362276, 40.999999999862673 ], [ -6.913629595460788, 40.960983918421093 ], [ -6.846753258289735, 40.908225147506066 ], [ -6.817411128023753, 40.876005683244536 ], [ -6.803904084564532, 40.860928044730372 ], [ -6.802981652210008, 40.841033787352231 ], [ -6.825317690421119, 40.796281920614 ], [ -6.814797570434451, 40.731733546789577 ], [ -6.804870251291518, 40.668200231101039 ], [ -6.795947413606422, 40.663119944523615 ], [ -6.795228829286987, 40.640403922414642 ], [ -6.810317185225663, 40.614337349552081 ], [ -6.818926552670397, 40.593690002139446 ], [ -6.82670133850378, 40.572535155718334 ], [ -6.821013006698752, 40.548123559614126 ], [ -6.794262471111654, 40.529752365954671 ], [ -6.794613874084505, 40.500648866963374 ], [ -6.795479171790375, 40.499999999920512 ], [ -6.81681813573167, 40.484116167683304 ], [ -6.857866370568485, 40.466475519575162 ], [ -6.853188320962904, 40.430521059333145 ], [ -6.820354126573823, 40.392456053413675 ], [ -6.83788033861537, 40.362947589298003 ], [ -6.82615227203247, 40.338529710738584 ], [ -6.897135628529061, 40.352115971697927 ] ] ], [ [ [ -16.849259119260498, 32.777797984880287 ], [ -16.789466056495232, 32.743665684857753 ], [ -16.6647855526491, 32.740081867255817 ], [ -16.663314332300956, 32.722365964520286 ], [ -16.759668338446378, 32.698278586296773 ], [ -16.796953913240351, 32.620369842512858 ], [ -16.890101974968879, 32.573329890040817 ], [ -16.98845420800534, 32.583858085445868 ], [ -17.151232751734494, 32.607247530531225 ], [ -17.302570904469, 32.665703509049841 ], [ -17.355864243826947, 32.729590898138383 ], [ -17.39997892010695, 32.776491906712593 ], [ -17.317502701121633, 32.877506447451161 ], [ -17.25035353212407, 32.886973523856511 ], [ -17.200332013337746, 32.806060498204324 ], [ -17.086301393816022, 32.809846799458448 ], [ -16.978309369110082, 32.840280506688551 ], [ -16.912258126442662, 32.83602937159538 ], [ -16.849259119260498, 32.777797984880287 ] ] ], [ [ [ -16.366500953398969, 33.038957854405382 ], [ -16.413404361443625, 33.065595928964882 ], [ -16.374318188222798, 33.10553778417281 ], [ -16.311780309632173, 33.152113462942388 ], [ -16.257059665865373, 33.145461321679811 ], [ -16.210156256922406, 33.138808671288679 ], [ -16.217973491746235, 33.092225867196355 ], [ -16.241425196217723, 33.05227790852264 ], [ -16.303963074808347, 33.058937172978638 ], [ -16.366500953398969, 33.038957854405382 ] ] ], [ [ [ -8.7564408465557, 32.93708357721308 ], [ -8.929672849887513, 32.779733232967338 ], [ -8.992396522536795, 32.796416818613849 ], [ -8.93632582049243, 32.858121846375958 ], [ -8.811006813006969, 32.955970317251804 ], [ -8.7930104694581, 32.970988988818114 ], [ -8.7564408465557, 32.93708357721308 ] ] ], [ [ [ -16.515028414153392, 32.494034672539115 ], [ -16.518044574195152, 32.499999999859085 ], [ -16.538480118624879, 32.54063404109759 ], [ -16.546297353448704, 32.587242551078248 ], [ -16.507211179329563, 32.607210142047961 ], [ -16.483759474858079, 32.547293896142627 ], [ -16.474210151622547, 32.532750261201166 ], [ -16.457740205641525, 32.499999999859085 ], [ -16.444673300738938, 32.474153568506139 ], [ -16.413404361443625, 32.407851211633734 ], [ -16.413404361443625, 32.348137016034507 ], [ -16.468125005210421, 32.361410279543925 ], [ -16.468125005210421, 32.427747088205884 ], [ -16.49004817681864, 32.461110049773339 ], [ -16.491576709681908, 32.463382786475201 ], [ -16.515028414153392, 32.494034672539115 ] ] ], [ [ [ -7.965004677811327, 36.979540033064154 ], [ -7.949696695463793, 36.974876658758077 ], [ -7.930874685184469, 36.973940481736541 ], [ -7.901444704175268, 36.981394901831145 ], [ -7.844956711325224, 36.993511096035924 ], [ -7.920288677364991, 36.951572802836147 ], [ -7.956768676249807, 36.95715667410159 ], [ -7.965004677811327, 36.979540033064154 ] ] ] ] } },
{ "type": "Feature", "properties": { "OBJECTID": null, "YEAR": null, "OWNER_ID": null, "SHORT_NAME": null, "LONG_NAME": "Iiha Terceira", "VARIANTS": null, "SHAPE_LENG": null, "Shape__Are": null, "Shape__Len": null }, "geometry": { "type": "MultiPolygon", "coordinates": [ [ [ [ -27.341146634910505, 38.795030869778579 ], [ -27.208936860114999, 38.802419401702075 ], [ -27.086334432764819, 38.784314222305049 ], [ -27.045227473081543, 38.742767530389798 ], [ -27.034332871619501, 38.696684350973584 ], [ -27.085950527690713, 38.645129083483113 ], [ -27.16026400703549, 38.636986945425249 ], [ -27.207419036736688, 38.652372248979454 ], [ -27.221409806200629, 38.636472525012621 ], [ -27.244745091743415, 38.642567550404827 ], [ -27.259127394168257, 38.653487262835185 ], [ -27.311276999871009, 38.660016234509271 ], [ -27.380632410657412, 38.705516848532348 ], [ -27.386155359384819, 38.763998110851091 ], [ -27.341146634910505, 38.795030869778579 ] ] ] ] } },
{ "type": "Feature", "properties": { "OBJECTID": null, "YEAR": null, "OWNER_ID": null, "SHORT_NAME": null, "LONG_NAME": "Iiha de Sao Miguel", "VARIANTS": null, "SHAPE_LENG": null, "Shape__Are": null, "Shape__Len": null }, "geometry": { "type": "MultiPolygon", "coordinates": [ [ [ [ -25.808091154141881, 37.910905262993772 ], [ -25.677588699212372, 37.878047456007252 ], [ -25.661740007490334, 37.830812205099384 ], [ -25.544122877686586, 37.819471518894474 ], [ -25.518734074550519, 37.856260774969876 ], [ -25.140482402213141, 37.8579015462632 ], [ -25.147396570735708, 37.717251607849001 ], [ -25.640174437923392, 37.723415767400226 ], [ -25.770317002631149, 37.756366312943548 ], [ -25.853322073537459, 37.848211852217275 ], [ -25.808091154141881, 37.910905262993772 ] ] ] ] } },
{ "type": "Feature", "properties": { "OBJECTID": null, "YEAR": null, "OWNER_ID": null, "SHORT_NAME": null, "LONG_NAME": "Azores", "VARIANTS": null, "SHAPE_LENG": null, "Shape__Are": null, "Shape__Len": null }, "geometry": { "type": "MultiPolygon", "coordinates": [ [ [ [ -28.061738703842966, 38.389672436767427 ], [ -28.235715102784567, 38.360681019424021 ], [ -28.26292605772316, 38.421360664302952 ], [ -28.481152829530899, 38.422729604567984 ], [ -28.607057193557363, 38.513330979336779 ], [ -28.745771144912446, 38.512239171526438 ], [ -28.870022793020492, 38.589791868652107 ], [ -28.737828416372576, 38.647109141092443 ], [ -28.274802442101361, 38.755373583580727 ], [ -27.736766873557784, 38.558601914803667 ], [ -28.061738703842966, 38.389672436767427 ] ] ] ] } },
{ "type": "Feature", "properties": { "OBJECTID": null, "YEAR": null, "OWNER_ID": null, "SHORT_NAME": null, "LONG_NAME": "Iiha Graciosa", "VARIANTS": null, "SHAPE_LENG": null, "Shape__Are": null, "Shape__Len": null }, "geometry": { "type": "MultiPolygon", "coordinates": [ [ [ [ -28.033144593329315, 39.096018329878405 ], [ -27.997637342917177, 39.092904373894484 ], [ -27.940145287573522, 39.018859985278148 ], [ -27.994155092296623, 39.008540198827689 ], [ -28.00872001361946, 39.023859021777078 ], [ -28.037173169218121, 39.020895811844248 ], [ -28.079137867550287, 39.068707518177575 ], [ -28.054694417707481, 39.080153191775473 ], [ -28.054507364134842, 39.093789086590007 ], [ -28.033144593329315, 39.096018329878405 ] ] ] ] } },
{ "type": "Feature", "properties": { "OBJECTID": null, "YEAR": null, "OWNER_ID": null, "SHORT_NAME": null, "LONG_NAME": "Iiha das Flores", "VARIANTS": null, "SHAPE_LENG": null, "Shape__Are": null, "Shape__Len": null }, "geometry": { "type": "MultiPolygon", "coordinates": [ [ [ [ -31.249520830674978, 39.504460879593225 ], [ -31.254135007067667, 39.529943543341204 ], [ -31.214726638841903, 39.534302068681967 ], [ -31.208228358009446, 39.506240531650811 ], [ -31.157970956036312, 39.508676261648183 ], [ -31.108971743877998, 39.448437429229315 ], [ -31.174530334280895, 39.376881509349033 ], [ -31.220899947620374, 39.369293695160479 ], [ -31.266688401310631, 39.39300482000673 ], [ -31.249520830674978, 39.504460879593225 ] ] ] ] } }
]
}
