{
"type": "FeatureCollection",
"name": "Prince-Bishopric of Liege",
"crs": { "type": "name", "properties": { "name": "urn:ogc:def:crs:OGC:1.3:CRS84" } },
"features": [
{ "type": "Feature", "properties": { "OBJECTID": 51.0, "YEAR": 1700.0, "OWNER_ID": 5671.0, "SHORT_NAME": "LiÃ?Â¨ge", "LONG_NAME": "Prince-Bishopric of LiÃ?Â¨ge", "VARIANTS": "Luick", "SHAPE_LENG": 2019030.0, "Shape__Are": 15800481624.960205, "Shape__Len": 2021872.0395639888 }, "geometry": { "type": "MultiPolygon", "coordinates": [ [ [ [ 6.065124567932317, 50.543792996648783 ], [ 6.063987801144253, 50.543319422780648 ], [ 6.012034051097559, 50.518889477213627 ], [ 6.000000000362556, 50.51549753928866 ], [ 5.945028274778901, 50.499999999891088 ], [ 5.846080431759612, 50.472387471175757 ], [ 5.784144013879253, 50.458851087392389 ], [ 5.752175320215287, 50.461779083363183 ], [ 5.749171768028527, 50.489443816522645 ], [ 5.739383419265573, 50.499999999891088 ], [ 5.730983566792869, 50.509153787373364 ], [ 5.704304614357521, 50.512408096433987 ], [ 5.684448978257776, 50.532646163284127 ], [ 5.654018298276569, 50.54872150253604 ], [ 5.663035608658137, 50.559231875075049 ], [ 5.652350863412493, 50.569341903351912 ], [ 5.605882094438295, 50.561872368152756 ], [ 5.580431777698496, 50.564711727549025 ], [ 5.538263235006207, 50.55205269652901 ], [ 5.538329055465399, 50.539708840924668 ], [ 5.526064635369043, 50.535965222976763 ], [ 5.510640865571296, 50.546199724459591 ], [ 5.500000000332335, 50.543720310948693 ], [ 5.482272537819388, 50.539589368072591 ], [ 5.483918032230966, 50.52768041139668 ], [ 5.499451501596256, 50.514759028994654 ], [ 5.491618946903599, 50.507227661848255 ], [ 5.500000000332335, 50.502707537791714 ], [ 5.505019833750714, 50.499999999891088 ], [ 5.506274819728492, 50.499330243497283 ], [ 5.508533872462267, 50.499999999891088 ], [ 5.542322121700533, 50.510123462228343 ], [ 5.553410490783126, 50.499999999891088 ], [ 5.559128166955207, 50.494834304107087 ], [ 5.557811711957473, 50.480449568261257 ], [ 5.538899492857328, 50.462074389502078 ], [ 5.526218137688164, 50.446626852712079 ], [ 5.500000000332335, 50.448817830181596 ], [ 5.478345290246788, 50.450627377745022 ], [ 5.440301454707982, 50.454351251618426 ], [ 5.418624805068252, 50.468967566894229 ], [ 5.382862721792179, 50.462679555722978 ], [ 5.368579828574911, 50.470019871889988 ], [ 5.381348866502328, 50.485472884177831 ], [ 5.366407775879763, 50.494794840785495 ], [ 5.332861625305521, 50.492073388649075 ], [ 5.33005331386093, 50.441915257564531 ], [ 5.37244125568832, 50.419785540588087 ], [ 5.392472410916509, 50.38764537681643 ], [ 5.378869654658711, 50.367467550719411 ], [ 5.369501305121992, 50.347175590377837 ], [ 5.351378924345535, 50.339077468550173 ], [ 5.33068957171205, 50.344326897710111 ], [ 5.316604138075698, 50.338615807047361 ], [ 5.321343162627838, 50.328154675615778 ], [ 5.308288905106156, 50.322098561035027 ], [ 5.329943614293378, 50.292189248002956 ], [ 5.368119089852208, 50.301760701772061 ], [ 5.36886504727087, 50.32402499105288 ], [ 5.40087540300113, 50.333128289142266 ], [ 5.450108602514904, 50.332099308402228 ], [ 5.463579718752634, 50.300255801419141 ], [ 5.428629412456092, 50.270781792294095 ], [ 5.415004716644128, 50.266316833712985 ], [ 5.404517430979437, 50.278019942160448 ], [ 5.379900831671676, 50.273185826233927 ], [ 5.360418175179565, 50.267585030715239 ], [ 5.324458632322576, 50.254293699976508 ], [ 5.310504837807986, 50.237958490627506 ], [ 5.295980605003117, 50.217293526088824 ], [ 5.293764672301287, 50.193801486035277 ], [ 5.311206915219976, 50.183586230583636 ], [ 5.307959806403512, 50.174586517233699 ], [ 5.279876697347565, 50.175618924040378 ], [ 5.274720814079406, 50.160845431842674 ], [ 5.314827003644099, 50.156264186832253 ], [ 5.316209218913891, 50.140292582561862 ], [ 5.36164681087516, 50.132649213224688 ], [ 5.377004761112041, 50.122487062279561 ], [ 5.359803856882656, 50.10501952419289 ], [ 5.341791175673714, 50.095819322899651 ], [ 5.309407841234163, 50.112932397572237 ], [ 5.28514228018323, 50.107524746749235 ], [ 5.296331644158269, 50.093154379112185 ], [ 5.300258890832546, 50.071219284116381 ], [ 5.305129555404736, 50.062171765627795 ], [ 5.259977182139436, 50.035948151285176 ], [ 5.246922924617716, 50.04104536605314 ], [ 5.249204677778748, 50.054515853271589 ], [ 5.248217380772467, 50.073076333954148 ], [ 5.228844423847943, 50.074906783588887 ], [ 5.215461067623582, 50.067690690661259 ], [ 5.222130806181582, 50.055670289854937 ], [ 5.226167752423401, 50.029111188413033 ], [ 5.203635445797421, 50.029111188413033 ], [ 5.195473792402112, 50.05821791272173 ], [ 5.175223238937162, 50.07255902018607 ], [ 5.134217512379556, 50.077320747260359 ], [ 5.101505079237354, 50.08015898732922 ], [ 5.083931196298606, 50.08761188000004 ], [ 5.06925338391953, 50.096853439525404 ], [ 5.060543232686441, 50.113051676585989 ], [ 5.062100967982938, 50.136822088982598 ], [ 5.074650606775262, 50.172892262923909 ], [ 5.055979727262717, 50.184022938217794 ], [ 5.063154084550079, 50.205734143947957 ], [ 5.040665657032485, 50.206541011462541 ], [ 5.037923166047084, 50.202109685239073 ], [ 5.028006318672656, 50.179960080412386 ], [ 5.010410496179724, 50.172786369987783 ], [ 5.000000000302123, 50.167213082785437 ], [ 4.995023443222583, 50.164552474258358 ], [ 4.972568518373501, 50.172693713547233 ], [ 4.961560771291037, 50.192901784944432 ], [ 4.962640892113925, 50.194470069139861 ], [ 4.96375750879186, 50.196091287001593 ], [ 4.98518018853113, 50.22718421698719 ], [ 4.977270429927984, 50.237205032344114 ], [ 4.956683086384903, 50.239637205973189 ], [ 4.931569603740694, 50.226708241253107 ], [ 4.914409822588368, 50.236121088605636 ], [ 4.90028211513308, 50.251624414892497 ], [ 4.905511344047547, 50.256500371818078 ], [ 4.908938905539987, 50.26572235489477 ], [ 4.924384906844405, 50.278918029611347 ], [ 4.928185985136999, 50.295093893857697 ], [ 4.919133706036393, 50.310287566186361 ], [ 4.951453857470434, 50.30904691094667 ], [ 4.976391568559639, 50.299820163813322 ], [ 4.987706916761682, 50.274651962634792 ], [ 5.000000000302123, 50.272036369959295 ], [ 5.008677241754778, 50.2701873695176 ], [ 5.023662213282323, 50.288003603952447 ], [ 5.000000000302123, 50.303345653116274 ], [ 4.993639235489463, 50.307463047533091 ], [ 5.000000000302123, 50.315407153583422 ], [ 5.004179556790258, 50.320633894217082 ], [ 5.034654116778113, 50.308268184514418 ], [ 5.036058272500413, 50.327415844623992 ], [ 5.027435880382393, 50.355351438125403 ], [ 5.050055947021712, 50.36224706078692 ], [ 5.068704886081749, 50.354191081048967 ], [ 5.080047828732689, 50.354810820690822 ], [ 5.091017793572636, 50.342731027379642 ], [ 5.133954233237771, 50.343983988295335 ], [ 5.134634371095575, 50.361469211241847 ], [ 5.141720968369596, 50.384311556381832 ], [ 5.11541499374525, 50.387658553579705 ], [ 5.105871125080157, 50.383599959423961 ], [ 5.107187520789046, 50.371237545215365 ], [ 5.091149432694362, 50.369510766702248 ], [ 5.069714122642242, 50.383033309968766 ], [ 5.085818030297793, 50.400319648446164 ], [ 5.122369950999222, 50.402585375260415 ], [ 5.149026963880394, 50.416928061590013 ], [ 5.181958797056024, 50.417520640611265 ], [ 5.204447223675284, 50.428106796974411 ], [ 5.233210469690746, 50.424946999026744 ], [ 5.254952938891336, 50.434794335933191 ], [ 5.239002610809981, 50.455088096510693 ], [ 5.243785515368804, 50.474202550128176 ], [ 5.251069571325419, 50.490666585916486 ], [ 5.257507262469128, 50.499999999891088 ], [ 5.258704666437194, 50.501754375933118 ], [ 5.258770485998053, 50.527653855602168 ], [ 5.228317865564374, 50.535142117956958 ], [ 5.156420720302857, 50.522780532177471 ], [ 5.147381469468816, 50.530787387160409 ], [ 5.120373417432491, 50.525940946479153 ], [ 5.089920796998803, 50.535593499824913 ], [ 5.084677153717277, 50.560439355331368 ], [ 5.106134404221942, 50.562270419844673 ], [ 5.128315671692735, 50.55197306933696 ], [ 5.145757914611424, 50.55688317059019 ], [ 5.127723293848297, 50.582884860972072 ], [ 5.13279141710308, 50.591385344198123 ], [ 5.131365321826604, 50.606128232523481 ], [ 5.132242919265336, 50.620005108127131 ], [ 5.112739029294863, 50.635657460850979 ], [ 5.110895368328258, 50.637136773142757 ], [ 5.10637574291122, 50.651997679569234 ], [ 5.122545470127631, 50.654924270833604 ], [ 5.141304109653577, 50.655811481307232 ], [ 5.151944974892503, 50.668363048134957 ], [ 5.129544307388285, 50.683465471075088 ], [ 5.109096294342446, 50.681970006703175 ], [ 5.105081287654802, 50.690346637650833 ], [ 5.128491190821144, 50.695797918171685 ], [ 5.112233704489655, 50.703761993597112 ], [ 5.096700235124356, 50.703854591306886 ], [ 5.099706005251542, 50.716234548671657 ], [ 5.12226025143167, 50.718813292743988 ], [ 5.134371091953791, 50.74825375471891 ], [ 5.115458873751942, 50.754583601020258 ], [ 5.132242919265336, 50.790669740746338 ], [ 5.149970380879984, 50.797693508203864 ], [ 5.156662058992169, 50.845485012743993 ], [ 5.136521205094764, 50.857550459417595 ], [ 5.160940345719895, 50.921003874425459 ], [ 5.155411483742401, 50.95060590921986 ], [ 5.155038504134766, 50.957605487395178 ], [ 5.208177011666966, 50.957960700684367 ], [ 5.230928717428013, 50.971298964967964 ], [ 5.304076438837595, 50.979860258996986 ], [ 5.321650321776308, 50.989537476306559 ], [ 5.307568695200158, 50.999999999968175 ], [ 5.305656113688306, 51.001436325734119 ], [ 5.310987516084873, 51.017882458331037 ], [ 5.298152657698257, 51.027006336338282 ], [ 5.305524473668247, 51.038956284759593 ], [ 5.294313170139032, 51.046894648097556 ], [ 5.308859343396409, 51.061108600617075 ], [ 5.298372057731692, 51.069480967700862 ], [ 5.225509555018105, 51.029383295084962 ], [ 5.202757849257022, 51.014521972306405 ], [ 5.179720923901684, 51.00130345740174 ], [ 5.177783451869957, 50.999999999968175 ], [ 5.136784484236548, 50.972706229741839 ], [ 5.113330700165181, 50.983384263103822 ], [ 5.139452478833753, 50.999999999968175 ], [ 5.142554684903311, 51.001994368552609 ], [ 5.132133218799451, 51.017019115711108 ], [ 5.162015401841211, 51.016062778806514 ], [ 5.169101999115232, 51.036513436077712 ], [ 5.163156278421726, 51.047491961153426 ], [ 5.136433445081388, 51.051128768045729 ], [ 5.10387459151342, 51.047637969972143 ], [ 5.102953114068015, 51.032317806782622 ], [ 5.07135961705381, 51.025904129869261 ], [ 5.053983193695989, 51.043868142331689 ], [ 5.027633339963283, 51.050252775135505 ], [ 5.027326180814842, 51.073208901105872 ], [ 5.077020119051327, 51.083807318558705 ], [ 5.120329537425799, 51.092003168967565 ], [ 5.161708242692741, 51.121273505707876 ], [ 5.225268215430495, 51.138935390471111 ], [ 5.2767831681053, 51.178633263631454 ], [ 5.316801597656626, 51.188161995399213 ], [ 5.317233716054377, 51.188965448043326 ], [ 5.341988635254641, 51.234969576506678 ], [ 5.407413501539036, 51.269274428360923 ], [ 5.421389236506161, 51.298643025355126 ], [ 5.45028412164335, 51.311235100833834 ], [ 5.44903354639358, 51.315101780585223 ], [ 5.450437701217548, 51.323586214055155 ], [ 5.452258715655868, 51.33532722844749 ], [ 5.453158252648774, 51.350770632885876 ], [ 5.451772860037812, 51.357881969872103 ], [ 5.470556615560779, 51.35195735591023 ], [ 5.499034642880236, 51.342673718753659 ], [ 5.500000000332335, 51.343980031873983 ], [ 5.508293292849405, 51.355200908687905 ], [ 5.536354461452844, 51.369846761061403 ], [ 5.57672393015933, 51.361819149361914 ], [ 5.647282740157701, 51.295369045384824 ], [ 5.679578314583921, 51.304200333806101 ], [ 5.669376247615154, 51.344493671354549 ], [ 5.687235349249871, 51.359736221189131 ], [ 5.762445424685339, 51.37260139505058 ], [ 5.834496149521063, 51.39224804295538 ], [ 5.922541082444813, 51.380297671682335 ], [ 5.948123039204638, 51.356005168573972 ], [ 5.966793917818884, 51.352458407940695 ], [ 5.987176112202189, 51.350045397924234 ], [ 6.000000000362556, 51.345880306349379 ], [ 6.017058294345651, 51.340339324896313 ], [ 6.068375787439529, 51.322966099063187 ], [ 6.039195681809758, 51.299461483814149 ], [ 6.040917527630604, 51.287507233839001 ], [ 6.040454595221977, 51.278905024101306 ], [ 6.040009653373537, 51.27052852578656 ], [ 6.040029399241797, 51.269089494729478 ], [ 6.031497180910286, 51.265755137094196 ], [ 6.011200333665512, 51.259749351726072 ], [ 6.019749884990422, 51.241245877749606 ], [ 6.018116456749723, 51.237788142712098 ], [ 6.009028280970364, 51.230236765161081 ], [ 6.000000000362556, 51.226375053225965 ], [ 5.979014458806852, 51.21739754251535 ], [ 5.976579126071623, 51.199990748357386 ], [ 5.95477083731013, 51.194314915838902 ], [ 5.926951008294301, 51.170452856102038 ], [ 5.897112705259225, 51.162138584769799 ], [ 5.895906009117851, 51.144485623373669 ], [ 5.870455639377458, 51.137725440095089 ], [ 5.857116216160382, 51.120226563969496 ], [ 5.824140502978061, 51.0750661220818 ], [ 5.828309090138271, 51.060246067931196 ], [ 5.808234054903434, 51.051288037231103 ], [ 5.797286394333695, 51.022664704914213 ], [ 5.790199434140309, 51.007747126354438 ], [ 5.765538953927567, 51.008623927263955 ], [ 5.751804559446378, 51.006365467104274 ], [ 5.751417118759274, 50.999999999968175 ], [ 5.750795321987597, 50.989892444139834 ], [ 5.739737710322053, 50.983949618349556 ], [ 5.697777658522371, 50.999999999968175 ], [ 5.678459378455913, 51.007468140572215 ], [ 5.600002194203973, 51.008344946783446 ], [ 5.594278594540872, 50.999999999968175 ], [ 5.590260865957926, 50.994204430569852 ], [ 5.601735448628891, 50.975086645826707 ], [ 5.680587551144377, 50.982897756273445 ], [ 5.707836942768276, 50.960078769044834 ], [ 5.728899233686891, 50.959526240063767 ], [ 5.723129072546002, 50.942934101421066 ], [ 5.709438557173171, 50.924743015445749 ], [ 5.690943197687334, 50.923373787548719 ], [ 5.674861229585965, 50.920148042591443 ], [ 5.689078303242366, 50.907967181977618 ], [ 5.689550931167854, 50.886295813440313 ], [ 5.654588735668535, 50.881658762239169 ], [ 5.638287369330353, 50.8622834770336 ], [ 5.656958247944565, 50.82827148809281 ], [ 5.68850786585041, 50.835513817811929 ], [ 5.723523991707811, 50.829669913134403 ], [ 5.722821913397534, 50.828680465816952 ], [ 5.716678734021427, 50.795013511744209 ], [ 5.716733453998625, 50.794291990188576 ], [ 5.715603677001778, 50.794260972584077 ], [ 5.70961407630158, 50.766157461768245 ], [ 5.711522850753276, 50.766012145874654 ], [ 5.709284977598928, 50.75663169711521 ], [ 5.727473178834586, 50.753315058268917 ], [ 5.725279185686966, 50.734044808012094 ], [ 5.704677593066857, 50.734084467401352 ], [ 5.699631409366248, 50.711552771884257 ], [ 5.724599047829162, 50.707730294804321 ], [ 5.728021676672367, 50.67846275562669 ], [ 5.756060904823297, 50.680831833409258 ], [ 5.78175256115067, 50.670216368700629 ], [ 5.808343754470986, 50.651971193611594 ], [ 5.810625507631972, 50.623185473774868 ], [ 5.794038921699533, 50.614306411527672 ], [ 5.790045854566075, 50.601289577027373 ], [ 5.773327628613577, 50.599499810473013 ], [ 5.765363434799157, 50.609176991844812 ], [ 5.73960595891089, 50.600799055367702 ], [ 5.744410803023889, 50.580152708826553 ], [ 5.813587397752476, 50.588826078716238 ], [ 5.862272099428541, 50.584423284000465 ], [ 5.875106956916816, 50.608169597927187 ], [ 5.895576910415207, 50.61180141651208 ], [ 5.898538800535701, 50.626749876521757 ], [ 5.908521468369331, 50.633798379477604 ], [ 5.940992561923959, 50.626339122693707 ], [ 5.935288180818056, 50.584489594261093 ], [ 5.960606858436093, 50.581916689361805 ], [ 5.969887447959437, 50.587884552203441 ], [ 5.981010991475284, 50.581784061461356 ], [ 5.993143772449878, 50.591080361248743 ], [ 6.000000000362556, 50.589390270705145 ], [ 6.020524803195512, 50.584330449935386 ], [ 6.017540972622537, 50.572804285444931 ], [ 6.041192215376488, 50.564817868452863 ], [ 6.065124567932317, 50.543792996648783 ] ], [ [ 5.313181509232529, 50.843546337275079 ], [ 5.288959828188289, 50.831859814209587 ], [ 5.284111104068598, 50.813347935938012 ], [ 5.28250948876538, 50.786061467521627 ], [ 5.284111104068598, 50.772405621625339 ], [ 5.292184997450568, 50.762656540359593 ], [ 5.306709230255445, 50.766553776156861 ], [ 5.335779635419341, 50.770450685022688 ], [ 5.334178021014447, 50.783129892878506 ], [ 5.342251914396416, 50.80458421788871 ], [ 5.340628359539022, 50.82212319611002 ], [ 5.335779635419341, 50.831859814209587 ], [ 5.324308563364498, 50.837738925026919 ], [ 5.313181509232529, 50.843546337275079 ] ], [ [ 5.232815551427199, 50.251901921718932 ], [ 5.200190877400041, 50.268945662006665 ], [ 5.160172447848715, 50.268945662006665 ], [ 5.152756751872078, 50.257279949746838 ], [ 5.170550033945891, 50.244725862602685 ], [ 5.180927620043058, 50.228572450917795 ], [ 5.17647381508522, 50.21959448571981 ], [ 5.17647381508522, 50.207030416714424 ], [ 5.219476074311224, 50.207030416714424 ], [ 5.2298536604084, 50.222292020400168 ], [ 5.237269356385073, 50.242029603781489 ], [ 5.232815551427199, 50.251901921718932 ] ], [ [ 5.319061409466843, 51.07908542193919 ], [ 5.340167620816319, 51.07084746934725 ], [ 5.368843107716697, 51.078170166618428 ], [ 5.395982798874757, 51.089138765949897 ], [ 5.40052436384597, 51.101032828530812 ], [ 5.394490884037412, 51.111094632396103 ], [ 5.380910068232133, 51.118410925629313 ], [ 5.346530200225843, 51.106839513733433 ], [ 5.318754251216672, 51.088581778110658 ], [ 5.319061409466843, 51.07908542193919 ] ], [ [ 5.236896377675702, 50.124169863390939 ], [ 5.214320191043065, 50.116603417829658 ], [ 5.181519997887496, 50.102726268533914 ], [ 5.181454178326628, 50.085410613111186 ], [ 5.215241668488479, 50.090847292781191 ], [ 5.24233747963982, 50.110785315570375 ], [ 5.258243927714482, 50.115251666755228 ], [ 5.29503718800352, 50.138557367704209 ], [ 5.272373242255814, 50.146027614878804 ], [ 5.236896377675702, 50.124169863390939 ] ], [ [ 5.246791285495991, 50.298975278470166 ], [ 5.262763553131521, 50.283777972424005 ], [ 5.264803966704942, 50.26569593328729 ], [ 5.295827025428874, 50.269592939280066 ], [ 5.288937887735781, 50.294605397779016 ], [ 5.279196559489753, 50.3012722745245 ], [ 5.282202329616947, 50.32562149327628 ], [ 5.260832840023983, 50.333867030830561 ], [ 5.241723162241207, 50.325370806693861 ], [ 5.246791285495991, 50.298975278470166 ] ], [ [ 5.226891770287898, 50.164804012809341 ], [ 5.226891770287898, 50.183678865784429 ], [ 5.195759011996378, 50.183678865784429 ], [ 5.188343316019731, 50.171092051495521 ], [ 5.195759011996378, 50.155813983200119 ], [ 5.207606573376713, 50.153125912341928 ], [ 5.226891770287898, 50.164804012809341 ] ] ], [ [ [ 4.61425646074764, 50.429509434678742 ], [ 4.629175143793739, 50.430028903605283 ], [ 4.632317076060142, 50.419969888046211 ], [ 4.622363962799325, 50.39623579577124 ], [ 4.631262441340172, 50.38247983191642 ], [ 4.617134733884857, 50.37073665417676 ], [ 4.564315124685259, 50.374321862213641 ], [ 4.564227238907761, 50.364343235898708 ], [ 4.524260987101382, 50.353690009094173 ], [ 4.509935535299221, 50.362616205121945 ], [ 4.500000000271902, 50.358305207127685 ], [ 4.477483554300614, 50.348533933881214 ], [ 4.495346425266245, 50.317796797273253 ], [ 4.491852948991517, 50.289759770763474 ], [ 4.447030984172564, 50.281110348568255 ], [ 4.437275615258608, 50.263370787927933 ], [ 4.421697785287949, 50.263053713651502 ], [ 4.418665711590919, 50.250474725619362 ], [ 4.438396164760866, 50.249166424865884 ], [ 4.438549965320687, 50.242241080095731 ], [ 4.448920537372089, 50.229564021705023 ], [ 4.476275119020849, 50.237786650419714 ], [ 4.49897173110551, 50.239690078240457 ], [ 4.500000000271902, 50.239504011061491 ], [ 4.518548383715681, 50.236147526130992 ], [ 4.528479525082956, 50.248201695353735 ], [ 4.509034702037378, 50.258521963090786 ], [ 4.509847649521724, 50.268760724182506 ], [ 4.527315032691954, 50.266396096876527 ], [ 4.534455786699491, 50.279248204716055 ], [ 4.52147059974167, 50.285111728266784 ], [ 4.526062654523409, 50.310129186674523 ], [ 4.557306200242297, 50.314959530646085 ], [ 4.590812815960884, 50.326215219987873 ], [ 4.627856850842942, 50.33552915668303 ], [ 4.640490492894106, 50.310221574883471 ], [ 4.657935904170793, 50.313771786430429 ], [ 4.6738213361594, 50.350076859724282 ], [ 4.687158068023877, 50.359715706185085 ], [ 4.698561302901706, 50.380951143607483 ], [ 4.680478716593994, 50.394918348346522 ], [ 4.678413390042806, 50.422050331678172 ], [ 4.671140806470695, 50.444968631180501 ], [ 4.686916380788253, 50.449245653627273 ], [ 4.691530406565211, 50.442836554581149 ], [ 4.695089797622225, 50.424301847938047 ], [ 4.702252523523305, 50.412806138647333 ], [ 4.715413482934453, 50.411805233964863 ], [ 4.734001414708608, 50.428909878428904 ], [ 4.748392781293045, 50.415295138303669 ], [ 4.749579244679294, 50.400135224102421 ], [ 4.747667719586226, 50.380173602312055 ], [ 4.723784643216992, 50.375349923270996 ], [ 4.728398668993976, 50.35721058638412 ], [ 4.701285775479165, 50.337982664231646 ], [ 4.691156889765011, 50.307977808888687 ], [ 4.681511379420456, 50.296559351834645 ], [ 4.696122460448652, 50.289588118372848 ], [ 4.715171795698828, 50.294116896657229 ], [ 4.747448004244117, 50.307977808888687 ], [ 4.758279978873253, 50.300150192548884 ], [ 4.749403472225975, 50.286154936362266 ], [ 4.725168850950075, 50.275259537513058 ], [ 4.732221719180115, 50.265273188441363 ], [ 4.753600038314007, 50.26705661942438 ], [ 4.774209353750604, 50.267888864466038 ], [ 4.785502730957428, 50.262921598599313 ], [ 4.793983749809304, 50.25250978846568 ], [ 4.812373938134921, 50.255033673461476 ], [ 4.841112727516728, 50.255165810511755 ], [ 4.848253481524301, 50.263225462265424 ], [ 4.86046966388652, 50.258019876596414 ], [ 4.856910272829505, 50.245756744174223 ], [ 4.862566990224749, 50.231862355028071 ], [ 4.863224995390565, 50.227575508702685 ], [ 4.842431020467561, 50.227739515204931 ], [ 4.807166680215664, 50.206805555562084 ], [ 4.775307931359319, 50.172548109874533 ], [ 4.771957050957857, 50.169748363091422 ], [ 4.732880866104675, 50.137087020891613 ], [ 4.689267336565486, 50.082387020472915 ], [ 4.703191195621555, 50.068098644086483 ], [ 4.716907548338579, 50.072970218752076 ], [ 4.74575619449313, 50.070662155410744 ], [ 4.749117842101605, 50.048915777606325 ], [ 4.702164636847474, 50.002311481557712 ], [ 4.660198974170519, 50.000544669336414 ], [ 4.644159741622161, 50.000000000210534 ], [ 4.638840344311041, 49.999802825465956 ], [ 4.592680397266876, 49.984829920517264 ], [ 4.550504385083018, 49.981999151438039 ], [ 4.546430281826094, 49.981725697462068 ], [ 4.538059120645249, 49.973209808298229 ], [ 4.504991936509123, 49.972281238113965 ], [ 4.500000000271902, 49.972472237304991 ], [ 4.464036939612241, 49.973848216245301 ], [ 4.439095134001999, 50.000000000210534 ], [ 4.437407444823193, 50.001620705810382 ], [ 4.417413333422411, 50.032801942202973 ], [ 4.438308278085072, 50.055550866596185 ], [ 4.421697785287949, 50.07106010531546 ], [ 4.421522013732945, 50.099902628529584 ], [ 4.42503746190118, 50.118630972201885 ], [ 4.387444137765601, 50.14127275297021 ], [ 4.385005295312547, 50.1423191280184 ], [ 4.388213141462869, 50.142862174760538 ], [ 4.39889131553221, 50.162420960032271 ], [ 4.396672188421238, 50.194423328424463 ], [ 4.385642470343564, 50.209636081329755 ], [ 4.319683873626333, 50.19654017730749 ], [ 4.267062007875283, 50.199490378169486 ], [ 4.262184323867472, 50.197968997055412 ], [ 4.259042391601104, 50.205443139249994 ], [ 4.238235332715941, 50.208710226901239 ], [ 4.219493599483668, 50.238513663269003 ], [ 4.186712045471938, 50.253342289091819 ], [ 4.16267516854291, 50.293100269812655 ], [ 4.23502748656561, 50.307172666964071 ], [ 4.328186863473456, 50.322995812094213 ], [ 4.367867485155431, 50.329962123669588 ], [ 4.399638348234277, 50.34093725753646 ], [ 4.434507199792441, 50.367217085569862 ], [ 4.472254325386146, 50.385721540790861 ], [ 4.471617150355121, 50.393745789424266 ], [ 4.500000000271902, 50.401392055967371 ], [ 4.506288257566411, 50.403085928171706 ], [ 4.514088158498518, 50.421233966452363 ], [ 4.515505779966901, 50.421371595573028 ], [ 4.590988588414213, 50.42869923538148 ], [ 4.61425646074764, 50.429509434678742 ] ], [ [ 4.495280510483948, 50.1938676402361 ], [ 4.485722885916865, 50.200800049768723 ], [ 4.455138487122572, 50.189249882254842 ], [ 4.458961536410413, 50.180013019205262 ], [ 4.453226962029504, 50.164989356274532 ], [ 4.455138487122572, 50.147656608928152 ], [ 4.468519160977497, 50.140716442451499 ], [ 4.489545936103039, 50.149960944039947 ], [ 4.491457461196108, 50.161520664520836 ], [ 4.497192035577017, 50.180013019205262 ], [ 4.495280510483948, 50.1938676402361 ] ], [ [ 4.53232454626434, 50.188694132950339 ], [ 4.508331612224064, 50.175804225333472 ], [ 4.510990170019191, 50.159680301302735 ], [ 4.537663632849848, 50.148398246437559 ], [ 4.566995654373929, 50.159680301302735 ], [ 4.572334740959437, 50.172587820168673 ], [ 4.572334740959437, 50.185478600374701 ], [ 4.53232454626434, 50.188694132950339 ] ], [ [ 4.518987814399863, 50.103216742850961 ], [ 4.502992525638557, 50.088685955677562 ], [ 4.518987814399863, 50.079005143879108 ], [ 4.548341806919162, 50.06930910054988 ], [ 4.574993298754609, 50.067690690661259 ], [ 4.585671472823914, 50.083845795523708 ], [ 4.577673827544945, 50.096760635111274 ], [ 4.56167853878364, 50.091921295548609 ], [ 4.543002720333654, 50.093538882545872 ], [ 4.518987814399863, 50.103216742850961 ] ] ], [ [ [ 5.050159038582016, 50.639551186444294 ], [ 5.053105597155592, 50.641243200071642 ], [ 5.064338840238981, 50.647071057694788 ], [ 5.086827266858241, 50.641243200071642 ], [ 5.085659832484675, 50.637342367588104 ], [ 5.083624037150138, 50.6305392412552 ], [ 5.056308826863695, 50.613020795890598 ], [ 5.037023629054177, 50.602310376387557 ], [ 5.033557120204316, 50.589648241556787 ], [ 5.04777419386069, 50.574064475727461 ], [ 5.065940454643876, 50.56431369716185 ], [ 5.070767239209382, 50.537027272650711 ], [ 5.051482042298188, 50.529220647536278 ], [ 5.024188771565894, 50.530203185154896 ], [ 5.001700344048309, 50.537996371834822 ], [ 5.011331972726813, 50.568214252175771 ], [ 5.000000000302123, 50.573372644556578 ], [ 4.992057284307831, 50.576982681921116 ], [ 4.987223543188774, 50.596463679717239 ], [ 5.000000000302123, 50.606302221366498 ], [ 5.022587156262711, 50.623715513501786 ], [ 5.050159038582016, 50.639551186444294 ] ] ], [ [ [ 4.974348213901996, 50.704423400961552 ], [ 4.927702610665802, 50.695678843863355 ], [ 4.908389617184765, 50.686932647345493 ], [ 4.887494671623797, 50.678171575461896 ], [ 4.842474963356313, 50.685979861073697 ], [ 4.840849068387605, 50.716089076938374 ], [ 4.848912627550536, 50.735498946249812 ], [ 4.871411496186696, 50.740363368086712 ], [ 4.885890748548642, 50.735512165257298 ], [ 4.887494671623797, 50.714145000003441 ], [ 4.914827281379014, 50.718033072233894 ], [ 4.942181863027748, 50.72481658488033 ], [ 4.971140367751636, 50.716089076938374 ], [ 4.974348213901996, 50.704423400961552 ] ] ], [ [ [ 4.81512038170759, 50.716089076938374 ], [ 4.823161969875303, 50.697623690167639 ], [ 4.813494487637178, 50.685966628016025 ], [ 4.79259954207622, 50.68110976197412 ], [ 4.76041121930843, 50.685966628016025 ], [ 4.762037114277139, 50.693733915906996 ], [ 4.755599450082907, 50.704423400961552 ], [ 4.755599450082907, 50.715110435923016 ], [ 4.774912443563918, 50.726773438264033 ], [ 4.79259954207622, 50.718998427636151 ], [ 4.81512038170759, 50.716089076938374 ] ] ], [ [ [ 5.349360451224621, 51.301969571639297 ], [ 5.363160666164976, 51.291989206303192 ], [ 5.37097128040516, 51.281821777608954 ], [ 5.360462055186258, 51.272880493370351 ], [ 5.342559073544894, 51.270634992088503 ], [ 5.324019834052373, 51.275482494811527 ], [ 5.315989819778789, 51.286681298390867 ], [ 5.332049847427659, 51.295619882450382 ], [ 5.349360451224621, 51.301969571639297 ] ] ] ] } }
]
}
