{
"type": "FeatureCollection",
"name": "Ratzeburg",
"crs": { "type": "name", "properties": { "name": "urn:ogc:def:crs:OGC:1.3:CRS84" } },
"features": [
{ "type": "Feature", "properties": { "OBJECTID": 78.0, "YEAR": 1700.0, "OWNER_ID": 8445.0, "SHORT_NAME": "Ratzeburg", "LONG_NAME": "Prince-Bishopric of Ratzeburg", "VARIANTS": null, "SHAPE_LENG": 160106.4, "Shape__Are": 1271367096.9570312, "Shape__Len": 160345.31072707244 }, "geometry": { "type": "MultiPolygon", "coordinates": [ [ [ [ 10.976217263417727, 53.945783782167183 ], [ 10.999999999766354, 53.947473499162207 ], [ 11.010650921644912, 53.948230204196385 ], [ 11.012705480090789, 53.946926369360511 ], [ 11.018313664206177, 53.938533485020685 ], [ 11.004059528756109, 53.92803999393827 ], [ 11.027944660470713, 53.91967964701972 ], [ 11.058774540086075, 53.917073596131836 ], [ 11.067385277461618, 53.91656407635687 ], [ 11.07883532085399, 53.912224794109925 ], [ 11.082650733563602, 53.911316564509264 ], [ 11.086681843451027, 53.907990625909974 ], [ 11.11425953337867, 53.874036981685904 ], [ 11.124675330214764, 53.828265071917464 ], [ 11.121576960849774, 53.790233017681288 ], [ 11.118522538865117, 53.74931186848692 ], [ 11.108853867257565, 53.723930676364894 ], [ 11.087428967781253, 53.716736539055354 ], [ 11.062707931236893, 53.714501343448632 ], [ 11.035547752202165, 53.683076952945363 ], [ 11.02100079561388, 53.679397104224392 ], [ 10.999999999766354, 53.678065815598778 ], [ 10.987529950809897, 53.677275290488645 ], [ 10.988171258989544, 53.678179241335393 ], [ 10.959758547276072, 53.68400348285212 ], [ 10.933015878235944, 53.67464459101484 ], [ 10.918249179356117, 53.648131839824124 ], [ 10.872828393975507, 53.647244260120843 ], [ 10.870838183650063, 53.667346843823395 ], [ 10.869048822249102, 53.666912332615127 ], [ 10.889221188148353, 53.676365618945148 ], [ 10.889221188148353, 53.695265798899854 ], [ 10.885679157932527, 53.700360638750617 ], [ 10.882754824577422, 53.706686613180558 ], [ 10.882137347803948, 53.7104302041827 ], [ 10.882497066481372, 53.712808335372969 ], [ 10.883876170885337, 53.718929162673888 ], [ 10.884738440370366, 53.730343525193241 ], [ 10.891462562037344, 53.743827134428152 ], [ 10.87708324725075, 53.757278789252616 ], [ 10.875874922463764, 53.758408962683092 ], [ 10.876572331331221, 53.76235993352843 ], [ 10.876718498906046, 53.763187954815024 ], [ 10.868785131678917, 53.776183274490784 ], [ 10.833604349121506, 53.776896438773868 ], [ 10.82791301694342, 53.80489833531329 ], [ 10.826765788375539, 53.80481517667414 ], [ 10.826616535986028, 53.805558219515973 ], [ 10.824616878977055, 53.81818639116841 ], [ 10.836131388169163, 53.830217204754156 ], [ 10.839493449900967, 53.843694980004273 ], [ 10.853469075273608, 53.857801092106925 ], [ 10.871839552765261, 53.871823369568034 ], [ 10.881046765201253, 53.890753856433847 ], [ 10.879838149360117, 53.908912219690578 ], [ 10.876465567458018, 53.913407785121152 ], [ 10.957187559051453, 53.93318111187962 ], [ 10.976217263417727, 53.945783782167183 ] ] ] ] } }
]
}
