{
"type": "FeatureCollection",
"name": "Regensburg",
"crs": { "type": "name", "properties": { "name": "urn:ogc:def:crs:OGC:1.3:CRS84" } },
"features": [
{ "type": "Feature", "properties": { "OBJECTID": 102.0, "YEAR": 1700.0, "OWNER_ID": 9682.0, "SHORT_NAME": "Regensburg", "LONG_NAME": "Imperial City of Regensburg", "VARIANTS": "Ratisbon", "SHAPE_LENG": 30940.62, "Shape__Are": 59460305.578125, "Shape__Len": 30967.315198445671 }, "geometry": { "type": "MultiPolygon", "coordinates": [ [ [ [ 12.147133168360726, 49.025175248640444 ], [ 12.147828773411094, 49.023850859747881 ], [ 12.1743287616789, 49.015978033236607 ], [ 12.166211067341992, 49.0074154896542 ], [ 12.15287058411289, 49.000000000276607 ], [ 12.142940331179439, 48.994534878213827 ], [ 12.091168986746123, 48.994418839520755 ], [ 12.078057585592569, 49.000000000276607 ], [ 12.071304259695705, 49.002903628916464 ], [ 12.064206575414454, 49.015588528250092 ], [ 12.066623743316342, 49.027215937187144 ], [ 12.097629416944601, 49.032223374611512 ], [ 12.09767422131771, 49.034624247351033 ], [ 12.111482607333908, 49.032625897526962 ], [ 12.114263927997465, 49.032223374611512 ], [ 12.147133168360726, 49.025175248640444 ] ] ] ] } }
]
}
