{
"type": "FeatureCollection",
"name": "Reutlingen",
"crs": { "type": "name", "properties": { "name": "urn:ogc:def:crs:OGC:1.3:CRS84" } },
"features": [
{ "type": "Feature", "properties": { "OBJECTID": 69.0, "YEAR": 1700.0, "OWNER_ID": 9644.0, "SHORT_NAME": "Reutlingen", "LONG_NAME": "Imperial City of Reutlingen", "VARIANTS": null, "SHAPE_LENG": 45081.64, "Shape__Are": 122067656.39160156, "Shape__Len": 45136.775067381634 }, "geometry": { "type": "MultiPolygon", "coordinates": [ [ [ [ 9.230095000237689, 48.508287797170013 ], [ 9.224995175436531, 48.500000000192749 ], [ 9.219936813275625, 48.491859418254613 ], [ 9.196461089650073, 48.480209079787429 ], [ 9.157956515388591, 48.469020479594143 ], [ 9.126209438800153, 48.470805598070847 ], [ 9.104379209586179, 48.481877724221413 ], [ 9.1050374078898, 48.498619153139913 ], [ 9.107398879345757, 48.500000000192749 ], [ 9.117762565810532, 48.506120035494213 ], [ 9.127832993657545, 48.51369214801516 ], [ 9.112189823826363, 48.52373771994597 ], [ 9.114252177852276, 48.541963997146411 ], [ 9.136630904904004, 48.543091027930004 ], [ 9.155696702680077, 48.532727247006953 ], [ 9.187619298396934, 48.534191187156601 ], [ 9.20609271832857, 48.528115556461458 ], [ 9.225158516104642, 48.520428467091172 ], [ 9.230095000237689, 48.508287797170013 ] ] ] ] } }
]
}
