{
"type": "FeatureCollection",
"name": "Rothenburg",
"crs": { "type": "name", "properties": { "name": "urn:ogc:def:crs:OGC:1.3:CRS84" } },
"features": [
{ "type": "Feature", "properties": { "OBJECTID": 58.0, "YEAR": 1700.0, "OWNER_ID": 9663.0, "SHORT_NAME": "Rothenburg", "LONG_NAME": "Imperial City of Rothenburg", "VARIANTS": null, "SHAPE_LENG": 206029.5, "Shape__Are": 1222380620.1469727, "Shape__Len": 206383.82482924967 }, "geometry": { "type": "MultiPolygon", "coordinates": [ [ [ [ 9.99257333440133, 49.262017805432095 ], [ 9.993226266780756, 49.272327384833936 ], [ 9.992716382127174, 49.287985704216446 ], [ 9.992206498371909, 49.305742809968244 ], [ 9.992483161513112, 49.315961972375668 ], [ 9.997707277216982, 49.343222775360587 ], [ 9.995483665716101, 49.343835559483274 ], [ 9.989062067890726, 49.343304538657378 ], [ 9.979132494981949, 49.342773365916067 ], [ 9.968291757287224, 49.343658213731736 ], [ 9.952856359696419, 49.346680570515019 ], [ 9.933884025337452, 49.357027472746047 ], [ 9.904550341031763, 49.349943778577291 ], [ 9.887503016376602, 49.381674220825694 ], [ 9.917736238573513, 49.405509393782943 ], [ 9.967188837222416, 49.400903136206139 ], [ 9.973573356186126, 49.429187706078785 ], [ 9.993165712245769, 49.429187706078785 ], [ 9.999999999705929, 49.430703087496141 ], [ 10.015458888241414, 49.43412529251033 ], [ 10.041476406641479, 49.441516215508535 ], [ 10.039214060683864, 49.456448025487006 ], [ 10.066131520318713, 49.455525401150389 ], [ 10.084304229208993, 49.459589488773716 ], [ 10.097598653118531, 49.469428983402118 ], [ 10.099993847330255, 49.482414654076827 ], [ 10.113068528948254, 49.494976263685352 ], [ 10.13787746294822, 49.493003754601133 ], [ 10.15525909833131, 49.494106048995498 ], [ 10.176200563149266, 49.493148794748144 ], [ 10.203602459064014, 49.490320433333849 ], [ 10.220302892984003, 49.481268571982397 ], [ 10.21839113253232, 49.451780334263972 ], [ 10.22395061987447, 49.426442772948121 ], [ 10.233575343203379, 49.41271578984361 ], [ 10.235948562826623, 49.401702360176799 ], [ 10.245287620996862, 49.384334453714395 ], [ 10.251286592922096, 49.37587353845251 ], [ 10.23473997842652, 49.35989265948664 ], [ 10.236102382251037, 49.333561534272718 ], [ 10.245177749851093, 49.314539031503507 ], [ 10.224170362166012, 49.309065236135417 ], [ 10.199581170457588, 49.294518856513619 ], [ 10.16308193325262, 49.305891319122523 ], [ 10.155434892344205, 49.284221661342258 ], [ 10.158665108341758, 49.253492001944835 ], [ 10.15547884062285, 49.234030133886677 ], [ 10.155914727453219, 49.23306192725709 ], [ 10.160664765350731, 49.222509739732871 ], [ 10.172179274542842, 49.22304936292592 ], [ 10.171937557662819, 49.24059117583338 ], [ 10.183693784633265, 49.23949772990953 ], [ 10.187231639479648, 49.225339048704583 ], [ 10.202943231291076, 49.21383120348024 ], [ 10.20916194550785, 49.194951918998775 ], [ 10.177211378947991, 49.190865802606609 ], [ 10.178749576785403, 49.178211283216356 ], [ 10.147677980290021, 49.17616757274503 ], [ 10.149084332393183, 49.191332804618469 ], [ 10.138536690721155, 49.194660064883521 ], [ 10.128670249613913, 49.191449554723114 ], [ 10.121352823041125, 49.177087252724185 ], [ 10.08946817934839, 49.183422362193127 ], [ 10.097071271079844, 49.196294425857928 ], [ 10.100323460767564, 49.223720237375659 ], [ 10.080304915191045, 49.221299212267574 ], [ 10.063604481271055, 49.223063947365596 ], [ 10.060330316994856, 49.206697611800891 ], [ 10.067603795288999, 49.200219589322977 ], [ 10.061758643686499, 49.188618294075745 ], [ 10.011151934476324, 49.207718843597519 ], [ 10.015876399134328, 49.230457642567025 ], [ 10.003109357263474, 49.262454986106597 ], [ 9.999999999705929, 49.262326109446136 ], [ 9.99257333440133, 49.262017805432095 ] ] ] ] } }
]
}
