{
"type": "FeatureCollection",
"name": "Rottweil",
"crs": { "type": "name", "properties": { "name": "urn:ogc:def:crs:OGC:1.3:CRS84" } },
"features": [
{ "type": "Feature", "properties": { "OBJECTID": 103.0, "YEAR": 1700.0, "OWNER_ID": 15007.0, "SHORT_NAME": "Rottweil", "LONG_NAME": "Imperial City of Rottweil", "VARIANTS": null, "SHAPE_LENG": 144608.2, "Shape__Are": 865886102.02441406, "Shape__Len": 144858.24096872756 }, "geometry": { "type": "MultiPolygon", "coordinates": [ [ [ [ 8.567860198634964, 48.034899837215356 ], [ 8.550659294405579, 48.037256483802778 ], [ 8.537648916890552, 48.048452732542714 ], [ 8.515687048554826, 48.052345233653135 ], [ 8.505484982484401, 48.069550639346296 ], [ 8.520031154843455, 48.079803831323026 ], [ 8.503949186742078, 48.107364629899415 ], [ 8.500021940067811, 48.126641041568575 ], [ 8.512439939738362, 48.129081129705696 ], [ 8.516235547290906, 48.142492226422213 ], [ 8.499999999615302, 48.144974218477699 ], [ 8.482316342548845, 48.147677450969837 ], [ 8.488810636538586, 48.167931482767223 ], [ 8.484927268972678, 48.182018376404116 ], [ 8.476655916009783, 48.216934156726865 ], [ 8.471412273626582, 48.261678280583126 ], [ 8.459191732638622, 48.283431065377485 ], [ 8.473430746747495, 48.290291531499854 ], [ 8.499999999615302, 48.285222614729285 ], [ 8.503663968046117, 48.284523557928637 ], [ 8.534467627634957, 48.286854131300387 ], [ 8.582318611878939, 48.299714056997587 ], [ 8.635457118512841, 48.303572855748833 ], [ 8.636400535512429, 48.30092269350456 ], [ 8.641293139638805, 48.287480454471762 ], [ 8.659108361266828, 48.287771764802685 ], [ 8.675300028935748, 48.30191288013706 ], [ 8.695901621555866, 48.294165610046335 ], [ 8.688727265166802, 48.266720277998346 ], [ 8.698336953392799, 48.253006624792206 ], [ 8.701408683218027, 48.253364095870083 ], [ 8.701452423087526, 48.215519314813662 ], [ 8.701452423087526, 48.207817217649968 ], [ 8.698490532967034, 48.19216144831924 ], [ 8.689714561274743, 48.145910177922779 ], [ 8.709087518199302, 48.1306444781087 ], [ 8.70581846893033, 48.11306500879278 ], [ 8.663386647096257, 48.112348842433931 ], [ 8.635808157667993, 48.090347408799872 ], [ 8.589887886531548, 48.09243831791261 ], [ 8.607066851206749, 48.07597192326142 ], [ 8.631173576640697, 48.070024796662267 ], [ 8.624947892395642, 48.06977005885058 ], [ 8.610752759191749, 48.060187871195659 ], [ 8.598400579082019, 48.04619904417487 ], [ 8.579225081738413, 48.038471358754016 ], [ 8.581144335936177, 48.036657763546302 ], [ 8.567860198634964, 48.034899837215356 ] ] ] ] } }
]
}
