{
"type": "FeatureCollection",
"name": "Rus",
"crs": { "type": "name", "properties": { "name": "urn:ogc:def:crs:OGC:1.3:CRS84" } },
"features": [
{ "type": "Feature", "properties": { "OBJECTID": 20.0, "YEAR": 1700.0, "OWNER_ID": 2344.0, "SHORT_NAME": "Muscovy Rus", "LONG_NAME": "Tsardom of Rus", "VARIANTS": "Tsardom of Muscovy, Tsardom of Russia", "SHAPE_LENG": 14790020.0, "Shape__Are": 5984015350640.1113, "Shape__Len": 14809834.160791248 }, "geometry": { "type": "MultiPolygon", "coordinates": [ [ [ [ 47.407110832013267, 44.001566660130194 ], [ 47.401616797719342, 44.000000000164377 ], [ 47.315708835583941, 43.97570445301492 ], [ 47.279959317942058, 43.942709940371763 ], [ 47.208874959366483, 43.921287368365867 ], [ 47.145407561612025, 43.921753509039952 ], [ 47.051035819295045, 43.904616423627608 ], [ 47.000000000145008, 43.908150335009111 ], [ 46.973251154288988, 43.910002440414218 ], [ 46.884946790606122, 43.893858997715363 ], [ 46.834727230130582, 43.875089118032029 ], [ 46.744043929946002, 43.857053489241814 ], [ 46.682300715428752, 43.840090802362141 ], [ 46.622128907668341, 43.846287412915039 ], [ 46.577343798030554, 43.825489990404698 ], [ 46.552856033304224, 43.74693489398706 ], [ 46.500000000114795, 43.716494074237993 ], [ 46.493273503302206, 43.712619036320859 ], [ 46.447833640399899, 43.612041021745156 ], [ 46.423083974547438, 43.509480587790087 ], [ 46.414704328778733, 43.499999999890157 ], [ 46.381965481573914, 43.463253302292372 ], [ 46.337464097632086, 43.454851539623164 ], [ 46.305643098678921, 43.460570649326115 ], [ 46.273320122043295, 43.437498098371947 ], [ 46.231939727943633, 43.445388108618324 ], [ 46.188529599442646, 43.427003261600497 ], [ 46.118929347547962, 43.426456772456874 ], [ 46.073554960151775, 43.446030833626651 ], [ 46.029904755094485, 43.438655150126444 ], [ 46.000000000084583, 43.409515314267189 ], [ 45.9980182806352, 43.407583785543075 ], [ 45.946227312504504, 43.406876334821547 ], [ 45.908098859259219, 43.453036090385481 ], [ 45.820034571234359, 43.463285429048383 ], [ 45.768248727992358, 43.499999999890157 ], [ 45.691266466944164, 43.554993060548703 ], [ 45.598771683446436, 43.567477459531467 ], [ 45.510118117663183, 43.557208746696546 ], [ 45.500000000054371, 43.559807766381375 ], [ 45.464787379406658, 43.568851877798878 ], [ 45.419958619730892, 43.61669427620113 ], [ 45.347586580094443, 43.61175018146546 ], [ 45.289662758721832, 43.596721499439859 ], [ 45.297759871757265, 43.631960218801318 ], [ 45.245619701526167, 43.656409898640923 ], [ 45.169166368517267, 43.683706115235033 ], [ 45.077719189524103, 43.690790434331376 ], [ 45.000000000024151, 43.691065163172375 ], [ 44.990986449092063, 43.691097025657228 ], [ 44.688977933238952, 43.769822619664971 ], [ 44.517589519008503, 43.790397925636498 ], [ 44.499999999993946, 43.794284317340669 ], [ 44.234197368404942, 43.852982243148055 ], [ 44.098754035053737, 43.874477831248051 ], [ 43.999999999963734, 43.879616033058994 ], [ 43.843384642888694, 43.887763863219774 ], [ 43.649582386462065, 43.884434592881647 ], [ 43.523720042858471, 43.891784470871499 ], [ 43.499999999933515, 43.89222422167137 ], [ 43.338953161933759, 43.8952098132998 ], [ 43.231990903885773, 43.951819811484604 ], [ 43.00198167174198, 43.956960564323367 ], [ 42.999999999903309, 43.957565691657656 ], [ 42.869833849333062, 43.997299919225171 ], [ 42.865888815117849, 44.000000000164377 ], [ 42.743578663472576, 44.084363136412762 ], [ 42.555276201337463, 44.098005687619796 ], [ 42.49999999987309, 44.090904181633363 ], [ 42.467083079629504, 44.086674834274717 ], [ 42.39803011374525, 44.05053405172697 ], [ 42.320072719778047, 44.145261336488446 ], [ 42.2667989232691, 44.236030609533351 ], [ 42.244516029390198, 44.344623083853378 ], [ 42.224612013622504, 44.449671930369213 ], [ 42.187975124871606, 44.500000000095532 ], [ 42.15077946514937, 44.551493460690722 ], [ 42.112826522947671, 44.626808509415795 ], [ 42.102197952950007, 44.73459034290012 ], [ 41.999999999842885, 44.849085446990252 ], [ 41.979391050918927, 44.872146497990563 ], [ 41.79004100853377, 44.942302970314536 ], [ 41.778371422275846, 45.000000000297035 ], [ 41.769176711693667, 45.041432854514603 ], [ 41.653244550954923, 45.06951567025731 ], [ 41.61832522575591, 45.121695249035554 ], [ 41.60217503779522, 45.187939364751315 ], [ 41.575636350104965, 45.248450488576495 ], [ 41.567124764278908, 45.286031264225223 ], [ 41.520813009138259, 45.326643937831065 ], [ 41.519110691793379, 45.353348743361217 ], [ 41.537006846238604, 45.366907309878044 ], [ 41.583144004820632, 45.397634736898667 ], [ 41.605536022446998, 45.448306227190173 ], [ 41.67373783010796, 45.485768141103556 ], [ 41.686093649292893, 45.500000000291124 ], [ 41.70721673369836, 45.524540257733058 ], [ 41.748443362272532, 45.561277796093862 ], [ 41.771926608390267, 45.595506359731701 ], [ 41.826095212262153, 45.643312202053565 ], [ 41.875113214959747, 45.700852650948114 ], [ 41.91057815530278, 45.753582192696264 ], [ 41.900953515517195, 45.807776011370827 ], [ 41.803332176948722, 45.847382594073302 ], [ 41.763262250575416, 45.859792930792864 ], [ 41.719765865840849, 45.866906157385699 ], [ 41.660970451368875, 45.868724319536874 ], [ 41.579652072749887, 45.871066024419875 ], [ 41.518696024966658, 45.872622258189651 ], [ 41.499999999812673, 45.875958111916916 ], [ 41.474435780288118, 45.880519103812624 ], [ 41.44647849555907, 45.899972807895622 ], [ 41.378429459886902, 45.909522676811861 ], [ 41.330415387401374, 45.937189061703641 ], [ 41.27456629075445, 45.983365609779476 ], [ 41.278022441130794, 46.000000000240469 ], [ 41.286307913813317, 46.040221395752639 ], [ 41.329564228279779, 46.095781412384952 ], [ 41.42860416568368, 46.112647408540568 ], [ 41.499999999812673, 46.116371147940619 ], [ 41.559442513004612, 46.119471253518903 ], [ 41.697875814218847, 46.1669369831097 ], [ 41.756976771770098, 46.212450749471998 ], [ 41.811429095049732, 46.265941797671552 ], [ 41.856278604011933, 46.342318516226825 ], [ 41.885152520673742, 46.362730563969166 ], [ 41.908526644840656, 46.41296415775291 ], [ 41.907544538300101, 46.46712934281949 ], [ 41.902659900433676, 46.499999999857828 ], [ 41.901499130661193, 46.507880936581124 ], [ 41.84412231322802, 46.544678556064028 ], [ 41.795540801926975, 46.543610402512769 ], [ 41.732074927715239, 46.555198003613391 ], [ 41.712149088276043, 46.573335206877665 ], [ 41.653440972083381, 46.607165249889547 ], [ 41.595169348185578, 46.68570805280001 ], [ 41.525963609414219, 46.719525808124445 ], [ 41.519131136550932, 46.727794374386825 ], [ 41.499999999812673, 46.724159455798834 ], [ 41.065683251186996, 46.641572884517387 ], [ 40.99999999978246, 46.683045990714838 ], [ 40.499999999752248, 46.997702168456343 ], [ 40.496337794714343, 47.000000000202057 ], [ 40.344359109944591, 47.096171126828317 ], [ 40.499999999752248, 47.208295411633785 ], [ 40.502696426926512, 47.210235830536803 ], [ 40.499999999752248, 47.211284941903145 ], [ 40.462430079424756, 47.225900281251263 ], [ 40.359287121994932, 47.245889755691849 ], [ 40.325502674426957, 47.272064342266653 ], [ 40.297283494859968, 47.276449789620173 ], [ 40.287680680542536, 47.260567199330858 ], [ 40.296781529753936, 47.243498999982421 ], [ 40.281329728027735, 47.241385131554772 ], [ 40.243682329803619, 47.245160878357055 ], [ 40.227929687500016, 47.229608465619116 ], [ 40.176660156250016, 47.226825262494117 ], [ 40.160839843750011, 47.232049871869116 ], [ 40.143945312500023, 47.23212311405662 ], [ 40.078222656250006, 47.21515534061912 ], [ 40.047558593750011, 47.216913153119116 ], [ 40.019775390624993, 47.23078034061912 ], [ 40.005761718750023, 47.23322174686912 ], [ 39.990332031250006, 47.23053619999412 ], [ 39.961328125000023, 47.21991608280662 ], [ 39.914160156249999, 47.21259186405662 ], [ 39.876953125, 47.221747137494113 ], [ 39.864160156250023, 47.222284246869108 ], [ 39.787036475559255, 47.210098535662333 ], [ 39.582540354795164, 47.236267761217924 ], [ 39.56390171761479, 47.196492785962072 ], [ 39.610411010489791, 47.147808946736788 ], [ 39.592623552193942, 47.085118118086072 ], [ 39.569183391972174, 47.037268248175224 ], [ 39.499999999691823, 47.011291389425182 ], [ 39.496745876829614, 47.010069223611879 ], [ 39.380221655351733, 47.032335983448384 ], [ 39.268280705827081, 47.064336307865496 ], [ 39.235564877053093, 47.10738260135561 ], [ 39.244142142302834, 47.157739131305036 ], [ 39.210247758910377, 47.183767793972748 ], [ 39.161555955153695, 47.20281036267118 ], [ 39.124889783121169, 47.245058834871671 ], [ 39.070021476084591, 47.252230563809363 ], [ 39.038506028295537, 47.243528156410079 ], [ 39.014083738177007, 47.230756190652343 ], [ 38.999999999661611, 47.239535021061393 ], [ 38.993546317607553, 47.243557312821693 ], [ 38.956901970144841, 47.241953697832713 ], [ 38.932305079874425, 47.226046110726813 ], [ 38.919057242595528, 47.208106038656865 ], [ 38.951794896837654, 47.184482926626757 ], [ 38.951314743725035, 47.171054330061075 ], [ 38.909454197411058, 47.17235355022131 ], [ 38.879073655100818, 47.161798286784773 ], [ 38.858296157975033, 47.138490399718961 ], [ 38.814536827373658, 47.134575535242014 ], [ 38.764077191240112, 47.123209100044001 ], [ 38.711500519730997, 47.113082440575369 ], [ 38.648775175316985, 47.110919497101868 ], [ 38.594561620646608, 47.106169480012433 ], [ 38.566974691546264, 47.09864165600257 ], [ 38.584303823095951, 47.075817767063036 ], [ 38.501843354272516, 47.09875807151306 ], [ 38.501368433846423, 47.09889016467362 ], [ 38.535655669377235, 47.112059437612274 ], [ 38.531792626194637, 47.127373180709554 ], [ 38.538488839002362, 47.134434168651872 ], [ 38.555123660872319, 47.151971089472248 ], [ 38.555728537875616, 47.152276414502794 ], [ 38.607285655673238, 47.178294519909656 ], [ 38.641572891204056, 47.181330432639811 ], [ 38.698732834666394, 47.195252525821019 ], [ 38.771759626669045, 47.206997346417879 ], [ 38.82512200245489, 47.210658860818874 ], [ 38.86744087551503, 47.237259199505665 ], [ 38.870343614269011, 47.271335827393393 ], [ 38.844044366229539, 47.263408932280043 ], [ 38.8062432887182, 47.237842389815398 ], [ 38.747119086360655, 47.225346125195301 ], [ 38.687405606244724, 47.210192068547506 ], [ 38.637993574615727, 47.201176327770256 ], [ 38.65043388304808, 47.242755511432442 ], [ 38.650193806491771, 47.348153089131849 ], [ 38.629459959403967, 47.4496511432624 ], [ 38.578234029790345, 47.500000000208502 ], [ 38.553115751939139, 47.524907956232276 ], [ 38.499999999631399, 47.611847960051946 ], [ 38.480023483532079, 47.644508005980455 ], [ 38.445583472419194, 47.721162130756596 ], [ 38.319456205756858, 47.849593477094587 ], [ 38.177287488605693, 47.915469358783106 ], [ 38.078856277486082, 47.99134514972441 ], [ 38.057179338588824, 48.000000000254126 ], [ 37.999999999601187, 48.023046295037432 ], [ 37.892098876317156, 48.066507927580538 ], [ 37.825706915238882, 48.117975594278214 ], [ 37.772955642679577, 48.182835734742142 ], [ 37.750606737898643, 48.240892977761852 ], [ 37.6995578231084, 48.332992002441188 ], [ 37.670617737441077, 48.42588270330581 ], [ 37.640287931978072, 48.500000000192749 ], [ 37.627251258978063, 48.532141659144735 ], [ 37.582880826048466, 48.588561024777519 ], [ 37.537462788614313, 48.663230881168971 ], [ 37.499999999570967, 48.695946753607664 ], [ 37.419890961733557, 48.765833455464303 ], [ 37.330320741559653, 48.807782318161983 ], [ 37.210391804543654, 48.855325366068115 ], [ 37.111480440311425, 48.906499421582367 ], [ 37.01333295488778, 48.941273509730777 ], [ 37.000000000439073, 48.94583139431839 ], [ 36.912457331760351, 48.975747549575104 ], [ 36.820488325011901, 49.000000000276607 ], [ 36.802873493269267, 49.004690844161956 ], [ 36.802156996998647, 49.000000000276607 ], [ 36.787639571627011, 48.905816478395593 ], [ 36.947639397111992, 48.687128037967739 ], [ 37.000000000439073, 48.634510421549251 ], [ 37.091772373158349, 48.542154276764606 ], [ 37.113422771330541, 48.500000000192749 ], [ 37.190683736492261, 48.350772045329947 ], [ 37.284335250936934, 48.211099503276095 ], [ 37.262226422712331, 48.107510801314191 ], [ 37.228396024520933, 48.000000000254126 ], [ 37.182717574469059, 47.855892475042843 ], [ 37.123025919821266, 47.728862141673389 ], [ 37.000000000439073, 47.622863055554809 ], [ 36.950607610473774, 47.580245635837095 ], [ 36.94488653148337, 47.500000000208502 ], [ 36.941419242895812, 47.451771156771478 ], [ 36.893884170086089, 47.433864502604372 ], [ 36.799556077807082, 47.398308965418401 ], [ 36.660093672891563, 47.459495410486028 ], [ 36.51046077139965, 47.393584814896222 ], [ 36.500000000408861, 47.39535687289434 ], [ 36.000000000378648, 47.479987129955163 ], [ 35.881644485040667, 47.500000000208502 ], [ 35.640861392978415, 47.54108223643896 ], [ 35.500000000348443, 47.565757772659239 ], [ 35.331817943759916, 47.595203922882988 ], [ 35.225835246426982, 47.588712291719901 ], [ 35.176706941392275, 47.539896781129357 ], [ 35.166756246396218, 47.536810145029754 ], [ 35.16249165628161, 47.533936131602545 ], [ 35.161738828547648, 47.531117158336563 ], [ 35.162939030767831, 47.526158310782719 ], [ 35.173421498767681, 47.519084030588992 ], [ 35.184045923938619, 47.511422082104083 ], [ 35.194303679268458, 47.50364841817769 ], [ 35.198829118582012, 47.500000000208502 ], [ 35.204694590974555, 47.495315967393978 ], [ 35.206353018431273, 47.487880162968253 ], [ 35.202754850696721, 47.480233655334636 ], [ 35.195545995407485, 47.474673071043426 ], [ 35.17969269795325, 47.468328608461967 ], [ 35.149993015746297, 47.460918175002114 ], [ 35.029343849959673, 47.462921593399543 ], [ 35.000000000318224, 47.475977696173423 ], [ 34.945990338962829, 47.500000000208502 ], [ 34.92622040214119, 47.508875097828792 ], [ 34.611393988094051, 47.542867686504167 ], [ 34.500000000288011, 47.540194267804694 ], [ 34.48882448114815, 47.539926051632641 ], [ 34.171520016779056, 47.500000000208502 ], [ 34.1594189301643, 47.4984912559988 ], [ 34.04791472536111, 47.482298526805018 ], [ 34.00481024234734, 47.440385964823349 ], [ 34.003260662855276, 47.357332773164337 ], [ 34.000000000257799, 47.353073018008018 ], [ 33.885405368095057, 47.20314591690174 ], [ 33.827110646714672, 47.166791496211971 ], [ 33.79727579680354, 47.093203416288567 ], [ 33.693628611411484, 47.053247390670634 ], [ 33.644310072844007, 47.000000000202057 ], [ 33.64262345894862, 46.998195157463805 ], [ 33.597751146252932, 46.92914729457717 ], [ 33.531839481119412, 46.909066528525095 ], [ 33.500000000227594, 46.92600724099232 ], [ 33.360814263843174, 47.000000000202057 ], [ 33.343838459457672, 47.009102801797177 ], [ 33.063953957849058, 47.127723825316053 ], [ 33.000000000197382, 47.144103069655209 ], [ 32.772720427503458, 47.202270553105798 ], [ 32.500000000167162, 47.259867225559155 ], [ 32.456017058230316, 47.269150221619789 ], [ 32.0538031253338, 47.418915811829677 ], [ 32.00000000013695, 47.461585428183099 ], [ 31.951524566396238, 47.500000000208502 ], [ 31.921674243902658, 47.523868531993976 ], [ 31.602089967631876, 47.592469933506457 ], [ 31.500000000106738, 47.614230496868402 ], [ 31.305487473632731, 47.655665802077131 ], [ 31.303916069570842, 47.655782624855 ], [ 31.29723760298155, 47.686585477070011 ], [ 31.294480335608039, 47.686661836936594 ], [ 31.268755906044145, 47.689445855694345 ], [ 31.253194642803937, 47.70349736518245 ], [ 31.221962988982806, 47.810997136201578 ], [ 31.220980861780998, 47.811477584611559 ], [ 31.206205299224262, 47.828217698923041 ], [ 31.160241734680994, 47.842435251489164 ], [ 31.141384886836637, 47.923242122524591 ], [ 31.084443319328294, 47.970739396142328 ], [ 31.027818929878773, 48.000000000254126 ], [ 31.000000000076529, 48.014510069806164 ], [ 30.965191220658053, 48.032660190514832 ], [ 30.90300626139647, 48.034107709224735 ], [ 30.884745507726876, 48.034532769069322 ], [ 30.880575483262234, 48.034504612525218 ], [ 30.874652441436389, 48.032841676438288 ], [ 30.866527131182508, 48.080507308331121 ], [ 30.860845633760146, 48.113810395755188 ], [ 30.865868317532914, 48.162939141232464 ], [ 30.866484762142132, 48.167480188688138 ], [ 30.91715427437045, 48.195444743205712 ], [ 30.890527708089213, 48.282120042448312 ], [ 30.937800776466549, 48.306921763428669 ], [ 30.867960601627466, 48.417311743616196 ], [ 30.811346409853055, 48.448886360472017 ], [ 30.812260748386898, 48.500000000192749 ], [ 30.812524962674896, 48.514907680928971 ], [ 30.820447457592138, 48.586791565598666 ], [ 30.834109941934834, 48.682442933618781 ], [ 30.854538192942766, 48.737177271135742 ], [ 30.863442815061823, 48.770569033474857 ], [ 30.871412382598272, 48.773260761785117 ], [ 30.922283162365996, 48.790438992675668 ], [ 31.000000000076529, 48.799156435407163 ], [ 31.099764507808818, 48.810344716379269 ], [ 31.198370105281274, 48.807724080389093 ], [ 31.366619451972785, 48.791021569827606 ], [ 31.500000000106738, 48.828375528888976 ], [ 31.511035839304764, 48.831464922853023 ], [ 31.701459441217978, 48.842087142195908 ], [ 31.994548101321438, 48.833385821055614 ], [ 32.00000000013695, 48.834576263612327 ], [ 32.132766172481794, 48.863557474805781 ], [ 32.217207309725737, 48.916335666371161 ], [ 32.29385690216634, 48.940489399852211 ], [ 32.500000000167162, 48.959729874642548 ], [ 32.520641045896227, 48.961656006576767 ], [ 32.546344813310277, 49.000000000276607 ], [ 32.558834891104297, 49.018810502066046 ], [ 32.587665788345468, 49.043012533607936 ], [ 32.773942630363265, 49.070450596563326 ], [ 33.000000000197382, 49.080577510149482 ], [ 33.019496320963256, 49.081450808934818 ], [ 33.147805818232925, 49.093150473199735 ], [ 33.265944819824497, 49.100680705510648 ], [ 33.263640100334932, 49.105364461359322 ], [ 33.262473831076285, 49.107734439086457 ], [ 33.24398883455558, 49.145282613771087 ], [ 33.228411829238333, 49.164226759126265 ], [ 33.222236509937993, 49.171245438995619 ], [ 33.177946218409843, 49.195491844781834 ], [ 33.175305387070196, 49.196075541408767 ], [ 33.00616121325281, 49.228795251706735 ], [ 33.000000000197382, 49.232998978117593 ], [ 32.899043844003039, 49.30182898845495 ], [ 32.763924930928482, 49.299673923530264 ], [ 32.597006911742554, 49.326678191740612 ], [ 32.526948486713614, 49.389843437508205 ], [ 32.500000000167162, 49.396878286355339 ], [ 32.320396168371623, 49.443737629451192 ], [ 32.187071419091545, 49.499999999800124 ], [ 32.066221581348543, 49.551467775673849 ], [ 32.00000000013695, 49.548940151576687 ], [ 31.948497235803909, 49.546974241714075 ], [ 31.863575948142298, 49.592271100968851 ], [ 31.822413894962331, 49.661568266263487 ], [ 31.758510134270406, 49.664751623582966 ], [ 31.686334678357472, 49.698149640665079 ], [ 31.642968295115878, 49.771214807736705 ], [ 31.528452232302826, 49.804058776343176 ], [ 31.513763970720344, 49.840270396910718 ], [ 31.5435551705935, 49.930622149665872 ], [ 31.500503346821688, 50.000000000210534 ], [ 31.500000000106738, 50.000742579278295 ], [ 31.499206659251776, 50.001912958283931 ], [ 31.449096333914781, 50.030173304859289 ], [ 31.378012130747745, 50.034647212432368 ], [ 31.2822656157031, 50.029867948706105 ], [ 31.229558108166117, 50.018634797149907 ], [ 31.072963340477386, 50.020600125169892 ], [ 31.000000000076529, 50.049604476897201 ], [ 30.889327329799237, 50.09356540006916 ], [ 30.821364109287838, 50.160382030854159 ], [ 30.723544214295487, 50.163029973849525 ], [ 30.66987640502483, 50.227713072415405 ], [ 30.540170104743471, 50.224354737916343 ], [ 30.50000000004632, 50.229836302067341 ], [ 30.463433212226928, 50.234825610484449 ], [ 30.363343510768527, 50.228400576693552 ], [ 30.275955991919155, 50.260120676700154 ], [ 30.17569169030887, 50.252364429485183 ], [ 30.112049830743086, 50.276659571581725 ], [ 30.000000000016104, 50.271795493082223 ], [ 29.987603341621728, 50.271257325028223 ], [ 29.954909338315886, 50.301179868833323 ], [ 29.969728583249946, 50.351580174658764 ], [ 30.000000000016104, 50.36464575151566 ], [ 30.1183136215225, 50.415677036575019 ], [ 30.147253644307753, 50.459311572398867 ], [ 30.228879349161851, 50.497608156371115 ], [ 30.228467974660635, 50.499999999891088 ], [ 30.213776410871176, 50.586253411472697 ], [ 30.245815591742236, 50.657797713486161 ], [ 30.276108767501206, 50.687184073590188 ], [ 30.361532031946957, 50.800874977939543 ], [ 30.393243836185761, 50.817412473309425 ], [ 30.421092606225116, 50.816924219925632 ], [ 30.44189188300496, 50.810008943194511 ], [ 30.457213071485484, 50.792346563649772 ], [ 30.49091095559606, 50.796729783453358 ], [ 30.486611420118585, 50.896705266203149 ], [ 30.492613310670176, 50.970167861245656 ], [ 30.4970491295594, 50.999999999968175 ], [ 30.50000000004632, 51.020050787568991 ], [ 30.504900815672691, 51.053331949033783 ], [ 30.510902706224282, 51.108430258531335 ], [ 30.513870913297861, 51.158298683371328 ], [ 30.553614337998003, 51.178620027894482 ], [ 30.575308442802029, 51.204634088805349 ], [ 30.607063897078806, 51.21235871794682 ], [ 30.601433033197438, 51.25096232761787 ], [ 30.627208422390765, 51.26738542413807 ], [ 30.629194502262536, 51.306457384612088 ], [ 30.655908311127529, 51.337200311652609 ], [ 30.613633239022327, 51.393012127577876 ], [ 30.593204987116081, 51.463923864629336 ], [ 30.56221340985126, 51.498253949068754 ], [ 30.562177579647841, 51.500000000093614 ], [ 30.56164595845933, 51.526186099708504 ], [ 30.530217879916492, 51.540633352239929 ], [ 30.535128516823871, 51.579291591268053 ], [ 30.574413615676153, 51.603215800266597 ], [ 30.614026089364064, 51.64964881073967 ], [ 30.647636674297011, 51.666784085012289 ], [ 30.697201372811911, 51.75948480545658 ], [ 30.705145693197291, 51.774319805015615 ], [ 30.706804397335127, 51.775125483917861 ], [ 30.770293481318848, 51.806020940632926 ], [ 30.808530977463217, 51.858942633705894 ], [ 30.869204629955412, 51.901701226977401 ], [ 30.860125406786157, 51.937023615852574 ], [ 30.933588541065014, 51.966900092715541 ], [ 31.000000000076529, 51.9787257196596 ], [ 31.119518462703233, 51.999999999749583 ], [ 31.216419425177381, 52.017435527838138 ], [ 31.292305140606025, 52.038247702286888 ], [ 31.370242410514233, 52.069348194370463 ], [ 31.430457737158587, 52.042390380903257 ], [ 31.500000000106738, 52.048529537002914 ], [ 31.543249619429385, 52.052347164707477 ], [ 31.723939247603784, 52.058426344052357 ], [ 31.791618742419221, 52.053794031491947 ], [ 31.889285862727828, 52.036162939504365 ], [ 31.940291015190702, 52.070011647191642 ], [ 31.95967166349071, 52.118960348332706 ], [ 31.989921190110024, 52.146110145154346 ], [ 31.985185152456214, 52.190820015418701 ], [ 31.986931157568296, 52.224497992715719 ], [ 31.904323325512387, 52.209275973348248 ], [ 31.851593992507265, 52.206127760039863 ], [ 31.79185881807722, 52.254913090595579 ], [ 31.714379874016853, 52.294958714665732 ], [ 31.676076902366379, 52.311906390530162 ], [ 31.71357234696692, 52.371066495959177 ], [ 31.766934605971787, 52.392529604437918 ], [ 31.766476279225621, 52.416668005937069 ], [ 31.689128285279171, 52.438674656616541 ], [ 31.68362837151172, 52.46633839854632 ], [ 31.70517873868376, 52.500000000004945 ], [ 31.727213005841474, 52.534785876033659 ], [ 31.683912097207685, 52.569195737861236 ], [ 31.618065907580281, 52.621435672760988 ], [ 31.562084641805605, 52.672673091450221 ], [ 31.545170224693358, 52.872407960960274 ], [ 31.512301692202538, 52.901191833158116 ], [ 31.500000000106738, 52.903215927170365 ], [ 31.323340367908816, 52.932272640045362 ], [ 31.284728932756082, 52.96941131102912 ], [ 31.252902179195207, 52.999999999855014 ], [ 31.252583540475715, 53.000309716473986 ], [ 31.240186909929115, 53.059818897509238 ], [ 31.350185185278217, 53.06832674616355 ], [ 31.42816610612271, 53.057124172113397 ], [ 31.439165933657627, 53.133718352914109 ], [ 31.457935480527723, 53.178523669350902 ], [ 31.500000000106738, 53.171613992583332 ], [ 31.512738193480562, 53.169521348380179 ], [ 31.571469415240653, 53.187629967941149 ], [ 31.616101652278338, 53.192036825091577 ], [ 31.653597095980569, 53.171666191229129 ], [ 31.691005240505174, 53.101041665892076 ], [ 31.723808297489875, 53.078518013164548 ], [ 31.808816885227429, 53.076076576465205 ], [ 31.95613600502519, 53.045453925054581 ], [ 32.00000000013695, 53.05366458740798 ], [ 32.026216255522272, 53.05857111474473 ], [ 32.118492586709195, 53.066561605558398 ], [ 32.256208682882061, 53.106279568787436 ], [ 32.300928219995683, 53.132963028077391 ], [ 32.346258858539215, 53.143258153173505 ], [ 32.454838505408475, 53.194299628486284 ], [ 32.486724910697482, 53.248412335091658 ], [ 32.500000000167162, 53.257847185576622 ], [ 32.563680053403878, 53.303076705136363 ], [ 32.65864086686674, 53.34165206450924 ], [ 32.704757206992056, 53.378110738394547 ], [ 32.757159163364932, 53.418302818778656 ], [ 32.778089391156996, 53.466674938279141 ], [ 32.762004325664513, 53.48068816623379 ], [ 32.729419518869662, 53.476574070362553 ], [ 32.679396493608607, 53.436411021583481 ], [ 32.637841589188582, 53.423725564722972 ], [ 32.600346145486355, 53.424923213177685 ], [ 32.544146629521826, 53.429818743437117 ], [ 32.509248367121266, 53.470487627784522 ], [ 32.500000000167162, 53.473371824319955 ], [ 32.477885763186222, 53.480267574291787 ], [ 32.46337885618825, 53.499999999893774 ], [ 32.459443592050064, 53.505414975909233 ], [ 32.448334638971069, 53.592482746901617 ], [ 32.421096971259935, 53.621734885529044 ], [ 32.449098515983025, 53.667971630348831 ], [ 32.495716832892484, 53.709316289412627 ], [ 32.492093874351028, 53.7376278576114 ], [ 32.42751353672309, 53.839541335903142 ], [ 32.417081160580118, 53.881296276169721 ], [ 32.380458719433925, 53.909478262722537 ], [ 32.388359388883032, 53.940114369646011 ], [ 32.425200081117374, 53.970530710619826 ], [ 32.389057790388875, 53.995078958440239 ], [ 32.386956473734145, 53.99999999987628 ], [ 32.345713231717113, 54.097638504778892 ], [ 32.323582626533373, 54.125178939002211 ], [ 32.227792461450768, 54.172009790998437 ], [ 32.194705677871774, 54.216420063678356 ], [ 32.142914822928802, 54.243273203637564 ], [ 32.067967585562315, 54.350207147675633 ], [ 32.008821687094034, 54.379765655430155 ], [ 32.00000000013695, 54.382004208441614 ], [ 31.778851085202398, 54.438081934367986 ], [ 31.732691095039105, 54.428412198264695 ], [ 31.708596234553436, 54.385785432438666 ], [ 31.651589191538971, 54.361542851142943 ], [ 31.634020022060533, 54.320614074679987 ], [ 31.585524750823403, 54.302985219781185 ], [ 31.561953691691691, 54.256131636821785 ], [ 31.522712242877375, 54.251401047253104 ], [ 31.500000000106738, 54.265235363560393 ], [ 31.49084766305651, 54.270808850522691 ], [ 31.361403263901291, 54.275656065658858 ], [ 31.299441933043166, 54.293428688667206 ], [ 31.290450010848172, 54.393871877214671 ], [ 31.268406705740379, 54.443303953649938 ], [ 31.232940991947888, 54.464684893420142 ], [ 31.145357046580173, 54.473018579317845 ], [ 31.081365986710626, 54.474950594533915 ], [ 31.057794927578914, 54.488853141211067 ], [ 31.058783961028634, 54.499999999751346 ], [ 31.061286936006461, 54.528544596240828 ], [ 31.09664352515318, 54.596215366031672 ], [ 31.077153751309098, 54.627456892346835 ], [ 31.093956859971108, 54.673539728659115 ], [ 31.095770522597139, 54.678510593827021 ], [ 31.154479919787406, 54.688848603542638 ], [ 31.248174879454158, 54.750186817723915 ], [ 31.35806403015749, 54.759555230941373 ], [ 31.420985662749285, 54.789574970403073 ], [ 31.44433847169114, 54.846739373637654 ], [ 31.422884442545111, 54.89577811282939 ], [ 31.371966590158184, 54.937628345665239 ], [ 31.274779621165568, 54.999717637644252 ], [ 31.274753722735923, 54.999999999764796 ], [ 31.259305658001296, 55.149799997507117 ], [ 31.18887620630214, 55.20989062885149 ], [ 31.030142583159584, 55.314011847546595 ], [ 31.037323026533009, 55.390822169843844 ], [ 31.220631660578917, 55.386070817468081 ], [ 31.313017117309919, 55.401933461061212 ], [ 31.450489756566057, 55.500000000025729 ], [ 31.477839931080005, 55.519731111066967 ], [ 31.500000000106738, 55.534341656422207 ], [ 31.678652259098229, 55.651931453904361 ], [ 31.770775815601411, 55.714977462209497 ], [ 31.906025679688188, 55.765066460876085 ], [ 31.882214544898485, 55.807311510448649 ], [ 31.790047338357333, 55.844313609342215 ], [ 31.722542444592101, 55.923595667702493 ], [ 31.766105253453709, 55.981635619638432 ], [ 31.787765834927967, 56.000000000175547 ], [ 31.83164589281532, 56.037661700747648 ], [ 31.770208364209473, 56.035357896825268 ], [ 31.682537118765818, 56.025287366809771 ], [ 31.530023636364714, 56.035170780155831 ], [ 31.500000000106738, 56.026718334731541 ], [ 31.405138122597702, 56.000000000175547 ], [ 31.387855230030645, 55.995193053937314 ], [ 31.373712594371955, 55.963644136109046 ], [ 31.302170065357071, 55.976202059661517 ], [ 31.219321908809828, 56.000000000175547 ], [ 31.167858678434126, 56.014968477796394 ], [ 31.145422522086289, 56.013131378549424 ], [ 31.107959978283024, 56.000000000175547 ], [ 31.100681160402829, 55.997481050059932 ], [ 31.090512949140507, 56.000000000175547 ], [ 31.037759526912719, 56.01323669245091 ], [ 31.002578960849291, 56.000000000175547 ], [ 31.000525983438315, 55.999237399827138 ], [ 31.000000000076529, 55.99897324423317 ], [ 30.962310312762096, 55.980040313318078 ], [ 30.926320797615642, 55.975600853101561 ], [ 30.901069209776278, 55.998809874824403 ], [ 30.901351664356117, 56.000000000175547 ], [ 30.907944101985599, 56.028129839283785 ], [ 30.842556237307726, 56.036293468519396 ], [ 30.715861795036236, 56.056753398434758 ], [ 30.512845136058079, 56.118697987157049 ], [ 30.50000000004632, 56.12072041665769 ], [ 30.348829849337932, 56.144513700924598 ], [ 30.263930387144462, 56.189710488310283 ], [ 30.21495496369301, 56.238553317011352 ], [ 30.150723828165471, 56.256487008831613 ], [ 30.086339916157549, 56.23099119167923 ], [ 30.014579136952815, 56.212614799817842 ], [ 30.000000000016104, 56.212554219470015 ], [ 29.944542415221143, 56.212323778585876 ], [ 29.895916086970576, 56.253789352826963 ], [ 29.912197613117385, 56.29884538082046 ], [ 30.000000000016104, 56.305695151460434 ], [ 30.046771092507615, 56.3093434324418 ], [ 30.128069420729453, 56.336318492826088 ], [ 30.161767305738348, 56.381276905140453 ], [ 30.092319981240998, 56.407054382673259 ], [ 30.009101047755188, 56.404564289853809 ], [ 30.000000000016104, 56.408573208432195 ], [ 29.945262643093443, 56.432675457065926 ], [ 29.806782368973007, 56.455214148364746 ], [ 29.671619510314752, 56.452808193289634 ], [ 29.597467815573996, 56.458753223758336 ], [ 29.590655145172828, 56.439092600889822 ], [ 29.556468338595831, 56.427823522076046 ], [ 29.510106861704195, 56.412535918614545 ], [ 29.499999999985889, 56.414207878578722 ], [ 29.46219968155096, 56.420460462858223 ], [ 29.397422994659795, 56.44316715922217 ], [ 29.350212866742847, 56.4734215775946 ], [ 29.306296468408991, 56.476910915386554 ], [ 29.280983726858334, 56.471298103850401 ], [ 29.244938758709395, 56.495941780552613 ], [ 29.236360950877216, 56.499999999986564 ], [ 29.164447781467686, 56.534458460770807 ], [ 29.114206395523997, 56.557633439767493 ], [ 29.119029743135211, 56.576401508619597 ], [ 29.160235536184683, 56.624704349062611 ], [ 29.192733113870499, 56.66581267899253 ], [ 29.135594995876311, 56.670206566693544 ], [ 29.059163487437228, 56.668668181986462 ], [ 29.00412057935046, 56.650587435012525 ], [ 28.99999999995568, 56.647861207716268 ], [ 28.945694780295394, 56.611913694853079 ], [ 28.859354675507738, 56.581191360741116 ], [ 28.74045151752815, 56.551414309063368 ], [ 28.683444350546178, 56.538657205199797 ], [ 28.645403197376833, 56.552817210391247 ], [ 28.594136031498415, 56.555073433181889 ], [ 28.561136477028462, 56.575723870639912 ], [ 28.568513361293277, 56.62185717134129 ], [ 28.534313425838398, 56.599282157137381 ], [ 28.515805738771935, 56.582651560242226 ], [ 28.499999999925468, 56.579671943881095 ], [ 28.494984591608187, 56.578726415612046 ], [ 28.407094904633521, 56.602773181720728 ], [ 28.358272149864611, 56.663866150496595 ], [ 28.333958986188485, 56.674087212290637 ], [ 28.3054554026975, 56.675893381330276 ], [ 28.242468157157354, 56.678876284231308 ], [ 28.221516058981379, 56.683571544479477 ], [ 28.211476511620571, 56.689419409256985 ], [ 28.205387308416626, 56.69985476663318 ], [ 28.165992998680306, 56.725302057546898 ], [ 28.111255641757648, 56.738065754484886 ], [ 28.054728626989981, 56.736879158721699 ], [ 28.002771272902361, 56.722587961945365 ], [ 27.999999999895255, 56.721825552895993 ], [ 27.995939134212357, 56.720708333707051 ], [ 27.99303276985788, 56.720178955577708 ], [ 27.978690268929945, 56.731939225809192 ], [ 27.972011488828617, 56.737414294859214 ], [ 27.970854757881661, 56.738461278540626 ], [ 27.941041668759979, 56.753639248262523 ], [ 27.91945664188933, 56.775366171098796 ], [ 27.919439462507839, 56.776338118431077 ], [ 27.919107440687249, 56.795117525604034 ], [ 27.881350013213876, 56.897969110324432 ], [ 27.833247488113898, 56.925967155109561 ], [ 27.740447152553756, 56.940131827524063 ], [ 27.670803250621102, 56.958813063505623 ], [ 27.652906666781167, 56.981576421152432 ], [ 27.670639045773687, 56.999999999884416 ], [ 27.725693383125815, 57.057917607605212 ], [ 27.748195064387104, 57.089888150423931 ], [ 27.738592019202638, 57.107264029107924 ], [ 27.741385632412545, 57.138282048360324 ], [ 27.772442752557119, 57.149548501698085 ], [ 27.813997747706985, 57.153711319676098 ], [ 27.866094267001792, 57.1767324171174 ], [ 27.898766444839495, 57.208576867191844 ], [ 27.883925375335611, 57.253233740352975 ], [ 27.833683990290236, 57.341166695693715 ], [ 27.760635372819458, 57.377249678233142 ], [ 27.675997625800861, 57.42218759214866 ], [ 27.576256907253924, 57.46278098034032 ], [ 27.515609244819519, 57.50000000018067 ], [ 27.515190271469326, 57.500260547423331 ], [ 27.49999999986504, 57.510706148263289 ], [ 27.461369568937311, 57.537256871706518 ], [ 27.42289188125228, 57.561592400129264 ], [ 27.401088636531124, 57.613401294556539 ], [ 27.4084505602532, 57.679070642271171 ], [ 27.408661946415965, 57.680531588012528 ], [ 27.416431682819148, 57.716052212581566 ], [ 27.380987717239687, 57.753479859193057 ], [ 27.378819592877274, 57.771854959693329 ], [ 27.377909927379541, 57.779561685672554 ], [ 27.399124073107043, 57.807667014396145 ], [ 27.423536585962019, 57.807937581565504 ], [ 27.49999999986504, 57.808785022583166 ], [ 27.507451623961494, 57.808867607407286 ], [ 27.543560808178526, 57.82063129579992 ], [ 27.562638044203108, 57.836108540678353 ], [ 27.56237723453004, 57.838606208565203 ], [ 27.553275074676634, 57.925665323654599 ], [ 27.556087361166348, 57.931294444100466 ], [ 27.573594245056245, 57.91619765560776 ], [ 27.572175613881463, 57.943586843806223 ], [ 27.588871816736468, 57.960875081545005 ], [ 27.590094022291222, 57.9831466471487 ], [ 27.619492435603021, 57.981020641947183 ], [ 27.626144085684455, 57.999999999985022 ], [ 27.632500196325616, 58.018382502616063 ], [ 27.661396631954972, 58.011873604336934 ], [ 27.679453434817397, 57.999999999985022 ], [ 27.701445694955797, 57.985734656953319 ], [ 27.726893764110741, 57.966100380496222 ], [ 27.767794005996098, 57.950988852684446 ], [ 27.776654997840122, 57.936541946268242 ], [ 27.809087100019827, 57.930386646900153 ], [ 27.778881157861466, 57.925931493316817 ], [ 27.757514382977295, 57.917343631595557 ], [ 27.762184955006461, 57.901840911237542 ], [ 27.814303298871099, 57.889934340793715 ], [ 27.867949400352913, 57.86996921513164 ], [ 27.933599308989052, 57.835795295952515 ], [ 27.96456912905769, 57.828346234393713 ], [ 27.999999999895255, 57.825460209893492 ], [ 28.062585663469104, 57.820361722971839 ], [ 28.130745457822549, 57.8409228796788 ], [ 28.179895588325401, 57.858307126216978 ], [ 28.14888211821879, 57.927690477416029 ], [ 28.086702401525201, 57.994952915203868 ], [ 28.081953710202303, 57.999999999985022 ], [ 28.055754406924713, 58.028225537441067 ], [ 27.999999999895255, 58.063585867483866 ], [ 27.991021152679217, 58.069277112184288 ], [ 27.942918627579239, 58.084025399098088 ], [ 27.880957161973825, 58.085649440129558 ], [ 27.830039198195799, 58.087109845658354 ], [ 27.843636236676783, 58.103649128097032 ], [ 27.880826210961594, 58.116036865902522 ], [ 27.836695853689992, 58.111974257204679 ], [ 27.78970640860069, 58.104209646829815 ], [ 27.736169432662955, 58.107619279093775 ], [ 27.696251320674357, 58.102411284465838 ], [ 27.662531537433782, 58.084925056731869 ], [ 27.655307428751026, 58.066424915418899 ], [ 27.642015941434146, 58.080765408889718 ], [ 27.637323543936837, 58.115534902186397 ], [ 27.640357233703057, 58.155494679990568 ], [ 27.617200800075572, 58.170778325689959 ], [ 27.582629837950471, 58.168400525505461 ], [ 27.555894086836343, 58.150690220510057 ], [ 27.548822753735635, 58.17432141813471 ], [ 27.57645333377226, 58.206659060045503 ], [ 27.575252952787338, 58.247039592364928 ], [ 27.556854391264956, 58.27563878385309 ], [ 27.589330144380948, 58.276789242059195 ], [ 27.637716396075206, 58.254610168902566 ], [ 27.710219385825564, 58.28887259769791 ], [ 27.653168568805626, 58.310321972272739 ], [ 27.651662636656589, 58.322057279466179 ], [ 27.725016805291482, 58.355083185752235 ], [ 27.769932865941499, 58.421875343712394 ], [ 27.798872951608821, 58.453512640508507 ], [ 27.81703143657489, 58.45439136783115 ], [ 27.837023230322245, 58.434070939866942 ], [ 27.866443468203876, 58.433018166707406 ], [ 27.894423249442582, 58.445926918320282 ], [ 27.901887434681651, 58.481124210473084 ], [ 27.884686877201961, 58.500000000061064 ], [ 27.804372877952687, 58.589266728167566 ], [ 27.755550123183781, 58.639492246550041 ], [ 27.808672422413313, 58.843486955806611 ], [ 27.803259797043708, 58.863742769731331 ], [ 27.748216888956936, 58.948786843270192 ], [ 27.752996586530184, 58.966080184051641 ], [ 27.777672724378331, 59.000000000010452 ], [ 27.778139104521014, 59.000650172158714 ], [ 27.769106423964949, 59.001871460066333 ], [ 27.786105266544222, 59.019271486513951 ], [ 27.832221708179169, 59.062412957381156 ], [ 27.86987001010846, 59.097464098075356 ], [ 27.906693948660671, 59.192175545931555 ], [ 27.927246557083592, 59.242823045259442 ], [ 28.018999273257322, 59.270715870976268 ], [ 28.140846880336031, 59.295672609775522 ], [ 28.19002633620515, 59.347788152562202 ], [ 28.193696444852101, 59.39109543459621 ], [ 28.174611879887962, 59.400344108386527 ], [ 28.129542945703424, 59.438660042660693 ], [ 28.03096109013596, 59.486020513959915 ], [ 28.040324058764121, 59.5412810248339 ], [ 28.03759592106033, 59.592272125677653 ], [ 28.029629759037121, 59.660009554380466 ], [ 28.06675425781582, 59.715431349890736 ], [ 28.128759373459207, 59.755654309330865 ], [ 28.187054222400359, 59.744425653626294 ], [ 28.210254306065817, 59.719032647127186 ], [ 28.207569818399996, 59.662111934059098 ], [ 28.254275537793333, 59.630826819927066 ], [ 28.340419216960971, 59.625318438385399 ], [ 28.453429596458324, 59.625755461829748 ], [ 28.447689594456456, 59.685286784800063 ], [ 28.447624118950344, 59.746327916766255 ], [ 28.473486865711791, 59.783205749826017 ], [ 28.521436615229714, 59.80976223147578 ], [ 28.566811003524212, 59.808458358526863 ], [ 28.594376108054728, 59.788287562334197 ], [ 28.649768217343578, 59.779370985111434 ], [ 28.701973862182466, 59.749983165318191 ], [ 28.753939431363367, 59.744631928123887 ], [ 28.786633434669206, 59.762824917846586 ], [ 28.877404034929718, 59.777562196403231 ], [ 28.989628711048656, 59.810974558219357 ], [ 29.053663561991669, 59.831977390266296 ], [ 29.06457611280684, 59.868646158845124 ], [ 29.018939823386198, 59.905935849100743 ], [ 29.062044400723074, 59.927619398089355 ], [ 29.062044400723074, 59.927619398089355 ], [ 29.062044400723074, 59.927619398089355 ], [ 29.062044400723074, 59.927619398089355 ], [ 29.062044400723074, 59.927619398089355 ], [ 29.062044400723074, 59.927619398089355 ], [ 29.068744707153556, 59.964330428398164 ], [ 29.068744707153556, 59.964330428398164 ], [ 29.068744707153556, 59.964330428398164 ], [ 29.068744707153556, 59.964330428398164 ], [ 29.068744707153556, 59.964330428398164 ], [ 29.068744707153556, 59.964330428398164 ], [ 29.068744707153556, 59.964330428398164 ], [ 29.068744707153556, 59.964330428398164 ], [ 29.148886483193177, 59.977294260908188 ], [ 29.243083625358278, 59.973106327619945 ], [ 29.363972866802897, 59.962338168100665 ], [ 29.490689411223634, 59.932417043045703 ], [ 29.490689411223634, 59.932417043045703 ], [ 29.490689411223634, 59.932417043045703 ], [ 29.490689411223634, 59.932417043045703 ], [ 29.490689411223634, 59.932417043045703 ], [ 29.499999999985889, 59.932258238700612 ], [ 29.590233703252231, 59.930719143726968 ], [ 29.738120596937112, 59.918968203452316 ], [ 29.77534828084438, 59.893582060457121 ], [ 29.873610832227619, 59.873292543384416 ], [ 29.999432547725856, 59.868840247227439 ], [ 30.07121515329705, 59.843759224394404 ], [ 30.174993288803019, 59.8463755723144 ], [ 30.223772285736128, 59.868554822901984 ], [ 30.281717806812743, 59.881978507536125 ], [ 30.315786716695225, 59.925556539077682 ], [ 30.251228204535433, 59.936997517381918 ], [ 30.180907878380356, 59.957795364799757 ], [ 30.207264852914331, 59.965981253054288 ], [ 30.209466918102507, 59.975523535536368 ], [ 30.178638005468134, 59.988735926665392 ], [ 30.191116374867754, 59.997544187418072 ], [ 30.235157678631147, 60.016628752382204 ], [ 30.286686004034316, 60.024702991405498 ], [ 30.342912068505594, 60.060523251799758 ], [ 30.38948574723538, 60.097921658912171 ], [ 30.397963698209832, 60.130255316091798 ], [ 30.373740981139967, 60.157414120079224 ], [ 30.374181394177612, 60.216135858430391 ], [ 30.50000000004632, 60.24285282244157 ], [ 30.896333172122468, 60.24285282244157 ], [ 30.924705743515787, 60.200959386248925 ], [ 30.943868141625938, 60.170824837012717 ], [ 30.972175237513145, 60.136710510879695 ], [ 31.000000000076529, 60.12428801869185 ], [ 31.007160800887959, 60.121090285321742 ], [ 31.047340725967796, 60.119016846555695 ], [ 31.055328696391157, 60.08331730310254 ], [ 31.050854559863481, 60.051632518728425 ], [ 31.07706645033484, 60.034563200145676 ], [ 31.054542993911053, 60.017382736163121 ], [ 31.067594376823848, 59.989377110808633 ], [ 31.040574959302564, 59.960971977351868 ], [ 31.003603316954294, 59.949414017841633 ], [ 31.050287108471551, 59.93063937485428 ], [ 31.108581829851929, 59.919925759182206 ], [ 31.181564812814795, 59.925522346845561 ], [ 31.2437007438248, 59.924507964215096 ], [ 31.281589038767088, 59.947944785348874 ], [ 31.367470629060687, 59.943570869866292 ], [ 31.390015910054295, 59.921863585442104 ], [ 31.390015910054295, 59.921863585442104 ], [ 31.43510647383815, 59.906141122565749 ], [ 31.500000000106738, 59.920495656304084 ], [ 31.504793873095174, 59.921555820615197 ], [ 31.547287254679038, 59.941041935869471 ], [ 31.544821023491274, 59.985793676181999 ], [ 31.509879111052747, 60.015405044236331 ], [ 31.500000000106738, 60.02109022740413 ], [ 31.404791472611031, 60.07583010258891 ], [ 31.474522522804346, 60.057115989028077 ], [ 31.500000000106738, 60.056245243095411 ], [ 31.509398959736764, 60.055924007803689 ], [ 31.563175894551499, 60.066763769217651 ], [ 31.593818271512557, 60.085778631316771 ], [ 31.595738875878208, 60.104839172166137 ], [ 31.538644532787803, 60.113849674805785 ], [ 31.575354274908243, 60.123650745254359 ], [ 31.619528186098087, 60.134015165259939 ], [ 31.669529386789314, 60.159170651269513 ], [ 31.728391558663315, 60.208169470013488 ], [ 31.760867240812399, 60.203728336763568 ], [ 31.798799185792646, 60.209774005880583 ], [ 31.837996983670681, 60.196788565393931 ], [ 31.896051629393067, 60.19445990826928 ], [ 31.945769104388329, 60.203581418878407 ], [ 31.99160171881768, 60.197692853481385 ], [ 32.00000000013695, 60.196042576209862 ], [ 32.032501871769824, 60.189655115774322 ], [ 32.08163006990501, 60.203332787141868 ], [ 32.097147684005563, 60.173211735912226 ], [ 32.146188581166498, 60.162497608546317 ], [ 32.171003668626156, 60.134411553524309 ], [ 32.222947299151187, 60.11173044549556 ], [ 32.286043531894862, 60.094329462876438 ], [ 32.368869615038939, 60.105655319868212 ], [ 32.443969627987478, 60.123718719101703 ], [ 32.490893496061048, 60.146550037459512 ], [ 32.500000000167162, 60.15077811961374 ], [ 32.540632795626138, 60.169636978599755 ], [ 32.57051129557523, 60.200541197996827 ], [ 32.610756696161189, 60.24285282244157 ], [ 33.000000000197382, 60.24285282244157 ], [ 33.500000000227594, 60.24285282244157 ], [ 34.000000000257799, 60.24285282244157 ], [ 34.448753679815766, 60.24285282244157 ], [ 34.500000000288011, 60.242852625939165 ], [ 35.000000000318224, 60.242850711827082 ], [ 35.500000000348443, 60.242848797714849 ], [ 36.000000000378648, 60.242846883602553 ], [ 36.500000000408861, 60.242844969490129 ], [ 37.000000000439073, 60.242843055377605 ], [ 37.39732380586446, 60.242841534269921 ], [ 37.499999999570967, 60.242842153699286 ], [ 37.999999999601187, 60.242845169565364 ], [ 38.499999999631399, 60.242848185877783 ], [ 38.999999999661611, 60.242851201743314 ], [ 39.268651732497304, 60.24285282244157 ], [ 39.499999999691823, 60.24285282244157 ], [ 39.999999999722029, 60.24285282244157 ], [ 40.499999999752248, 60.24285282244157 ], [ 40.99999999978246, 60.24285282244157 ], [ 41.499999999812673, 60.24285282244157 ], [ 41.999999999842885, 60.24285282244157 ], [ 42.49999999987309, 60.24285282244157 ], [ 42.928127298699003, 60.24285282244157 ], [ 42.999999999903309, 60.24285282244157 ], [ 43.499999999933515, 60.24285282244157 ], [ 43.999999999963734, 60.24285282244157 ], [ 44.499999999993946, 60.24285282244157 ], [ 45.000000000024151, 60.24285282244157 ], [ 45.500000000054371, 60.24285282244157 ], [ 46.000000000084583, 60.24285282244157 ], [ 46.500000000114795, 60.24285282244157 ], [ 47.000000000145008, 60.24285282244157 ], [ 47.500000000175213, 60.24285282244157 ], [ 47.916248352281407, 60.24285282244157 ], [ 48.000000000205432, 60.24285282244157 ], [ 48.500000000235644, 60.24285282244157 ], [ 49.000000000265857, 60.24285282244157 ], [ 50.998825809783881, 60.24285282244157 ], [ 50.998825809783881, 59.000000000010452 ], [ 50.998825809783881, 58.500000000061064 ], [ 50.998825809783881, 57.999999999985022 ], [ 50.998825809783881, 57.50000000018067 ], [ 50.998825809783881, 57.314940143053576 ], [ 50.998825809783881, 56.999999999884416 ], [ 50.998825809783881, 56.499999999986564 ], [ 50.998825809783881, 56.000000000175547 ], [ 50.998825809783881, 55.500000000025729 ], [ 50.998825809783881, 55.451426877340914 ], [ 50.998825809783881, 54.999999999764796 ], [ 50.998825809783881, 54.499999999751346 ], [ 50.998825809783881, 53.99999999987628 ], [ 50.998825809783881, 53.499999999893774 ], [ 50.998825809783881, 53.085562902000127 ], [ 50.998825809783881, 52.999999999855014 ], [ 50.998825809783881, 52.500000000004945 ], [ 50.998825809783881, 51.999999999749583 ], [ 50.998825809783881, 51.500000000093614 ], [ 50.998825809783881, 50.999999999968175 ], [ 50.998825809783881, 50.499999999891088 ], [ 50.998825809783881, 50.000000000210534 ], [ 50.998825809783881, 49.544002718935261 ], [ 50.998825809783881, 49.499999999800124 ], [ 50.998825809783881, 49.000000000276607 ], [ 50.998825809783881, 48.500000000192749 ], [ 50.998825809783881, 48.000000000254126 ], [ 50.998825809783881, 47.500000000208502 ], [ 50.998825809783881, 47.000287049101338 ], [ 50.998079494835729, 47.000000000202057 ], [ 50.981499515113875, 46.993682347978904 ], [ 50.922514993596486, 46.970530450570408 ], [ 50.86535352299817, 46.947547527146689 ], [ 50.811653731906766, 46.922798406405882 ], [ 50.592551528634068, 46.817459291826651 ], [ 50.502261080587871, 46.78511633067037 ], [ 50.445232088137757, 46.824970659370543 ], [ 50.402367587357197, 46.805054489416108 ], [ 50.346451674917752, 46.736587071457905 ], [ 50.328751516697857, 46.78470846023157 ], [ 50.293809527902525, 46.786893443749243 ], [ 50.263603586642482, 46.72216555481409 ], [ 50.239683274206399, 46.670980895293731 ], [ 50.207949575329174, 46.675097316155984 ], [ 50.180973748557058, 46.733612677875065 ], [ 50.123115402690551, 46.692420778112876 ], [ 50.063074545942364, 46.603248251499195 ], [ 50.024509589622433, 46.558167657064665 ], [ 50.001178555843055, 46.553398577220854 ], [ 49.952355801972473, 46.55714365685143 ], [ 49.906435785957548, 46.536527865475904 ], [ 49.873463335456343, 46.499999999857828 ], [ 49.872104900388756, 46.49850842314865 ], [ 49.832339563982217, 46.470221615088661 ], [ 49.773280837130777, 46.487001005349128 ], [ 49.764201594198589, 46.45856297061578 ], [ 49.789715138859641, 46.404839793153599 ], [ 49.765576575335402, 46.395972817987328 ], [ 49.722995801149118, 46.441222805285527 ], [ 49.703353208603843, 46.418239256227857 ], [ 49.704706365170821, 46.37756558207326 ], [ 49.654224903569137, 46.391102632935578 ], [ 49.605904126482685, 46.359210288232639 ], [ 49.563432477840479, 46.375122446798464 ], [ 49.533619387820487, 46.36965407721862 ], [ 49.544684714217709, 46.33530419662749 ], [ 49.558150802584777, 46.317939131908226 ], [ 49.522619536031058, 46.295107205870316 ], [ 49.458497385012102, 46.314503306439747 ], [ 49.416702314204244, 46.354307705002682 ], [ 49.427265663817323, 46.420578735543081 ], [ 49.384837665213105, 46.468203673737825 ], [ 49.341143810117828, 46.454235711073835 ], [ 49.370716823581517, 46.420578735543081 ], [ 49.37890123669289, 46.36275965621634 ], [ 49.396186718204603, 46.296942268224726 ], [ 49.364016517151036, 46.292048630667566 ], [ 49.342998943468956, 46.360723161886305 ], [ 49.323050799759571, 46.401409463566367 ], [ 49.281015653293714, 46.444026073157644 ], [ 49.221083922089605, 46.456602677540822 ], [ 49.185050677853432, 46.440046261817294 ], [ 49.236296018263715, 46.399912259921742 ], [ 49.238784080309514, 46.362206900854567 ], [ 49.215605821213877, 46.357435516598223 ], [ 49.205806350409389, 46.386944457119689 ], [ 49.174596453784439, 46.404069441457786 ], [ 49.129636743096448, 46.400551847252778 ], [ 49.135158494010135, 46.374075354615492 ], [ 49.172719494965172, 46.3109944643003 ], [ 49.143299257083548, 46.321869682371862 ], [ 49.085244484698705, 46.352270893630319 ], [ 49.041463329527495, 46.383716562070362 ], [ 49.048796563754344, 46.341736449888224 ], [ 49.078849729432342, 46.275981007089747 ], [ 49.0863139146714, 46.233523944118218 ], [ 49.060996795630373, 46.199088024307109 ], [ 49.035679677487664, 46.150175331472909 ], [ 49.000955939780503, 46.095649855022508 ], [ 49.000000000265857, 46.09531796758823 ], [ 48.923738727064688, 46.068834741077531 ], [ 48.92668511585665, 46.044537758847902 ], [ 48.86155901037111, 46.050770280321402 ], [ 48.855142430534904, 46.014564957272015 ], [ 48.770744760072617, 46.028075231736281 ], [ 48.680432486558281, 46.01251543799863 ], [ 48.710753609804051, 46.000000000240469 ], [ 48.780391455295067, 45.971505709390492 ], [ 48.754310457445449, 45.948780402012346 ], [ 48.716269304276103, 45.943435324657791 ], [ 48.688005796443115, 45.977748080986892 ], [ 48.63743703476549, 45.995034300596778 ], [ 48.600792687302786, 45.976978710637425 ], [ 48.628466917377381, 45.946224125551161 ], [ 48.679319405649288, 45.955286751695944 ], [ 48.701188158215906, 45.908461662059565 ], [ 48.69987865258522, 45.867677065612796 ], [ 48.682331269947369, 45.836162881552433 ], [ 48.669672710426852, 45.790518412495231 ], [ 48.697085039375303, 45.734266480979066 ], [ 48.673819480203733, 45.699218635193667 ], [ 48.615109954554391, 45.740404504657285 ], [ 48.626087981773992, 45.78527453254901 ], [ 48.654111413050657, 45.840339616430512 ], [ 48.590905916422351, 45.943217443504189 ], [ 48.545116851419657, 45.966177358192212 ], [ 48.51582756455025, 45.942084448990997 ], [ 48.500000000235644, 45.924608735102829 ], [ 48.481998655765594, 45.904726145730123 ], [ 48.451007010228814, 45.883645534677832 ], [ 48.452251041251714, 45.828943807901936 ], [ 48.42597361778207, 45.794319915387085 ], [ 48.449915754787966, 45.708015492234132 ], [ 48.436798868521294, 45.695892097368151 ], [ 48.411656350530464, 45.740462819368389 ], [ 48.398539464263777, 45.783002029969744 ], [ 48.361327664510824, 45.773605117415791 ], [ 48.328197159028647, 45.755462382340504 ], [ 48.302836389949654, 45.721448799119713 ], [ 48.373506071817033, 45.694053662109482 ], [ 48.39461094557506, 45.653738708477654 ], [ 48.328830086825015, 45.676468726785082 ], [ 48.382214287180688, 45.618873814953155 ], [ 48.373069569640698, 45.58679403190947 ], [ 48.305149850945249, 45.634782626705103 ], [ 48.262721852341024, 45.706104519434255 ], [ 48.220839480558908, 45.696811292184641 ], [ 48.1781277553604, 45.729323494003623 ], [ 48.164596192385524, 45.691996293201896 ], [ 48.116951993133398, 45.722294653513288 ], [ 48.105995792280261, 45.685940474718329 ], [ 48.056234558550877, 45.712449864153939 ], [ 48.036024513715347, 45.746206571452873 ], [ 48.006276899201467, 45.717963160979146 ], [ 48.000000000205432, 45.717850288058891 ], [ 47.95112486557062, 45.716971391714267 ], [ 47.954114904400548, 45.765284969548418 ], [ 47.911315879126093, 45.791931262367413 ], [ 47.880913511347707, 45.835755378327839 ], [ 47.838223611617352, 45.868986130071676 ], [ 47.777528001604658, 45.934341692232522 ], [ 47.775345491621287, 45.891715272138015 ], [ 47.733266694219147, 45.885041465655647 ], [ 47.73365954545919, 45.830384787092029 ], [ 47.702798850934634, 45.792659521365458 ], [ 47.671239753107614, 45.739369398584884 ], [ 47.710153910629629, 45.673724683655685 ], [ 47.683723711577926, 45.62698217943894 ], [ 47.656202257983693, 45.5895715995877 ], [ 47.608885435363824, 45.533964694343574 ], [ 47.590312273689563, 45.590039386907094 ], [ 47.582913563956609, 45.638609413206026 ], [ 47.572961317570062, 45.661871195511097 ], [ 47.523200083840678, 45.676891998184274 ], [ 47.541707770907138, 45.583416908232749 ], [ 47.559146027102585, 45.517017128857617 ], [ 47.552200486887749, 45.500000000291124 ], [ 47.538412180014781, 45.466503069406272 ], [ 47.502357111208788, 45.436655983430953 ], [ 47.500000000175213, 45.438577185342595 ], [ 47.464730634747639, 45.467316198718315 ], [ 47.446506674275454, 45.444224559394094 ], [ 47.447270553084046, 45.377321326605433 ], [ 47.386531293033386, 45.205082741424278 ], [ 47.36627759815989, 45.201085516511014 ], [ 47.341266030282966, 45.228593535603331 ], [ 47.313373550018518, 45.21597884834658 ], [ 47.262979388492774, 45.142422204892469 ], [ 47.222602948859688, 45.062189149333257 ], [ 47.209565432341627, 45.000000000297035 ], [ 47.206605149307165, 44.984509598744239 ], [ 47.215051463544683, 44.903521790194389 ], [ 47.171379433917558, 44.819037847929145 ], [ 47.104136293056442, 44.806300541634009 ], [ 47.071114913118343, 44.850554927642349 ], [ 47.037329655269971, 44.833768367229212 ], [ 47.032942809835092, 44.80116294988462 ], [ 47.000000000145008, 44.765687191314278 ], [ 46.992653670277946, 44.757773014667677 ], [ 46.906313565490301, 44.678852407896272 ], [ 46.864409369138343, 44.680030642519988 ], [ 46.808886308837273, 44.59542705756791 ], [ 46.808462529500304, 44.500000000095532 ], [ 46.808340681116853, 44.472769077674499 ], [ 46.902319572193768, 44.41629492852968 ], [ 46.816350494076339, 44.324276387696493 ], [ 46.886234471666995, 44.30339109936169 ], [ 46.931543383557056, 44.328687588652322 ], [ 46.941757531968072, 44.377639134725221 ], [ 46.994836181159634, 44.382818315935914 ], [ 47.000000000145008, 44.380218176077094 ], [ 47.06980540748765, 44.34505762721566 ], [ 47.083991723727024, 44.250169863905477 ], [ 47.151758666840422, 44.223291065777182 ], [ 47.181964608100465, 44.250701832998871 ], [ 47.238622573880356, 44.236433714543239 ], [ 47.277951409008878, 44.163474884432816 ], [ 47.305778413767221, 44.080402323736223 ], [ 47.370795393708683, 44.051601614893158 ], [ 47.407110832013267, 44.001566660130194 ] ], [ [ 30.241120628185488, 59.086919973318565 ], [ 30.229972673170398, 59.085990977067326 ], [ 30.228114680667879, 59.069269044544647 ], [ 30.190954830617571, 59.067411052042161 ], [ 30.17980687560248, 59.051618115770779 ], [ 30.200244793130153, 59.019103246976769 ], [ 30.200244793130153, 59.018174250725501 ], [ 30.194670815622604, 58.99216235569029 ], [ 30.156581969321035, 58.983801389428969 ], [ 30.177019886848711, 58.95964748689628 ], [ 30.224398695662849, 58.963363471901317 ], [ 30.217895721904046, 59.010742280715455 ], [ 30.238333639431708, 59.020032243228023 ], [ 30.244836613190518, 59.055334100775802 ], [ 30.274564493230756, 59.07763001080599 ], [ 30.241120628185488, 59.086919973318565 ] ], [ [ 30.915200308098012, 58.221467065646955 ], [ 31.065697700801756, 58.169443275576548 ], [ 31.167887288440095, 58.145289373043845 ], [ 31.303520741123698, 58.15457933555642 ], [ 31.361118508701672, 58.134141418028761 ], [ 31.390846388741917, 58.173159260581564 ], [ 31.437296201304804, 58.22332505814947 ], [ 31.537627796440621, 58.232615020662067 ], [ 31.617521474048786, 58.184307215596675 ], [ 31.702989129164489, 58.1397153955363 ], [ 31.701131136661971, 58.227041043154522 ], [ 31.636101399073937, 58.288354795737526 ], [ 31.63981738407896, 58.342236578310455 ], [ 31.634243406571418, 58.379396428360756 ], [ 31.559923706470808, 58.332946615797873 ], [ 31.500467946390327, 58.377538435858256 ], [ 31.496751961385293, 58.407266315898504 ], [ 31.418716276279657, 58.409124308401012 ], [ 31.346254568681562, 58.42584624092364 ], [ 31.297949218750002, 58.47284577030662 ], [ 31.253354943555788, 58.42956222592867 ], [ 31.132585430892302, 58.377538435858256 ], [ 31.071271678309298, 58.321798660782797 ], [ 30.995093985706177, 58.306934720762669 ], [ 30.978372053183538, 58.306934720762669 ], [ 30.915200308098012, 58.221467065646955 ] ] ], [ [ [ 47.951539542278809, 45.59294835119546 ], [ 47.977336813534151, 45.543972758619574 ], [ 47.9945349940716, 45.515143507787052 ], [ 48.000000000205432, 45.502313369037942 ], [ 48.000985247256224, 45.500000000291124 ], [ 48.003134084789487, 45.494999088492193 ], [ 48.000000000205432, 45.480408848914529 ], [ 47.9945349940716, 45.454958272543486 ], [ 47.968737723714575, 45.474982260275233 ], [ 47.959333287056275, 45.500000000291124 ], [ 47.951539542278809, 45.520910547368608 ], [ 47.934341361741367, 45.552618633662341 ], [ 47.951539542278809, 45.59294835119546 ] ] ], [ [ [ 49.727251695571773, 46.348298891438311 ], [ 49.761648057544996, 46.351165164319546 ], [ 49.778846238082444, 46.336832289065896 ], [ 49.78744532790202, 46.308155194133761 ], [ 49.79174487326096, 46.270852353518364 ], [ 49.757348512186056, 46.276592915979336 ], [ 49.744449876109229, 46.316759911294064 ], [ 49.727251695571773, 46.348298891438311 ] ] ], [ [ [ 49.087819846820437, 46.193806220493741 ], [ 49.122587234565572, 46.18506531701712 ], [ 49.129112940844166, 46.174863395640187 ], [ 49.13345613624108, 46.157388727836036 ], [ 49.139136991368005, 46.148946769037885 ], [ 49.141383668012125, 46.145077047619417 ], [ 49.144325037018277, 46.138447881690574 ], [ 49.144771578766232, 46.135178497762801 ], [ 49.14465219535991, 46.133264803686139 ], [ 49.142376709744639, 46.125540984048754 ], [ 49.139981841621363, 46.120946961926442 ], [ 49.113900843771745, 46.138447881690574 ], [ 49.076950946043247, 46.153008236338948 ], [ 49.076950946043247, 46.171958637720962 ], [ 49.087819846820437, 46.193806220493741 ] ] ], [ [ [ 47.478589574354764, 44.48678670992566 ], [ 47.500000000175213, 44.48678670992566 ], [ 47.508686390969046, 44.48678670992566 ], [ 47.538783206685004, 44.455149902279935 ], [ 47.530184116865435, 44.429828024355665 ], [ 47.508686390969046, 44.439325023553145 ], [ 47.500000000175213, 44.444806267978088 ], [ 47.478589574354764, 44.45831436003391 ], [ 47.478589574354764, 44.48678670992566 ] ] ], [ [ [ 48.566199900607849, 45.822859260067041 ], [ 48.585755192178873, 45.815609331157219 ], [ 48.583498258570849, 45.802692350875851 ], [ 48.581476162544391, 45.794028185190719 ], [ 48.579521288348964, 45.780729434778735 ], [ 48.579251311368417, 45.767645628775995 ], [ 48.579984853171545, 45.755101944747331 ], [ 48.580331654075188, 45.751102432182677 ], [ 48.581411996781966, 45.740010874665593 ], [ 48.570543096004769, 45.725459199967617 ], [ 48.550987804433753, 45.735637025322674 ], [ 48.553340113972112, 45.751349786611037 ], [ 48.557513509814029, 45.764731220240265 ], [ 48.559443721661651, 45.773995739879155 ], [ 48.558478615737833, 45.78358254666918 ], [ 48.557513509814029, 45.787998499144344 ], [ 48.566199900607849, 45.822859260067041 ] ] ], [ [ [ 49.153011427812096, 46.3028985128527 ], [ 49.17256671938312, 46.297073341472213 ], [ 49.192122010954137, 46.283993560753537 ], [ 49.202990911731334, 46.262196655689586 ], [ 49.220385518787133, 46.230184859663566 ], [ 49.202990911731334, 46.228726679638342 ], [ 49.189961325540594, 46.243277565521993 ], [ 49.183435620160317, 46.265096613301409 ], [ 49.157354623209017, 46.275281673512104 ], [ 49.146485722431819, 46.278180934463698 ], [ 49.153011427812096, 46.3028985128527 ] ] ], [ [ [ 48.028931356044822, 45.165243754497759 ], [ 48.050429081941218, 45.142232352284658 ], [ 48.020332265326935, 45.127845475682342 ], [ 48.000000000205432, 45.136350240729577 ], [ 47.985935904252031, 45.142232352284658 ], [ 47.9945349940716, 45.159491780381401 ], [ 48.000000000205432, 45.160405711955306 ], [ 48.028931356044822, 45.165243754497759 ] ] ], [ [ [ 48.511877220393387, 45.88965069477721 ], [ 48.522724296600757, 45.907051788388657 ], [ 48.537936392774867, 45.886742708742361 ], [ 48.538421346484363, 45.881530632247333 ], [ 48.538904554767271, 45.870798551579554 ], [ 48.538906300193865, 45.870190151121164 ], [ 48.537936392774867, 45.85916738838182 ], [ 48.537325290446638, 45.853103625460648 ], [ 48.537531755638291, 45.848526120395007 ], [ 48.538722097051604, 45.83972374970206 ], [ 48.54011890275823, 45.833033761651478 ], [ 48.529250001981033, 45.81850650529821 ], [ 48.525376482645591, 45.829084705111377 ], [ 48.522733681300537, 45.838797171852796 ], [ 48.522724296600757, 45.83884068489516 ], [ 48.521405187081356, 45.847807327094117 ], [ 48.520563611187214, 45.864953238866164 ], [ 48.520563611187214, 45.864971566939367 ], [ 48.511877220393387, 45.88965069477721 ] ] ], [ [ [ 27.491750111247555, 58.380026363147728 ], [ 27.49999999986504, 58.379053076215826 ], [ 27.527499628889441, 58.375808593041526 ], [ 27.56324914653133, 58.352601809449133 ], [ 27.539416135069512, 58.344159181683033 ], [ 27.519555291436063, 58.358932450854056 ], [ 27.507570909451445, 58.369575911346338 ], [ 27.504038953841526, 58.372426595723816 ], [ 27.49999999986504, 58.374924579980288 ], [ 27.491750111247555, 58.380026363147728 ] ] ], [ [ [ 49.157354623209017, 46.052379501737221 ], [ 49.194304520937514, 46.05530523846727 ], [ 49.205173422613022, 46.045079109052665 ], [ 49.205173422613022, 46.029011899261917 ], [ 49.194304520937514, 46.020259291838812 ], [ 49.170406033969577, 46.031938881688625 ], [ 49.157354623209017, 46.052379501737221 ] ] ], [ [ [ 49.235597614961229, 46.33339765828736 ], [ 49.25515290653226, 46.323238029360326 ], [ 49.266021807309457, 46.310164539159715 ], [ 49.276890708984965, 46.292718619124066 ], [ 49.283416414365242, 46.275281673512104 ], [ 49.281233904381878, 46.257824567705335 ], [ 49.274482745221484, 46.27075196089352 ], [ 49.268204318191145, 46.279637791080575 ], [ 49.260598270104083, 46.291269394742642 ], [ 49.252992221118724, 46.3028985128527 ], [ 49.246694588107601, 46.308952971045173 ], [ 49.235597614961229, 46.317429594828951 ], [ 49.235597614961229, 46.33339765828736 ] ] ], [ [ [ 48.846565165285163, 45.994003956660016 ], [ 48.883515063911979, 45.996906285887491 ], [ 48.89004076929227, 45.983873626700756 ], [ 48.8704636522531, 45.972289674211588 ], [ 48.857434066062361, 45.959251181562536 ], [ 48.848747675268534, 45.975178632256274 ], [ 48.846565165285163, 45.994003956660016 ] ] ], [ [ [ 27.781718421109339, 57.966874861755478 ], [ 27.817467938751228, 57.968978592349544 ], [ 27.83732878238467, 57.954249875982022 ], [ 27.83732878238467, 57.939515085716891 ], [ 27.805551433469475, 57.954249875982022 ], [ 27.781718421109339, 57.966874861755478 ] ] ], [ [ [ 49.070425240662956, 45.978081955657096 ], [ 49.092163042217351, 45.969386045782947 ], [ 49.107375138391461, 45.959251181562536 ], [ 49.111718333788374, 45.94330459644511 ], [ 49.089980532233987, 45.944757117429404 ], [ 49.068242729781275, 45.965044835406523 ], [ 49.070425240662956, 45.978081955657096 ] ] ], [ [ [ 27.587082157993152, 58.006920895298002 ], [ 27.585316725914726, 58.011340665065305 ], [ 27.585592594945219, 58.015444279983278 ], [ 27.5861995515484, 58.019547423023319 ], [ 27.587082157993152, 58.023965627609257 ], [ 27.606943001626593, 58.034614447557075 ], [ 27.618859507806658, 58.021835481943555 ], [ 27.587082157993152, 58.006920895298002 ] ] ], [ [ [ 49.163880328589293, 46.115116949194025 ], [ 49.196487031819203, 46.110747685998817 ], [ 49.202990911731334, 46.100531893606821 ], [ 49.198647716334428, 46.087404946412121 ], [ 49.170406033969577, 46.100531893606821 ], [ 49.163880328589293, 46.115116949194025 ] ] ] ] } },
{ "type": "Feature", "properties": { "OBJECTID": null, "YEAR": null, "OWNER_ID": null, "SHORT_NAME": null, "LONG_NAME": null, "VARIANTS": null, "SHAPE_LENG": null, "Shape__Are": null, "Shape__Len": null }, "geometry": { "type": "MultiPolygon", "coordinates": [ [ [ [ 29.638251208291372, 60.032777230428827 ], [ 29.674952294760857, 60.029107121781877 ], [ 29.711653381230356, 60.020665871893904 ], [ 29.729269902735716, 60.019197828435132 ], [ 29.765970989205208, 60.021032882758604 ], [ 29.752391587211495, 60.011490600276524 ], [ 29.765236967475808, 60.007086469900202 ], [ 29.782486478116475, 59.9993792417416 ], [ 29.798634956163053, 59.989102937530141 ], [ 29.794964847516106, 59.985065818018512 ], [ 29.794597836651413, 59.97882663331869 ], [ 29.790193706275073, 59.975156524671732 ], [ 29.787991641086894, 59.971119405160096 ], [ 29.777715336875435, 59.974422502942346 ], [ 29.753859630670267, 59.986533861477284 ], [ 29.739997555756368, 59.985600273543 ], [ 29.730003924465095, 60.001214296065065 ], [ 29.712754413824438, 60.001214296065065 ], [ 29.699542022695425, 59.992773046177092 ], [ 29.687797675025184, 59.980294676777461 ], [ 29.687797675025184, 59.991672013582999 ], [ 29.695504903183778, 59.9993792417416 ], [ 29.688898707619277, 60.011123589411838 ], [ 29.67128218611391, 60.024702991405547 ], [ 29.634581099644421, 60.03057516524067 ], [ 29.638251208291372, 60.032777230428827 ] ] ] ] } },
{ "type": "Feature", "properties": { "OBJECTID": null, "YEAR": null, "OWNER_ID": null, "SHORT_NAME": null, "LONG_NAME": null, "VARIANTS": null, "SHAPE_LENG": null, "Shape__Are": null, "Shape__Len": null }, "geometry": { "type": "MultiPolygon", "coordinates": [ [ [ [ 28.360466181769539, 60.034245273887628 ], [ 28.378082703274895, 60.033144241293556 ], [ 28.389093029215744, 60.02984114351127 ], [ 28.390928083539219, 60.017362774111653 ], [ 28.397534279103724, 60.007820491629595 ], [ 28.386890964027575, 60.001581306929772 ], [ 28.367806399063433, 60.010756578547152 ], [ 28.358998138310756, 60.02617103486434 ], [ 28.353125964475645, 60.031309186970056 ], [ 28.360466181769539, 60.034245273887628 ] ] ] ] } },
{ "type": "Feature", "properties": { "OBJECTID": null, "YEAR": null, "OWNER_ID": null, "SHORT_NAME": null, "LONG_NAME": null, "VARIANTS": null, "SHAPE_LENG": null, "Shape__Are": null, "Shape__Len": null }, "geometry": { "type": "MultiPolygon", "coordinates": [ [ [ [ 27.795342852312299, 59.99490170919232 ], [ 27.796810895771078, 60.003709969945 ], [ 27.796810895771078, 60.003709969945 ], [ 27.812959373817655, 60.010316165509508 ], [ 27.799379971823946, 60.023895567503232 ], [ 27.807454210847226, 60.032703828255912 ], [ 27.828006819270151, 60.034905893444083 ], [ 27.831676927917094, 60.023528556638517 ], [ 27.85112850374593, 60.016555350209337 ], [ 27.859202742769213, 60.006646056862571 ], [ 27.87718627513927, 60.005912035133186 ], [ 27.883058448974388, 60.014720295885851 ], [ 27.894802796644626, 60.010683176374208 ], [ 27.898105894426873, 59.998938828703977 ], [ 27.887462579350728, 59.988662524492526 ], [ 27.884526492433164, 60.000039861298049 ], [ 27.862138829686778, 60.000039861298049 ], [ 27.85479861239288, 59.990130567951297 ], [ 27.826538775811365, 59.980588285469231 ], [ 27.811491330358873, 59.98682747016904 ], [ 27.795342852312299, 59.99490170919232 ] ] ] ] } }
]
}
