{
"type": "FeatureCollection",
"name": "Salm-Salm",
"crs": { "type": "name", "properties": { "name": "urn:ogc:def:crs:OGC:1.3:CRS84" } },
"features": [
{ "type": "Feature", "properties": { "OBJECTID": 110.0, "YEAR": 1700.0, "OWNER_ID": 15025.0, "SHORT_NAME": "Salm", "LONG_NAME": "Principality of Salm-Salm", "VARIANTS": null, "SHAPE_LENG": 108040.7, "Shape__Are": 639856947.46630859, "Shape__Len": 108193.57013017569 }, "geometry": { "type": "MultiPolygon", "coordinates": [ [ [ [ 6.873439523011497, 48.422309225485336 ], [ 6.884190469601968, 48.422640648295491 ], [ 6.893404857780458, 48.427465992597583 ], [ 6.89812194188008, 48.437502021487511 ], [ 6.903146186026512, 48.458453609194009 ], [ 6.925371333504016, 48.479091782355603 ], [ 6.9306588558939, 48.486085365133704 ], [ 6.963634568177888, 48.49619677749147 ], [ 6.973409577857179, 48.500000000192749 ], [ 7.000000000422981, 48.510447385021877 ], [ 7.001810043736718, 48.511158473358705 ], [ 7.033579060777654, 48.512564458900179 ], [ 7.036365431769749, 48.514936970775636 ], [ 7.036875618257247, 48.515724479057582 ], [ 7.03810492140108, 48.517621943479057 ], [ 7.051028532439426, 48.537565581643477 ], [ 7.053169763038861, 48.540869153143525 ], [ 7.056308826086228, 48.54051491996438 ], [ 7.066401415371293, 48.537458065086625 ], [ 7.067781581583932, 48.536521819947339 ], [ 7.073048991592902, 48.53215629846197 ], [ 7.078555914016214, 48.530955822127723 ], [ 7.104313389904445, 48.518715184755713 ], [ 7.105366506471594, 48.502970756386048 ], [ 7.095975002858452, 48.500000000192749 ], [ 7.091983150247259, 48.498749696645163 ], [ 7.093299545956192, 48.473606509460055 ], [ 7.127547773942413, 48.450948045780144 ], [ 7.159645889686003, 48.434205311489251 ], [ 7.153327190283162, 48.410076140890645 ], [ 7.131496961069198, 48.386168043767569 ], [ 7.15615744128193, 48.371919549651551 ], [ 7.123423067687219, 48.363426702586452 ], [ 7.103962350749328, 48.352314046540172 ], [ 7.084348055135492, 48.346480380407627 ], [ 7.03500515605413, 48.348066156478211 ], [ 7.014491322549092, 48.337357566416721 ], [ 7.010849294570784, 48.337925062025576 ], [ 7.000000000422981, 48.339618893142074 ], [ 6.999199192771376, 48.339743915323034 ], [ 6.977895521840945, 48.348138897567331 ], [ 6.969163430155382, 48.357216133663037 ], [ 6.943822812983133, 48.373838968346888 ], [ 6.915366726116185, 48.399177194846786 ], [ 6.873439523011497, 48.422309225485336 ] ] ] ] } }
]
}
