{
"type": "FeatureCollection",
"name": "Salzburg",
"crs": { "type": "name", "properties": { "name": "urn:ogc:def:crs:OGC:1.3:CRS84" } },
"features": [
{ "type": "Feature", "properties": { "OBJECTID": 98.0, "YEAR": 1700.0, "OWNER_ID": 9652.0, "SHORT_NAME": "Salzburg", "LONG_NAME": "Archbishopric of Salzburg", "VARIANTS": null, "SHAPE_LENG": 1099194.0, "Shape__Are": 18004839778.996094, "Shape__Len": 1100756.0457663748 }, "geometry": { "type": "MultiPolygon", "coordinates": [ [ [ [ 13.575538885696329, 47.478890241756183 ], [ 13.563597888746671, 47.441475217137928 ], [ 13.582539696555653, 47.384891264007727 ], [ 13.591087682117024, 47.32817335989737 ], [ 13.651626754403251, 47.291235228986075 ], [ 13.68335757867157, 47.287404524095649 ], [ 13.718472437463541, 47.294381150569507 ], [ 13.748247553001532, 47.297847271971811 ], [ 13.780747476188555, 47.304997245001417 ], [ 13.815422850397447, 47.294250074211959 ], [ 13.840121913251641, 47.278751638617891 ], [ 13.859349386219289, 47.264283280536354 ], [ 13.850647581233504, 47.214042982689939 ], [ 13.88143351257022, 47.181651528526515 ], [ 13.955267008765988, 47.16931712102862 ], [ 13.980932939140265, 47.147604482469738 ], [ 13.957969842724857, 47.126671884519034 ], [ 13.926524683615204, 47.13182911396494 ], [ 13.888113685958553, 47.11106564456832 ], [ 13.895980469158507, 47.077367938805892 ], [ 13.876840893646465, 47.070464938060489 ], [ 13.879280035238517, 47.057299942423825 ], [ 13.864974795530252, 47.046004694854233 ], [ 13.860426124885141, 47.027198329524609 ], [ 13.838232127388441, 47.007433485862428 ], [ 13.833909627379041, 47.000000000202057 ], [ 13.820894440283993, 46.977821139311907 ], [ 13.810258900258045, 46.978662955788877 ], [ 13.779604765248237, 46.939083236951753 ], [ 13.759322577610559, 46.968865127972585 ], [ 13.732030552841582, 46.998456312476328 ], [ 13.71623415108418, 47.000000000202057 ], [ 13.696102645953946, 47.001985879693727 ], [ 13.660570276269057, 47.010039938137467 ], [ 13.628334043652218, 47.044643835547511 ], [ 13.530592558109442, 47.066530409894824 ], [ 13.499999999917415, 47.073292324626671 ], [ 13.443113049080027, 47.085863829883642 ], [ 13.381189598380804, 47.103874703407605 ], [ 13.331725550703604, 47.113564706021116 ], [ 13.286480559335891, 47.107251059311338 ], [ 13.279097209895978, 47.065433370546025 ], [ 13.258771023673997, 47.060884070719624 ], [ 13.221217022391658, 47.05674401463525 ], [ 13.166720869410993, 47.049165265750567 ], [ 13.109851497705399, 47.019922795460744 ], [ 13.018306751790917, 47.036536487242714 ], [ 12.999999999887205, 47.040975444423729 ], [ 12.973523220493078, 47.047394784102387 ], [ 12.948384672157486, 47.083875240929537 ], [ 12.927487155618177, 47.095337845752837 ], [ 12.855938981590047, 47.103655451947716 ], [ 12.736618777146543, 47.100615072811884 ], [ 12.732763936480797, 47.10039624090922 ], [ 12.708293962888675, 47.099007109021599 ], [ 12.686495501696408, 47.100556601833631 ], [ 12.640569308865594, 47.109925682639428 ], [ 12.621363810486427, 47.112147124373379 ], [ 12.600620113371532, 47.119643801811009 ], [ 12.570801049554897, 47.111723303476758 ], [ 12.502768755784668, 47.122726921934863 ], [ 12.499999999856989, 47.122892748201537 ], [ 12.438362215214749, 47.126584221841064 ], [ 12.405532677692099, 47.100483513940105 ], [ 12.375405974128318, 47.086024668642864 ], [ 12.354969917658883, 47.088802710586322 ], [ 12.314822953563446, 47.076826846196262 ], [ 12.286058653824179, 47.073887300671522 ], [ 12.255316670766108, 47.082252145999277 ], [ 12.222553057008898, 47.082412995731183 ], [ 12.181922659153422, 47.076797598187689 ], [ 12.132172946317555, 47.077982145570523 ], [ 12.131228053385957, 47.113462407732001 ], [ 12.10874839073059, 47.169083542411322 ], [ 12.086532418645406, 47.179535178195927 ], [ 12.066008464720367, 47.20272282632726 ], [ 12.049659618826169, 47.239548184382045 ], [ 12.029003819166878, 47.250875007043611 ], [ 12.007622868867529, 47.261660191564197 ], [ 12.00891934982492, 47.29917249300069 ], [ 12.03054201700429, 47.338593454331935 ], [ 12.031794549683037, 47.368677864730778 ], [ 12.074556449383422, 47.425468193380439 ], [ 12.095541863378338, 47.455401117538365 ], [ 12.160585658031032, 47.484765485495487 ], [ 12.193876653826925, 47.494051813942299 ], [ 12.234682845695298, 47.478307611529942 ], [ 12.255382593633234, 47.488610806443219 ], [ 12.325040981798161, 47.480803783560106 ], [ 12.323524758549231, 47.462587695870766 ], [ 12.286673932420156, 47.408308222622281 ], [ 12.257975555548017, 47.320837304367807 ], [ 12.281026549419028, 47.295109346195218 ], [ 12.32422793460081, 47.286268367347283 ], [ 12.37000030800721, 47.309831299342292 ], [ 12.411619546174618, 47.304604094995675 ], [ 12.451920329694474, 47.30959834319539 ], [ 12.485321197534454, 47.315407381388603 ], [ 12.4793442001977, 47.358772863042169 ], [ 12.486046348174515, 47.381634445817546 ], [ 12.499999999856989, 47.386577969852375 ], [ 12.522611508246611, 47.394587823846066 ], [ 12.543157436760128, 47.399268279116683 ], [ 12.557155036721248, 47.404849393169265 ], [ 12.578470064153475, 47.401419404075064 ], [ 12.608552819438611, 47.426543228647454 ], [ 12.627692395848969, 47.460598782370255 ], [ 12.601257366555988, 47.478089916381087 ], [ 12.618529131691623, 47.488901007551597 ], [ 12.64986441875719, 47.479105819108341 ], [ 12.670564166695124, 47.490018267913619 ], [ 12.655631787035871, 47.500000000208502 ], [ 12.621144067296573, 47.523268291511826 ], [ 12.606597110708282, 47.561435665315955 ], [ 12.615606555441213, 47.596183445851658 ], [ 12.584622855503122, 47.604691359519961 ], [ 12.572834040349115, 47.608413234341846 ], [ 12.573328088602553, 47.609105570002633 ], [ 12.581634357283903, 47.638387724798491 ], [ 12.594599167756135, 47.651051088373087 ], [ 12.626549734315992, 47.657578743631511 ], [ 12.655423905201026, 47.651182525209812 ], [ 12.671465111348082, 47.661842450526834 ], [ 12.742046418754445, 47.646917942486731 ], [ 12.73883817734537, 47.631989142164578 ], [ 12.748462900674276, 47.617056050538267 ], [ 12.774128831048555, 47.610654840131417 ], [ 12.754879383492424, 47.593581091197848 ], [ 12.758087624901499, 47.580772100370488 ], [ 12.764504106821333, 47.565824291231813 ], [ 12.786961795786535, 47.563688539747709 ], [ 12.803003001933588, 47.563688539747709 ], [ 12.815835966671568, 47.572231020628017 ], [ 12.831877172818622, 47.563688539747709 ], [ 12.831877172818622, 47.550872189755729 ], [ 12.833074989113413, 47.54637050282183 ], [ 12.841448498490411, 47.542324886818847 ], [ 12.849522499670211, 47.539404589670283 ], [ 12.867167826521806, 47.535915794495651 ], [ 12.883209032668859, 47.512404213574008 ], [ 12.908183861247288, 47.500000000208502 ], [ 12.910896593742271, 47.498665344142182 ], [ 12.960756177723905, 47.472603701480672 ], [ 12.999999999887205, 47.464742942403099 ], [ 13.004309151829794, 47.46387972345314 ], [ 13.03157920201029, 47.477698063435405 ], [ 13.049378348286298, 47.497678837389707 ], [ 13.048491163128547, 47.500000000208502 ], [ 13.038105555974209, 47.527425911389415 ], [ 13.0358641811869, 47.551794018530956 ], [ 13.056058521674631, 47.56333744856915 ], [ 13.064408738634626, 47.578578463413336 ], [ 13.04417044986825, 47.58341896526013 ], [ 13.047510537011576, 47.600159825959928 ], [ 13.062782644239924, 47.599999022644369 ], [ 13.070781272275811, 47.622682034087944 ], [ 13.087877243398554, 47.640535017571523 ], [ 13.090382307857732, 47.657403514823699 ], [ 13.07242934215731, 47.690875986429653 ], [ 13.052103155935331, 47.719659912047113 ], [ 13.024964951489084, 47.741386795102976 ], [ 12.999999999887205, 47.734605505242897 ], [ 12.982884253251799, 47.729955800453077 ], [ 12.934387072196364, 47.732667974013623 ], [ 12.853697607701054, 47.731720187562061 ], [ 12.85088490349473, 47.745293749888503 ], [ 12.790126088018647, 47.760904046220723 ], [ 12.752462215590537, 47.789022751738727 ], [ 12.7296089903209, 47.826543932161975 ], [ 12.709810186137606, 47.870509584513115 ], [ 12.695417048973734, 47.891213692828138 ], [ 12.666850517835845, 47.901024880700682 ], [ 12.64916124270561, 47.919871648148401 ], [ 12.683375157742939, 47.929125396092921 ], [ 12.678255155882182, 47.947439128344755 ], [ 12.658236610305664, 47.943576504886003 ], [ 12.637690681792145, 47.956557252107999 ], [ 12.634482440383072, 47.968213896651761 ], [ 12.609541660648858, 47.970086262028673 ], [ 12.584732727547209, 47.965731819621453 ], [ 12.549332202698254, 47.991301625350623 ], [ 12.557111368716972, 48.000000000254126 ], [ 12.581546459828298, 48.027580367537141 ], [ 12.608618742305735, 48.055110778659092 ], [ 12.652457380671974, 48.054803503192716 ], [ 12.689527949092588, 48.075211357619018 ], [ 12.746243501373765, 48.089470078835575 ], [ 12.765119386315623, 48.089630923980089 ], [ 12.763976724782648, 48.081397937411907 ], [ 12.757032859925813, 48.071700908461729 ], [ 12.760197153056243, 48.04696004114691 ], [ 12.783050378325878, 48.034680268185703 ], [ 12.832316657401702, 48.014475905658159 ], [ 12.838699904350968, 48.000000000254126 ], [ 12.839194599391412, 47.998888848715133 ], [ 12.869694865569462, 47.995595870791682 ], [ 12.872485560153009, 48.000000000254126 ], [ 12.877627571636543, 48.008193360881783 ], [ 12.89626173969838, 48.021724038999679 ], [ 12.91434655113305, 48.017184923763018 ], [ 12.942935056859421, 48.036378243050684 ], [ 12.978511375721267, 48.018868836391142 ], [ 12.997892669011646, 48.021314071186978 ], [ 12.999999999887205, 48.022407507256858 ], [ 13.039006499728849, 48.042642697555223 ], [ 13.051553799308167, 48.030771785217212 ], [ 13.071572345782998, 48.024871898955439 ], [ 13.08150470885905, 48.011224894921966 ], [ 13.098664201652161, 48.000000000254126 ], [ 13.102819736291274, 47.997307665168613 ], [ 13.131144551447459, 47.998961378989542 ], [ 13.150965329320918, 47.993361747193084 ], [ 13.169885162541421, 47.993840495855025 ], [ 13.179356066445912, 47.98245086394995 ], [ 13.246948874734745, 47.998598727194576 ], [ 13.287139787108826, 47.999730192747684 ], [ 13.287441794419141, 48.000000000254126 ], [ 13.309465630339778, 48.019864514930312 ], [ 13.329747867384798, 48.011459208766617 ], [ 13.334032847459723, 48.001543861748132 ], [ 13.337740453352085, 48.000000000254126 ], [ 13.360204184385887, 47.990735802717928 ], [ 13.361513858001542, 47.992070596748121 ], [ 13.386309599343244, 47.981464127339542 ], [ 13.390440759993755, 47.961086674198363 ], [ 13.384529684625813, 47.947439128344755 ], [ 13.366598692615558, 47.945478810649497 ], [ 13.359435085467181, 47.962073802596564 ], [ 13.315552498822301, 47.973163178467381 ], [ 13.295336183746089, 47.965920519775324 ], [ 13.29968708668814, 47.896025042662821 ], [ 13.301686743697115, 47.835290584416661 ], [ 13.315991983405379, 47.815641285530823 ], [ 13.378354251239429, 47.80502168636567 ], [ 13.380200757170558, 47.804707213835087 ], [ 13.38447467628939, 47.804726875459771 ], [ 13.387188570306035, 47.801722145211592 ], [ 13.401339989691571, 47.7954747831307 ], [ 13.427269610636033, 47.7954747831307 ], [ 13.453177257890331, 47.7954747831307 ], [ 13.459378101921155, 47.805071527007314 ], [ 13.462494341472091, 47.805085795625885 ], [ 13.499999999917415, 47.796128795748068 ], [ 13.509079762075842, 47.793960157440502 ], [ 13.514913474531514, 47.797316015633712 ], [ 13.537844061815104, 47.792751337667568 ], [ 13.542884736148068, 47.791840189439824 ], [ 13.551632906778927, 47.790965291526895 ], [ 13.553476461744348, 47.790929900487583 ], [ 13.555577285223986, 47.789270362046473 ], [ 13.535141228754553, 47.766601869481363 ], [ 13.499999999917415, 47.773131957048733 ], [ 13.473745160094012, 47.778010200911794 ], [ 13.439663090790935, 47.778316136711588 ], [ 13.42776854662293, 47.755574098587658 ], [ 13.408393725694177, 47.764153777029904 ], [ 13.396615525033567, 47.768860423387018 ], [ 13.387188570306035, 47.77668445778059 ], [ 13.370685904089106, 47.77668445778059 ], [ 13.365983414019581, 47.765727564098789 ], [ 13.373059123712348, 47.756327846528059 ], [ 13.396615525033567, 47.75319422722616 ], [ 13.41546943628526, 47.746926419652794 ], [ 13.427269610636033, 47.735963219623336 ], [ 13.445663284424953, 47.732285774322115 ], [ 13.451089703425751, 47.725551860633807 ], [ 13.482776578517109, 47.713285935837668 ], [ 13.499999999917415, 47.713281666501857 ], [ 13.541623633541509, 47.71327134903995 ], [ 13.548897111835654, 47.682309207518983 ], [ 13.499999999917415, 47.662968918354466 ], [ 13.491764049559876, 47.659710640869733 ], [ 13.483809368904316, 47.636751632670041 ], [ 13.499999999917415, 47.625937976220655 ], [ 13.517451953624317, 47.614279366699186 ], [ 13.521451267642261, 47.588653804917769 ], [ 13.500531777412785, 47.581035330639835 ], [ 13.499999999917415, 47.580726723168254 ], [ 13.468251596517302, 47.5622987913138 ], [ 13.469877690912003, 47.527133132366515 ], [ 13.499999999917415, 47.504678008255887 ], [ 13.502443536966153, 47.502856013221567 ], [ 13.507989298050763, 47.500000000208502 ], [ 13.531537451041043, 47.487986867927482 ], [ 13.576145188325988, 47.480789270866104 ], [ 13.575538885696329, 47.478890241756183 ] ] ] ] } }
]
}
