{
"type": "FeatureCollection",
"name": "San Marino",
"crs": { "type": "name", "properties": { "name": "urn:ogc:def:crs:OGC:1.3:CRS84" } },
"features": [
{ "type": "Feature", "properties": { "OBJECTID": 82.0, "YEAR": 1700.0, "OWNER_ID": 5708.0, "SHORT_NAME": "San Marino", "LONG_NAME": "Republic of San Marino", "VARIANTS": null, "SHAPE_LENG": 53005.28, "Shape__Are": 174063400.68945312, "Shape__Len": 53112.847046214025 }, "geometry": { "type": "MultiPolygon", "coordinates": [ [ [ [ 12.488198708900319, 43.885532157093245 ], [ 12.486507807346074, 43.884193333919946 ], [ 12.473147460569409, 43.882633170440258 ], [ 12.448558268860983, 43.881201643782163 ], [ 12.423859206905105, 43.889886777964932 ], [ 12.404280145013351, 43.89435751688449 ], [ 12.396567182136128, 43.900484131345735 ], [ 12.398149328252183, 43.925836096319451 ], [ 12.40219259144709, 43.953265693461752 ], [ 12.412872078853367, 43.963128876366561 ], [ 12.42759482945455, 43.966967682947853 ], [ 12.452733377790139, 43.971047144552479 ], [ 12.46719243692282, 43.988181014735829 ], [ 12.492748496151327, 43.996705948768216 ], [ 12.499999999856989, 43.998037022386669 ], [ 12.510152106122897, 43.999900475070007 ], [ 12.51489854447107, 43.993687845887536 ], [ 12.507669015353885, 43.975575980754854 ], [ 12.506350559808011, 43.956783858350242 ], [ 12.51623897460542, 43.942613532146552 ], [ 12.512173736822035, 43.917477740618708 ], [ 12.500483433617031, 43.895258056444476 ], [ 12.499999999856989, 43.894875349107195 ], [ 12.488198708900319, 43.885532157093245 ] ] ] ] } }
]
}
