{
"type": "FeatureCollection",
"name": "Savoy",
"crs": { "type": "name", "properties": { "name": "urn:ogc:def:crs:OGC:1.3:CRS84" } },
"features": [
{ "type": "Feature", "properties": { "OBJECTID": 80.0, "YEAR": 1700.0, "OWNER_ID": 4705.0, "SHORT_NAME": "Savoy", "LONG_NAME": "Duchy of Savoy", "VARIANTS": "DuchÃ?Â© de Savoie", "SHAPE_LENG": 1946842.0, "Shape__Are": 69938884561.115234, "Shape__Len": 1950237.3970861288 }, "geometry": { "type": "MultiPolygon", "coordinates": [ [ [ [ 6.925119820495822, 45.181526366401954 ], [ 6.917670418831381, 45.181620537591158 ], [ 6.913304372988587, 45.169447872471665 ], [ 6.894655433030219, 45.156819979500177 ], [ 6.86889795714195, 45.149679959095501 ], [ 6.828594308894665, 45.151578211936148 ], [ 6.787171723621038, 45.15057068552467 ], [ 6.689955900741493, 45.132884949456198 ], [ 6.572335943924451, 45.104775031731414 ], [ 6.561387919537049, 45.080788769065983 ], [ 6.532756313541654, 45.0828209052451 ], [ 6.514524232299314, 45.096985359156925 ], [ 6.500000000392768, 45.095320844795708 ], [ 6.481109721745096, 45.093155897112581 ], [ 6.492694003983646, 45.05639745795051 ], [ 6.465642071940664, 45.044841561247615 ], [ 6.422398473127051, 45.063022753590687 ], [ 6.389664099532339, 45.075963981147851 ], [ 6.402564777479778, 45.098534609828206 ], [ 6.35245398142558, 45.124003488395168 ], [ 6.302057964878782, 45.11554435553181 ], [ 6.281960990988059, 45.104073566869261 ], [ 6.246198907711987, 45.116961603749836 ], [ 6.265374405055629, 45.131614167795682 ], [ 6.248370960407135, 45.142466017480274 ], [ 6.228822484354167, 45.139997878852114 ], [ 6.209361767416267, 45.153315787529579 ], [ 6.165876829015043, 45.168250898748916 ], [ 6.161444963611381, 45.189748783820306 ], [ 6.133296035892901, 45.251963363038413 ], [ 6.140316812707738, 45.308081362554191 ], [ 6.15688145818766, 45.324649664605175 ], [ 6.168290221297801, 45.349623929683247 ], [ 6.132901116731064, 45.426747013183217 ], [ 6.104401149857387, 45.434767311963654 ], [ 6.075133285112574, 45.459576476835331 ], [ 6.050779964048309, 45.465268833636138 ], [ 6.002183023283954, 45.471236474534194 ], [ 6.000000000362556, 45.471447578455319 ], [ 5.982064108042425, 45.473181991273833 ], [ 5.920281269736299, 45.4939976913804 ], [ 5.892066521558626, 45.496566456353399 ], [ 5.876094253923097, 45.487335768196502 ], [ 5.870214352790451, 45.457369080693923 ], [ 5.851082735453527, 45.441362857227048 ], [ 5.802485793790839, 45.432791402736996 ], [ 5.759856513274171, 45.444965382475978 ], [ 5.75568792611397, 45.46702579692856 ], [ 5.745573619158579, 45.48213920710743 ], [ 5.728745969421303, 45.500000000291124 ], [ 5.719004366290807, 45.510429900792055 ], [ 5.697437416218592, 45.528359980384046 ], [ 5.670253845053885, 45.569116689432406 ], [ 5.655144296959359, 45.587281418047169 ], [ 5.653009060817816, 45.587992788806432 ], [ 5.653650342048006, 45.58907713224157 ], [ 5.654785422698281, 45.590216192660819 ], [ 5.656401511657367, 45.591837907760556 ], [ 5.666545996616386, 45.601455103020456 ], [ 5.690723798552241, 45.604772677143615 ], [ 5.714924202100662, 45.643401718010708 ], [ 5.736183330067676, 45.655315656813947 ], [ 5.75623642485004, 45.648715537613946 ], [ 5.765775088676394, 45.644463821358613 ], [ 5.775126703497685, 45.639690213598357 ], [ 5.784101299885791, 45.646971754038958 ], [ 5.785350710020627, 45.647985387670246 ], [ 5.792631973115032, 45.677070499997832 ], [ 5.811481164618232, 45.686611754639415 ], [ 5.80347309079712, 45.734630990704694 ], [ 5.825303319112752, 45.775659462484498 ], [ 5.826444195693268, 45.778048817364024 ], [ 5.833267513825504, 45.825086456639426 ], [ 5.839845630512714, 45.833996710920459 ], [ 5.858695891011092, 45.858905531301218 ], [ 5.886427960013581, 45.923619156181566 ], [ 5.893448737726708, 45.972884898918714 ], [ 5.867464720198559, 45.994397641301219 ], [ 5.863232610469661, 45.997957838822686 ], [ 5.862542866028228, 46.000000000240469 ], [ 5.850755047105854, 46.035207784874679 ], [ 5.861591961570727, 46.077462626479743 ], [ 5.878298557933567, 46.10339317073003 ], [ 5.903845316005621, 46.100145642962289 ], [ 5.905405998674594, 46.099947241107884 ], [ 5.919301920125345, 46.090677060715038 ], [ 5.922431382877263, 46.08858913195958 ], [ 5.940685403673789, 46.087653481055895 ], [ 5.949110336210919, 46.104741206158025 ], [ 5.945990094665392, 46.115349574170601 ], [ 5.945621886908548, 46.116695059454088 ], [ 5.971686521945249, 46.125826745919049 ], [ 5.972706792512358, 46.131762090210835 ], [ 5.975855109105424, 46.150073110802488 ], [ 5.977785822212996, 46.150204537432828 ], [ 5.994569867726354, 46.151358160061321 ], [ 5.99354105777418, 46.152302922263253 ], [ 6.000000000362556, 46.152811761594606 ], [ 6.010278856220098, 46.153621526449861 ], [ 6.008655301362705, 46.146495256976905 ], [ 6.003367778972819, 46.129902639311247 ], [ 6.003740757682155, 46.114956213501678 ], [ 6.003872397702215, 46.109680889792564 ], [ 6.018308870493681, 46.112925054555653 ], [ 6.022828495910719, 46.127652900670554 ], [ 6.034105619000801, 46.1488172374236 ], [ 6.050823844054992, 46.160352661247003 ], [ 6.035663353399003, 46.173038816715021 ], [ 6.045360802536699, 46.185984709843609 ], [ 6.052206060223118, 46.184671286960892 ], [ 6.057556068525834, 46.183635761828675 ], [ 6.056352706032488, 46.173330753487072 ], [ 6.065268397192457, 46.171250360244336 ], [ 6.068551306567947, 46.170484304365317 ], [ 6.077656376962882, 46.1749217811698 ], [ 6.07939820221397, 46.175284861154417 ], [ 6.089350358768973, 46.177359320420358 ], [ 6.093233726334891, 46.1781328879744 ], [ 6.095690997726008, 46.15622063075115 ], [ 6.121558174080116, 46.152949827398182 ], [ 6.144792558118048, 46.148641996984864 ], [ 6.167237104730661, 46.150759447707699 ], [ 6.170747493587242, 46.162776251059931 ], [ 6.196461089468791, 46.168323823411704 ], [ 6.194179337206092, 46.183620525415982 ], [ 6.232288992305756, 46.23186171755907 ], [ 6.215022269413811, 46.23419465214505 ], [ 6.171138611078804, 46.234947363896225 ], [ 6.185140086372052, 46.23808751459589 ], [ 6.208571929990911, 46.263814238612575 ], [ 6.249797055683611, 46.294917870142434 ], [ 6.273272779309154, 46.320588644882541 ], [ 6.289223107390499, 46.329613491557041 ], [ 6.321233463120713, 46.333921599238643 ], [ 6.349755369548566, 46.331520162039048 ], [ 6.372221856613652, 46.30505366802192 ], [ 6.396772636360544, 46.302447083958661 ], [ 6.4273130168076, 46.324824686876291 ], [ 6.470271396925243, 46.346683819019638 ], [ 6.476458456308034, 46.355704331930582 ], [ 6.482404177001547, 46.371661149044066 ], [ 6.500000000392768, 46.38072471049842 ], [ 6.504453805350606, 46.383018614047778 ], [ 6.528258627678801, 46.38623201049117 ], [ 6.550198556460343, 46.381840805658811 ], [ 6.577316308064193, 46.386479186709238 ], [ 6.612266614360734, 46.39200401388846 ], [ 6.640174203389939, 46.396845044030549 ], [ 6.725652164456699, 46.399563390924563 ], [ 6.779734088090191, 46.397862623347855 ], [ 6.836492683148224, 46.387177090828274 ], [ 6.877959147530201, 46.379615986433414 ], [ 6.877783628401792, 46.378830734225474 ], [ 6.860121986348002, 46.352227247133968 ], [ 6.84074902942347, 46.336395695967049 ], [ 6.831819478156953, 46.318550569104353 ], [ 6.829428026326704, 46.301427715936988 ], [ 6.871113889843781, 46.268637558417339 ], [ 6.875721275274195, 46.237737605660165 ], [ 6.86246955817156, 46.221362277105129 ], [ 6.852311371209511, 46.177928550357237 ], [ 6.826839114915545, 46.166017269713386 ], [ 6.852728229925503, 46.135059158675837 ], [ 6.892044582064849, 46.143034008340969 ], [ 6.916507601798367, 46.142347574485548 ], [ 6.930812435468143, 46.135468153700224 ], [ 6.913962570393883, 46.121998928459725 ], [ 6.913896750833015, 46.0895393857462 ], [ 6.89952609760238, 46.067986502538872 ], [ 6.914686588258371, 46.05221858196937 ], [ 6.943164615577837, 46.055363751623226 ], [ 6.955933653505255, 46.065602590443206 ], [ 6.96567498175131, 46.062311743647697 ], [ 7.000000000422981, 46.013737925015789 ], [ 7.009702491804322, 46.000000000240469 ], [ 7.010542135422316, 45.998821739014481 ], [ 7.000000000422981, 45.994950457758904 ], [ 6.989479804079496, 45.991086961252066 ], [ 6.998957853183765, 45.978923890309538 ], [ 7.000000000422981, 45.97861974910564 ], [ 7.02298207464709, 45.971912210923065 ], [ 7.026029305617872, 45.94619167877093 ], [ 7.026887382665478, 45.938946802411756 ], [ 7.038734944045815, 45.922384041641955 ], [ 7.063461242921081, 45.892514911312233 ], [ 7.099267206203882, 45.871342368403639 ], [ 7.169080058783589, 45.880649980960108 ], [ 7.182638935034659, 45.874076642647566 ], [ 7.197228987400396, 45.885012384394827 ], [ 7.204491103802834, 45.899783829002416 ], [ 7.237357116519272, 45.926772204974029 ], [ 7.275225432929624, 45.932917952628308 ], [ 7.332971324095606, 45.919782945508096 ], [ 7.344994405502648, 45.906397711342002 ], [ 7.426413479875118, 45.951423699289741 ], [ 7.499999999554868, 45.977421459451122 ], [ 7.515884508075319, 45.983031767802075 ], [ 7.533963008845129, 45.985687934993528 ], [ 7.565279947821018, 46.000000000240469 ], [ 7.565337106724231, 46.000026357634283 ], [ 7.566797109809439, 46.000000000240469 ], [ 7.592103820071244, 45.999547272261076 ], [ 7.610248140401921, 45.987342531301664 ], [ 7.654094405464921, 46.000000000240469 ], [ 7.666853155885722, 46.003716275562134 ], [ 7.67362125547574, 46.000000000240469 ], [ 7.717227231980003, 45.976267396485767 ], [ 7.739320739437455, 45.958830065649302 ], [ 7.761567827367439, 45.95753765367769 ], [ 7.791471949963409, 45.958670330925095 ], [ 7.819840277715317, 45.945396215003996 ], [ 7.842117909263284, 45.952738322020515 ], [ 7.853291633569218, 45.93424437972606 ], [ 7.853737466546384, 45.932641917581037 ], [ 7.855470720971338, 45.930636987082735 ], [ 7.862184339536022, 45.921381399223705 ], [ 7.851565413851247, 45.89229682882219 ], [ 7.884255907439264, 45.875778223054432 ], [ 7.898385221082298, 45.789440544274704 ], [ 7.944151911746212, 45.775411779011577 ], [ 7.95681125100441, 45.740739816239198 ], [ 7.983770719455189, 45.74602001493195 ], [ 7.998738454109097, 45.748947035696183 ], [ 7.999999999585081, 45.744667939706261 ], [ 8.003160871032593, 45.733944986273791 ], [ 8.006916121770994, 45.728821188334386 ], [ 8.013120747709156, 45.724276026097264 ], [ 8.014528431115588, 45.723244783753962 ], [ 8.015470242825764, 45.722805197242302 ], [ 8.02404548417117, 45.71743660267537 ], [ 8.047785571205054, 45.714259584893064 ], [ 8.052206059445643, 45.713762603353707 ], [ 8.069970305274545, 45.712852124372262 ], [ 8.110017574339752, 45.687447612808967 ], [ 8.11283633139446, 45.677135158291122 ], [ 8.115458873933235, 45.624776236809389 ], [ 8.106046644389831, 45.571661168498721 ], [ 8.160567366293517, 45.562184589879571 ], [ 8.179781810994609, 45.556995011265876 ], [ 8.241794466198176, 45.578132165607975 ], [ 8.259411697340932, 45.606302584408525 ], [ 8.255888251471706, 45.674322339033623 ], [ 8.226291302397257, 45.747877597362276 ], [ 8.224795237343328, 45.749636672019449 ], [ 8.276827047394951, 45.742722488278595 ], [ 8.315419381669791, 45.70989722651165 ], [ 8.346574080413793, 45.643063928195048 ], [ 8.351400864080974, 45.618099440868981 ], [ 8.375863884712816, 45.555602685836334 ], [ 8.374330869256278, 45.500000000291124 ], [ 8.371015160593135, 45.380622573672497 ], [ 8.367833870439204, 45.339306652887231 ], [ 8.376587902577278, 45.287050943699938 ], [ 8.431328023616064, 45.241890593728222 ], [ 8.489051976126197, 45.210232033853451 ], [ 8.499999999615302, 45.205654283816848 ], [ 8.523623373934194, 45.195775265243739 ], [ 8.548401967335437, 45.144823423580114 ], [ 8.545717084410892, 45.145061701032382 ], [ 8.499999999615302, 45.147149183900311 ], [ 8.467962164420538, 45.1486120138836 ], [ 8.432337260176521, 45.141648184759909 ], [ 8.3939423854826, 45.154775894143704 ], [ 8.364411241595992, 45.151505203535073 ], [ 8.296595450792408, 45.177856282571661 ], [ 8.290946643961538, 45.178156600548441 ], [ 8.263948309899975, 45.171929324198047 ], [ 8.15034492822908, 45.184672020717187 ], [ 8.104796068241765, 45.170892966519133 ], [ 8.054443932599956, 45.133425388452935 ], [ 8.043605607780103, 45.082586994082078 ], [ 8.066510893115383, 45.067175966257849 ], [ 8.082527040757606, 45.044548976370542 ], [ 8.097248733143365, 45.01365817517101 ], [ 8.121147961221418, 45.000000000297035 ], [ 8.14189648767927, 44.986997978343993 ], [ 8.18656618176936, 44.96519286429762 ], [ 8.209442210772512, 44.956371995666274 ], [ 8.23936410833298, 44.953371377325183 ], [ 8.247304581233971, 44.953572269441132 ], [ 8.250279734081355, 44.953773160849074 ], [ 8.297077601758197, 44.94596597049582 ], [ 8.332222684367931, 44.94230324975463 ], [ 8.33029465362983, 44.940985517490141 ], [ 8.327552161746096, 44.884660084300862 ], [ 8.358794620503463, 44.878821823934615 ], [ 8.417725268256637, 44.881958154084586 ], [ 8.457721758253751, 44.888407193253023 ], [ 8.485431887702065, 44.859067034233959 ], [ 8.499648961358474, 44.826315037176641 ], [ 8.475317580746683, 44.802596368008182 ], [ 8.422727571950526, 44.781574678903759 ], [ 8.391221337283046, 44.768873732496374 ], [ 8.388047585790982, 44.767635835785363 ], [ 8.356929726058459, 44.756644728416688 ], [ 8.328012900468799, 44.734042099825182 ], [ 8.226211632611349, 44.69287667421186 ], [ 8.262763553312775, 44.572195085817796 ], [ 8.215614647379079, 44.554857979535299 ], [ 8.17623727537743, 44.548594260692404 ], [ 8.181102400039254, 44.539881888937977 ], [ 8.18065929434727, 44.523541466059044 ], [ 8.188635203091311, 44.505888625206865 ], [ 8.188635203091311, 44.500000000095532 ], [ 8.188635203091311, 44.493519231842541 ], [ 8.193066263604477, 44.475360480756599 ], [ 8.187180500066306, 44.47142012279626 ], [ 8.147118190508296, 44.436850489668885 ], [ 8.170264814532889, 44.392339084392013 ], [ 8.188694354457814, 44.337154869392066 ], [ 8.16506505215637, 44.328059737264688 ], [ 8.114230237339351, 44.316177584526564 ], [ 8.075462383936083, 44.311845953859503 ], [ 8.039546721085779, 44.306080681428234 ], [ 8.044241865631225, 44.28104828126596 ], [ 8.0974023127176, 44.255521573738271 ], [ 8.127723294029552, 44.223903917146721 ], [ 8.123401127295145, 44.213936215002363 ], [ 8.11418635733266, 44.192704832507935 ], [ 8.065062858284733, 44.149007847629676 ], [ 8.010717655509456, 44.109609060493028 ], [ 7.999999999585081, 44.102681386964917 ], [ 7.982941705601987, 44.091653567363721 ], [ 7.951896706425535, 44.077184977484222 ], [ 7.980177275062402, 44.030602652951536 ], [ 7.999999999585081, 44.00246820205242 ], [ 8.001738572036516, 44.000000000164377 ], [ 8.003850457370564, 43.997027014763731 ], [ 8.040885056348877, 43.984134851625079 ], [ 8.076383861381498, 43.9811963922362 ], [ 8.106397683544984, 43.940380029670791 ], [ 8.108701375361857, 43.931236251072406 ], [ 8.086244390675837, 43.929606757074012 ], [ 8.080793786332652, 43.92921125057029 ], [ 8.067585949236708, 43.918361853497224 ], [ 8.044241865631225, 43.916818666343978 ], [ 8.016860834885563, 43.910581207474117 ], [ 8.000274248953126, 43.895515351035627 ], [ 7.999999999585081, 43.895478826825581 ], [ 7.965740801372601, 43.890916043087302 ], [ 7.919426733968383, 43.870150883130187 ], [ 7.902400227769941, 43.895081165804264 ], [ 7.888270914126907, 43.929098748687011 ], [ 7.879341363758715, 43.960092991172544 ], [ 7.847857566312071, 43.975447507566244 ], [ 7.812139362144348, 43.988197070269663 ], [ 7.785061598147066, 44.000000000164377 ], [ 7.780501985123471, 44.002004193267716 ], [ 7.7474823928328, 44.021880543042826 ], [ 7.699872748176393, 44.040423593248534 ], [ 7.673808113139684, 44.00849549774864 ], [ 7.663280336811822, 44.000000000164377 ], [ 7.631420171312293, 43.974500012237868 ], [ 7.650222689946563, 43.950325695925848 ], [ 7.667928212905369, 43.926736156395926 ], [ 7.668015972020403, 43.908362570825389 ], [ 7.667291955054249, 43.886155543374329 ], [ 7.638111849424469, 43.873657408848423 ], [ 7.614855525832325, 43.859998128337203 ], [ 7.617268918115083, 43.833201341161512 ], [ 7.611783935245948, 43.804508107535277 ], [ 7.581835933541655, 43.792314916570596 ], [ 7.567208663075372, 43.804193374797649 ], [ 7.564418448192206, 43.806047674102025 ], [ 7.555529958917308, 43.822785145276811 ], [ 7.532831843052843, 43.825409555810317 ], [ 7.531439917893153, 43.825570489926342 ], [ 7.513058159358172, 43.811798641706858 ], [ 7.509574133360243, 43.828753553673451 ], [ 7.499999999554868, 43.831711491726239 ], [ 7.485563404592496, 43.836171413249147 ], [ 7.473294640243437, 43.834266434272578 ], [ 7.451205599209585, 43.831414458198935 ], [ 7.446631845805111, 43.82753312556946 ], [ 7.435350439547772, 43.817987594647441 ], [ 7.43987275541908, 43.811137886344369 ], [ 7.441648331273689, 43.808446223043589 ], [ 7.451062617060741, 43.793845975242448 ], [ 7.438045886660043, 43.77604933525329 ], [ 7.426511275866829, 43.760238541287173 ], [ 7.426063293221143, 43.758984682540216 ], [ 7.424474908305439, 43.753905247133474 ], [ 7.421244964497415, 43.743574992743149 ], [ 7.418721470201878, 43.734653599961383 ], [ 7.401847323665515, 43.72699652817699 ], [ 7.381224775146476, 43.717637185527536 ], [ 7.376001715861371, 43.711822687921966 ], [ 7.374148940587874, 43.709965450948076 ], [ 7.362734002458497, 43.69852174654131 ], [ 7.357390464720737, 43.697954582825666 ], [ 7.328056780415057, 43.696050681503102 ], [ 7.288828188289088, 43.684722823719788 ], [ 7.291131881004294, 43.676120603820479 ], [ 7.302123785398371, 43.661495593685338 ], [ 7.285054520290721, 43.653810375630684 ], [ 7.275905570787436, 43.659009308329679 ], [ 7.268599574378306, 43.657830708138235 ], [ 7.262873252819929, 43.674345131523125 ], [ 7.252122688013426, 43.684851927976048 ], [ 7.231521095393308, 43.685755651890894 ], [ 7.215812106899564, 43.674910060027884 ], [ 7.208440290929611, 43.657733835898135 ], [ 7.206728976058841, 43.645817344287138 ], [ 7.170220935364097, 43.638905334535096 ], [ 7.13827639919475, 43.631750237811801 ], [ 7.136462675483267, 43.637332431013476 ], [ 7.133252155946614, 43.653439006043129 ], [ 7.141896487618847, 43.725022117263606 ], [ 7.133252155946614, 43.745854762326083 ], [ 7.085401171702633, 43.792379352356342 ], [ 7.000000000422981, 43.811742056617383 ], [ 6.972805459031987, 43.817906451943095 ], [ 6.88375128864948, 43.810692334708008 ], [ 6.807246757957587, 43.794843961327949 ], [ 6.739189100255295, 43.798484307658477 ], [ 6.6235217969983, 43.814154576779593 ], [ 6.597917900684301, 43.835229630438555 ], [ 6.589229689005395, 43.887892526632491 ], [ 6.59991443425104, 43.91064551407019 ], [ 6.644737707915354, 43.923505519826506 ], [ 6.69155751514638, 43.940862087457994 ], [ 6.815714300958279, 43.939992434251494 ], [ 6.826896788711744, 43.964454640771464 ], [ 6.814462677598189, 44.000000000164377 ], [ 6.839147414120251, 44.031686758245648 ], [ 6.880306720252091, 44.068453601743052 ], [ 6.894633493476007, 44.086723330820703 ], [ 6.876708572280467, 44.109560583491337 ], [ 6.843688979989761, 44.120838552924091 ], [ 6.793161324321245, 44.117607264737671 ], [ 6.759022795902567, 44.131177480792971 ], [ 6.739518198957947, 44.151607656697408 ], [ 6.735305732689378, 44.174597218829248 ], [ 6.691667215612263, 44.172305125821602 ], [ 6.615826086121228, 44.18472744201749 ], [ 6.540347528646737, 44.216839604907193 ], [ 6.541839443484079, 44.276907395914058 ], [ 6.524111980971134, 44.328059737264688 ], [ 6.535849842783882, 44.344478235560089 ], [ 6.524770179274728, 44.373312074501307 ], [ 6.516213606717574, 44.392676785662609 ], [ 6.5307817195291, 44.417918423692598 ], [ 6.531175305591053, 44.421536888131143 ], [ 6.532140778027507, 44.430412078606075 ], [ 6.535257464939445, 44.459053244232209 ], [ 6.536551921094195, 44.458828367513227 ], [ 6.573411000944101, 44.462972384887507 ], [ 6.631398231697684, 44.474021649834469 ], [ 6.6611048947127, 44.483158186620912 ], [ 6.675008495860798, 44.500000000095532 ], [ 6.704918931816567, 44.536528686326776 ], [ 6.790089734633192, 44.580376651295957 ], [ 6.865431448292061, 44.60974635656823 ], [ 6.916990280973577, 44.621525598441004 ], [ 6.952818183810518, 44.620039186928899 ], [ 7.000000000422981, 44.643212669339633 ], [ 7.005013273444822, 44.645674405213626 ], [ 7.000000000422981, 44.668070809603442 ], [ 6.9862985148239, 44.729236685845663 ], [ 6.99858487447443, 44.864971664302374 ], [ 6.994504048225919, 44.892781190179797 ], [ 6.977303143996507, 44.92707007572335 ], [ 6.995074485617849, 44.970669012533264 ], [ 7.000000000422981, 44.974262314796555 ], [ 7.022170297667515, 44.99043336924106 ], [ 7.070240681046633, 44.967344844409922 ], [ 7.10299699419552, 44.954479931386047 ], [ 7.135446148195973, 44.956070134330275 ], [ 7.187509598708525, 44.981491288848005 ], [ 7.211854402845606, 45.000000000297035 ], [ 7.217808639568005, 45.004128540315733 ], [ 7.217611180885375, 45.032200523156071 ], [ 7.190822527984179, 45.0609606577992 ], [ 7.131080102353169, 45.074194789653873 ], [ 7.071973935471587, 45.08247003845721 ], [ 7.039327321890243, 45.085993231497319 ], [ 7.03307444204826, 45.114784579043672 ], [ 7.02289431553201, 45.1333961756145 ], [ 7.000000000422981, 45.147818434965032 ], [ 6.986495974404818, 45.156323565593269 ], [ 6.966157660028196, 45.18100758820772 ], [ 6.925119820495822, 45.181526366401954 ] ], [ [ 6.250850172250751, 46.233523944118218 ], [ 6.251925228372075, 46.219043377844521 ], [ 6.26820465605437, 46.208906153146785 ], [ 6.283365145812027, 46.206003205431195 ], [ 6.30050023048058, 46.215309597830696 ], [ 6.304910156330031, 46.226976812767809 ], [ 6.302562583608178, 46.235725586323461 ], [ 6.295805085935133, 46.244764511253926 ], [ 6.280205796110605, 46.231934623606861 ], [ 6.264935605887102, 46.233523944118218 ], [ 6.250850172250751, 46.233523944118218 ] ] ] ] } }
]
}
