{
"type": "FeatureCollection",
"name": "Saxe-Hildburghausen",
"crs": { "type": "name", "properties": { "name": "urn:ogc:def:crs:OGC:1.3:CRS84" } },
"features": [
{ "type": "Feature", "properties": { "OBJECTID": 63.0, "YEAR": 1700.0, "OWNER_ID": 4289.0, "SHORT_NAME": "Saxe-Hildburghausen", "LONG_NAME": "Duchy of Saxe-Hildburghausen", "VARIANTS": null, "SHAPE_LENG": 321146.1, "Shape__Are": 1652260482.3183594, "Shape__Len": 321599.78682413546 }, "geometry": { "type": "MultiPolygon", "coordinates": [ [ [ [ 10.859160407451695, 50.23222132907113 ], [ 10.833977911735778, 50.222794485420486 ], [ 10.768384760455918, 50.225174510966276 ], [ 10.753552138708965, 50.183903836481484 ], [ 10.720920369787692, 50.181521741351695 ], [ 10.668511771271604, 50.191446350285091 ], [ 10.633572706492528, 50.222001117227059 ], [ 10.623684291695119, 50.257293162899629 ], [ 10.612147807914532, 50.303648360433492 ], [ 10.610016490224258, 50.337451145837449 ], [ 10.626079485008528, 50.340528373936372 ], [ 10.645109190273114, 50.352793340776323 ], [ 10.630781975976369, 50.363117182348333 ], [ 10.637484123953181, 50.379119288073476 ], [ 10.654294429018941, 50.388093381829485 ], [ 10.645746501848064, 50.400042844000843 ], [ 10.661677778458856, 50.416440824405022 ], [ 10.659260610556966, 50.444034214318741 ], [ 10.654250479841981, 50.455574933911478 ], [ 10.655678886483683, 50.458259041561909 ], [ 10.690134438450976, 50.463929332292302 ], [ 10.714459938690899, 50.456811741238702 ], [ 10.74564140633205, 50.453206487628634 ], [ 10.768802271348832, 50.464179283277296 ], [ 10.773636607152609, 50.480462719078766 ], [ 10.774646123987434, 50.499999999891088 ], [ 10.774911114419835, 50.50518189628837 ], [ 10.821694302726646, 50.524121742036733 ], [ 10.870301354927848, 50.543239780758704 ], [ 10.885749256169094, 50.571995092256778 ], [ 10.897769173709721, 50.600030119147384 ], [ 10.919853300060653, 50.610701296736956 ], [ 10.918823651081995, 50.613749520357928 ], [ 10.968789965699168, 50.610727806082188 ], [ 10.979667221706819, 50.584675262720069 ], [ 10.968130737926232, 50.576120503620231 ], [ 10.974723014757274, 50.553034756020317 ], [ 10.985929884202237, 50.528941815514827 ], [ 10.99663664266391, 50.499999999891088 ], [ 10.997795982318452, 50.496898270016779 ], [ 10.999999999766354, 50.496196277516368 ], [ 11.03251267364052, 50.485839576191246 ], [ 11.028540381844637, 50.477555526824609 ], [ 11.022363199438397, 50.461337654025954 ], [ 10.999999999766354, 50.452646293117027 ], [ 10.992368341608865, 50.449679914379608 ], [ 10.974723014757274, 50.42742219223824 ], [ 10.942970215900477, 50.406207677795386 ], [ 10.939650453140453, 50.392268827816608 ], [ 10.920754244713608, 50.400635803031534 ], [ 10.822111813619562, 50.391031664336715 ], [ 10.798291721728159, 50.363262201336489 ], [ 10.759639007191486, 50.350512034380344 ], [ 10.749179261178433, 50.341636308304366 ], [ 10.75733171043537, 50.32662422746052 ], [ 10.754738748520587, 50.303727561107507 ], [ 10.760737719547503, 50.294235721842981 ], [ 10.795193351464855, 50.294671410870698 ], [ 10.839405552445363, 50.265299609708919 ], [ 10.839537398179612, 50.255760421814131 ], [ 10.859160407451695, 50.23222132907113 ] ] ], [ [ [ 11.195762045071334, 50.165055550606311 ], [ 11.200178870880508, 50.161070510083 ], [ 11.200178870880508, 50.150146345374289 ], [ 11.161921692648274, 50.150623088426123 ], [ 11.120412324728317, 50.158885878033374 ], [ 11.066026043791737, 50.167623804502405 ], [ 11.037020027172453, 50.158885878033374 ], [ 11.027285352747716, 50.157921863419908 ], [ 11.026110249456568, 50.165818363013351 ], [ 11.024758392751803, 50.168087134899935 ], [ 11.000894352581756, 50.191737440785481 ], [ 11.044249557187952, 50.194714400676915 ], [ 11.050841834018994, 50.18190553133995 ], [ 11.098306224687221, 50.181614380578331 ], [ 11.096086824488394, 50.196910615972087 ], [ 11.081803559368607, 50.216936470875822 ], [ 11.147264864914215, 50.222582922365746 ], [ 11.162097486661166, 50.199291939944388 ], [ 11.140518768658758, 50.185094839253182 ], [ 11.164998088323095, 50.169291771872473 ], [ 11.195762045071334, 50.165055550606311 ] ] ], [ [ [ 11.2406594827472, 50.193828312767103 ], [ 11.260212534818214, 50.195918362639972 ], [ 11.276319663832394, 50.193827947726682 ], [ 11.283966704740807, 50.181587912081497 ], [ 11.279945416134384, 50.169808035019436 ], [ 11.255773735318874, 50.164115587649846 ], [ 11.228008430447513, 50.173722706837275 ], [ 11.248280514733191, 50.17940422298706 ], [ 11.2406594827472, 50.193828312767103 ] ] ] ] } }
]
}
