{
"type": "FeatureCollection",
"name": "Saxe Meiningen",
"crs": { "type": "name", "properties": { "name": "urn:ogc:def:crs:OGC:1.3:CRS84" } },
"features": [
{ "type": "Feature", "properties": { "OBJECTID": 64.0, "YEAR": 1700.0, "OWNER_ID": 8247.0, "SHORT_NAME": "Meiningen", "LONG_NAME": "Duchy of Saxe-Meiningen", "VARIANTS": null, "SHAPE_LENG": 482940.3, "Shape__Are": 4010670584.0541987, "Shape__Len": 483668.47466308274 }, "geometry": { "type": "MultiPolygon", "coordinates": [ [ [ [ 10.423784493902076, 50.408341413112495 ], [ 10.40899582043377, 50.423143186734258 ], [ 10.37820988909705, 50.432635470114953 ], [ 10.362168682949997, 50.456127553859602 ], [ 10.34905005305335, 50.471493058751236 ], [ 10.288928491660041, 50.480883541004481 ], [ 10.253931411883284, 50.499999999891088 ], [ 10.250825132852219, 50.501714519660759 ], [ 10.23414667352071, 50.502790629435104 ], [ 10.227955028238393, 50.499999999891088 ], [ 10.209887096147909, 50.491941913365586 ], [ 10.201844436290054, 50.488168452794909 ], [ 10.194466443504181, 50.490972141631346 ], [ 10.189928319978822, 50.491175669361688 ], [ 10.186792153998251, 50.491087316488894 ], [ 10.163152534545745, 50.492308901027648 ], [ 10.162357936947698, 50.499999999891088 ], [ 10.16110424993381, 50.512261989560535 ], [ 10.149490657464181, 50.52071850244613 ], [ 10.144469738880947, 50.524374045046656 ], [ 10.16259849949258, 50.530163353026175 ], [ 10.181232667554417, 50.536987446314882 ], [ 10.176705971497787, 50.562243883055942 ], [ 10.147458237998482, 50.568705115225946 ], [ 10.132274027327423, 50.591584245125951 ], [ 10.13003265343843, 50.627028126991362 ], [ 10.127769305859273, 50.652911431058783 ], [ 10.121023209603814, 50.681493565339707 ], [ 10.118759861126341, 50.701910004786491 ], [ 10.116518487237348, 50.731823855697051 ], [ 10.127769305859273, 50.748438773228052 ], [ 10.152006908643591, 50.75492715887615 ], [ 10.161675581149456, 50.775575614241369 ], [ 10.124429217817633, 50.788517536614663 ], [ 10.124248113863095, 50.792521823646965 ], [ 10.122824029914538, 50.8239969853731 ], [ 10.12258338113139, 50.829313714210514 ], [ 10.124361843273009, 50.830752482523131 ], [ 10.141679009263104, 50.84475966743198 ], [ 10.147941671758522, 50.853304834828549 ], [ 10.158093777126114, 50.870904501542974 ], [ 10.162664422359702, 50.888761004652622 ], [ 10.182485200233161, 50.901829448008208 ], [ 10.210018941882161, 50.911760053092522 ], [ 10.250561442282036, 50.913498348016034 ], [ 10.303695190539868, 50.91098306646029 ], [ 10.327097772436669, 50.88634979038175 ], [ 10.36502533633328, 50.883108287733556 ], [ 10.400074273156443, 50.87364602059472 ], [ 10.427695911362731, 50.874753126389443 ], [ 10.431101916881603, 50.86314038982151 ], [ 10.421938656317518, 50.865012323045363 ], [ 10.425388614606613, 50.829010283552904 ], [ 10.395217962764187, 50.817135357122993 ], [ 10.378517528844196, 50.801178592424485 ], [ 10.399151353915006, 50.772986803184239 ], [ 10.389614528041706, 50.753077202512522 ], [ 10.365926280986235, 50.749099546232664 ], [ 10.349753229104932, 50.737045570324824 ], [ 10.386626028924171, 50.656738400128539 ], [ 10.399546891117758, 50.640859065826021 ], [ 10.455779009638894, 50.642978388019415 ], [ 10.470084249347163, 50.626153620022038 ], [ 10.469644763865766, 50.594766542779013 ], [ 10.483224853832287, 50.563650305289961 ], [ 10.49999999973614, 50.555731855295249 ], [ 10.502452326799936, 50.554574159869574 ], [ 10.504495850340861, 50.554574159869574 ], [ 10.516999283388222, 50.543624716708628 ], [ 10.544225385290074, 50.538474276500594 ], [ 10.559541441695384, 50.527122727393532 ], [ 10.562947450807517, 50.513709757138365 ], [ 10.562947450807517, 50.506483757305482 ], [ 10.561419598867232, 50.499999999891088 ], [ 10.559541441695384, 50.492112830761208 ], [ 10.559541441695384, 50.475754518241004 ], [ 10.542533368028247, 50.449179856419967 ], [ 10.525503320670946, 50.428725565957365 ], [ 10.534007357055357, 50.421563147468248 ], [ 10.545939377140382, 50.420536094241534 ], [ 10.559541441695384, 50.41746796691617 ], [ 10.590195527297849, 50.416440824405022 ], [ 10.59869956368226, 50.402111162487174 ], [ 10.622519655573663, 50.399041835896831 ], [ 10.645746501848064, 50.400042844000843 ], [ 10.654294429018941, 50.388093381829485 ], [ 10.637484123953181, 50.379119288073476 ], [ 10.630781975976369, 50.363117182348333 ], [ 10.645109190273114, 50.352793340776323 ], [ 10.626079485008528, 50.340528373936372 ], [ 10.610016490224258, 50.337451145837449 ], [ 10.597161365844848, 50.334988312318771 ], [ 10.558794316466841, 50.335265331259833 ], [ 10.54114898961525, 50.350815335835613 ], [ 10.506144001969048, 50.348006426229844 ], [ 10.49999999973614, 50.359625280646334 ], [ 10.497727862141931, 50.363921371529912 ], [ 10.478632234908533, 50.365516525845436 ], [ 10.466963905393694, 50.377089667258709 ], [ 10.456268812454299, 50.387296643534512 ], [ 10.470457811961431, 50.394588980594861 ], [ 10.4978377332877, 50.403968469509245 ], [ 10.493926315827045, 50.422721848112204 ], [ 10.468502103231105, 50.421549980179918 ], [ 10.431343637354885, 50.412173990613724 ], [ 10.423784493902076, 50.408341413112495 ] ] ], [ [ [ 11.321387294525357, 50.45581329593255 ], [ 11.33367246929803, 50.443336679941915 ], [ 11.327375966367544, 50.427917610069748 ], [ 11.327024158254508, 50.427182182936605 ], [ 11.320531864812901, 50.412569083985012 ], [ 11.315813991992449, 50.384294557420262 ], [ 11.313850811973905, 50.372699457843055 ], [ 11.309940273963916, 50.356313984921954 ], [ 11.3024259573421, 50.340272622194377 ], [ 11.294074861829754, 50.322309680531134 ], [ 11.285241211109719, 50.285098522873561 ], [ 11.257026267997622, 50.275523697846651 ], [ 11.225257518654637, 50.264429819711708 ], [ 11.180731654723003, 50.295806825200494 ], [ 11.146034305925633, 50.298262394869262 ], [ 11.132717907427613, 50.306948281150163 ], [ 11.172711052098634, 50.318826089423318 ], [ 11.162493022965604, 50.330357905954841 ], [ 11.133552929213444, 50.329988508836713 ], [ 11.136871041768288, 50.339736976417967 ], [ 11.120280478994067, 50.346437056775684 ], [ 11.073739007567278, 50.3371516520562 ], [ 11.04198620871048, 50.337270369140455 ], [ 11.041700543551814, 50.350103233659411 ], [ 11.003619160230789, 50.359122400396039 ], [ 10.999999999766354, 50.357722202755475 ], [ 10.98821520726819, 50.353162559610318 ], [ 10.96753743302042, 50.362748041931106 ], [ 10.960593568163587, 50.382993775791419 ], [ 10.939650453140453, 50.392268827816608 ], [ 10.942970215900477, 50.406207677795386 ], [ 10.974723014757274, 50.42742219223824 ], [ 10.992368341608865, 50.449679914379608 ], [ 10.999999999766354, 50.452646293117027 ], [ 11.022363199438397, 50.461337654025954 ], [ 11.028540381844637, 50.477555526824609 ], [ 11.03251267364052, 50.485839576191246 ], [ 11.032954790287386, 50.486761501634554 ], [ 11.036264332914417, 50.490636608579045 ], [ 11.039450379647766, 50.491626371528177 ], [ 11.043592307505273, 50.490252425902419 ], [ 11.045304321265323, 50.488878439530829 ], [ 11.062949648116915, 50.496293544144841 ], [ 11.073238685479895, 50.499999999891088 ], [ 11.089406651100061, 50.505885968719269 ], [ 11.099998241949049, 50.52408190474614 ], [ 11.099998241949049, 50.536907792969224 ], [ 11.114105713954254, 50.547606628055718 ], [ 11.140584706797243, 50.54331941190452 ], [ 11.160728710188026, 50.529359797239941 ], [ 11.162693648209583, 50.528040778158626 ], [ 11.181149165615921, 50.516591877346102 ], [ 11.194446446168065, 50.504627531898791 ], [ 11.19657875020852, 50.499999999891088 ], [ 11.198794492467512, 50.495241827190469 ], [ 11.204846421875374, 50.490836193331489 ], [ 11.207303363584781, 50.490669741243586 ], [ 11.210028390422742, 50.490839085608769 ], [ 11.211144023445451, 50.491008429936763 ], [ 11.242896822302249, 50.478292797019208 ], [ 11.26054214915384, 50.481475315248751 ], [ 11.274671594849213, 50.478292797019208 ], [ 11.297063360947288, 50.482777192477243 ], [ 11.302754692227062, 50.473939499773294 ], [ 11.321387294525357, 50.45581329593255 ] ] ] ] } }
]
}
