{
"type": "FeatureCollection",
"name": "Saxe-Eisenach",
"crs": { "type": "name", "properties": { "name": "urn:ogc:def:crs:OGC:1.3:CRS84" } },
"features": [
{ "type": "Feature", "properties": { "OBJECTID": 60.0, "YEAR": 1700.0, "OWNER_ID": 7935.0, "SHORT_NAME": "Eisenach", "LONG_NAME": "Duchy of Saxe-Eisenach", "VARIANTS": null, "SHAPE_LENG": 437271.9, "Shape__Are": 2649833209.2089839, "Shape__Len": 437921.03995824279 }, "geometry": { "type": "MultiPolygon", "coordinates": [ [ [ [ 10.124361843273009, 50.830752482523131 ], [ 10.074607537351099, 50.836023334462247 ], [ 10.072939573379317, 50.838551610634731 ], [ 10.056946281572888, 50.861545210545813 ], [ 10.035785074463393, 50.883016046366862 ], [ 10.060374265273502, 50.88385938779075 ], [ 10.065933751717338, 50.894571120430115 ], [ 10.112694966333983, 50.895308861079023 ], [ 10.140514373141647, 50.903001738912614 ], [ 10.142733773340474, 50.912365829704193 ], [ 10.128296687897958, 50.92071420973226 ], [ 10.119528960045047, 50.930917203125425 ], [ 10.095862687578059, 50.943894791981315 ], [ 10.066900619237421, 50.940473063169726 ], [ 10.040531513709878, 50.944750184626393 ], [ 10.006647212109858, 50.945447646700153 ], [ 9.999999999705929, 50.949343682537709 ], [ 9.977720002893818, 50.962420371653401 ], [ 9.999999999705929, 50.971732309329091 ], [ 10.004603606822242, 50.973653150367795 ], [ 10.026533912850439, 50.967918723676021 ], [ 10.043300269637557, 50.984265222255651 ], [ 10.02856383679628, 50.999999999968175 ], [ 10.02686352628775, 51.001834928435926 ], [ 10.0381802677768, 51.019728628600639 ], [ 10.070965856122488, 51.010882276875655 ], [ 10.109332905500494, 51.010922129141463 ], [ 10.134383556380479, 51.000639110568684 ], [ 10.149928626589375, 50.999999999968175 ], [ 10.160884507642272, 50.999554415136224 ], [ 10.161109068496996, 50.999999999968175 ], [ 10.169542364349411, 51.016912856971281 ], [ 10.139855145368712, 51.032317806782622 ], [ 10.136317290522328, 51.07757325136518 ], [ 10.147721928568666, 51.110484888866885 ], [ 10.202811386455144, 51.119245862766959 ], [ 10.205404348369925, 51.138379005718832 ], [ 10.195142370958246, 51.157901433561157 ], [ 10.19296691993638, 51.175258029257719 ], [ 10.238102039260008, 51.164760125644527 ], [ 10.253725734514148, 51.172782699548463 ], [ 10.257505299952346, 51.184588931093572 ], [ 10.285039047889551, 51.193296102016042 ], [ 10.314704292281771, 51.196140784567092 ], [ 10.339249534813234, 51.181545030637274 ], [ 10.360366794542401, 51.173934340371922 ], [ 10.388183196485437, 51.170039736534605 ], [ 10.430442693600243, 51.146075065311507 ], [ 10.448857119370542, 51.131410376226533 ], [ 10.470303991638703, 51.130204669798324 ], [ 10.476632577001244, 51.114355298237712 ], [ 10.487553782185856, 51.102252558223888 ], [ 10.492432066268277, 51.085531486198242 ], [ 10.49999999973614, 51.04437347284707 ], [ 10.502166661641269, 51.032583364440086 ], [ 10.514362373194796, 51.005355766610599 ], [ 10.514003575290534, 50.999999999968175 ], [ 10.509791727961204, 50.937761821480848 ], [ 10.49999999973614, 50.936151570285347 ], [ 10.490102795821995, 50.934523916497845 ], [ 10.485576098867051, 50.954171616300087 ], [ 10.466084935329215, 50.95398741641133 ], [ 10.450153600327933, 50.941604893754182 ], [ 10.430860204493159, 50.927810465156277 ], [ 10.422224322374499, 50.91509172835395 ], [ 10.427695911362731, 50.874753126389443 ], [ 10.400074273156443, 50.87364602059472 ], [ 10.36502533633328, 50.883108287733556 ], [ 10.327097772436669, 50.88634979038175 ], [ 10.303695190539868, 50.91098306646029 ], [ 10.250561442282036, 50.913498348016034 ], [ 10.210018941882161, 50.911760053092522 ], [ 10.182485200233161, 50.901829448008208 ], [ 10.162664422359702, 50.888761004652622 ], [ 10.158093777126114, 50.870904501542974 ], [ 10.147941671758522, 50.853304834828549 ], [ 10.141679009263104, 50.84475966743198 ], [ 10.124361843273009, 50.830752482523131 ] ] ], [ [ [ 10.149490657464181, 50.52071850244613 ], [ 10.092723214000616, 50.506013090597733 ], [ 10.065379494780299, 50.51923545367876 ], [ 10.0216295434888, 50.532454094105368 ], [ 10.027098287512528, 50.565484407259511 ], [ 10.043504519583706, 50.581990840688377 ], [ 10.05991075075657, 50.638069221592595 ], [ 10.03803577555998, 50.740156840180433 ], [ 10.054442006732845, 50.779614680081636 ], [ 10.124248113863095, 50.792521823646965 ], [ 10.124429217817633, 50.788517536614663 ], [ 10.161675581149456, 50.775575614241369 ], [ 10.152006908643591, 50.75492715887615 ], [ 10.127769305859273, 50.748438773228052 ], [ 10.116518487237348, 50.731823855697051 ], [ 10.118759861126341, 50.701910004786491 ], [ 10.121023209603814, 50.681493565339707 ], [ 10.127769305859273, 50.652911431058783 ], [ 10.13003265343843, 50.627028126991362 ], [ 10.132274027327423, 50.591584245125951 ], [ 10.147458237998482, 50.568705115225946 ], [ 10.176705971497787, 50.562243883055942 ], [ 10.181232667554417, 50.536987446314882 ], [ 10.16259849949258, 50.530163353026175 ], [ 10.144469738880947, 50.524374045046656 ], [ 10.149490657464181, 50.52071850244613 ] ] ], [ [ [ 10.201844436290054, 50.488168452794909 ], [ 10.20210821040356, 50.486998182855096 ], [ 10.198551676887474, 50.472110863087913 ], [ 10.197845204917117, 50.469756798135265 ], [ 10.19358219943067, 50.45633807420112 ], [ 10.181672153035811, 50.444060536319839 ], [ 10.153769463418158, 50.444060536319839 ], [ 10.127219949232106, 50.444060536319839 ], [ 10.119666958340678, 50.443897735602775 ], [ 10.10885342702265, 50.443734933748893 ], [ 10.104924650517447, 50.443765467600606 ], [ 10.094697832267673, 50.444420749182711 ], [ 10.084361582148304, 50.445639030969019 ], [ 10.081249808122648, 50.448153404862275 ], [ 10.072276840380143, 50.453782820645912 ], [ 10.055715723482622, 50.462469064331593 ], [ 10.038707649815484, 50.473729058200462 ], [ 10.048903704360038, 50.477806194725815 ], [ 10.064241734455511, 50.471677203792076 ], [ 10.077843798112198, 50.475767670371908 ], [ 10.093181828207671, 50.482921843531592 ], [ 10.106783891864358, 50.480870390304716 ], [ 10.122099947371352, 50.470651243584655 ], [ 10.132317976504382, 50.471664050516914 ], [ 10.151040041123512, 50.478818848119268 ], [ 10.157852060246093, 50.492112830761208 ], [ 10.163152534545745, 50.492308901027648 ], [ 10.186792153998251, 50.491087316488894 ], [ 10.189928319978822, 50.491175669361688 ], [ 10.194466443504181, 50.490972141631346 ], [ 10.201844436290054, 50.488168452794909 ] ] ] ] } }
]
}
