{
"type": "FeatureCollection",
"name": "Saxe Meiningen",
"crs": { "type": "name", "properties": { "name": "urn:ogc:def:crs:EPSG::3857" } },
"features": [
{ "type": "Feature", "properties": { "OBJECTID": 64.0, "YEAR": 1700.0, "OWNER_ID": 8247.0, "SHORT_NAME": "Meiningen", "LONG_NAME": "Duchy of Saxe-Meiningen", "VARIANTS": null, "SHAPE_LENG": 482940.3, "Shape__Are": 4010670584.0541987, "Shape__Len": 483668.47466308274 }, "geometry": { "type": "MultiPolygon", "coordinates": [ [ [ [ 1160370.382, 6517296.017125979997218 ], [ 1158724.1144, 6519881.852357289753854 ], [ 1155297.0402, 6521540.557404209859669 ], [ 1153511.3413, 6525647.052655730396509 ], [ 1152050.9821, 6528334.097854030318558 ], [ 1145358.280500000109896, 6529976.689937019720674 ], [ 1141462.4234, 6533321.567818869836628 ], [ 1141116.634, 6533621.629864560440183 ], [ 1139259.9964, 6533809.967873750254512 ], [ 1138570.7456, 6533321.567818869836628 ], [ 1136559.4326, 6531911.449453989975154 ], [ 1135664.1278, 6531251.198443030007184 ], [ 1134842.813400000100955, 6531741.761245029978454 ], [ 1134337.6318, 6531777.373724499717355 ], [ 1133988.5154, 6531761.914068469777703 ], [ 1131356.965, 6531975.66493675019592 ], [ 1131268.5108, 6533321.567818869836628 ], [ 1131128.950999999884516, 6535467.806492639705539 ], [ 1129836.1318, 6536948.290350370109081 ], [ 1129277.2057, 6537588.349240619689226 ], [ 1131295.29010000010021, 6538602.116358989849687 ], [ 1133369.6362, 6539797.244729720056057 ], [ 1132865.7267, 6544222.00150662008673 ], [ 1129609.8839, 6545354.346542529761791 ], [ 1127919.5853, 6549365.212906789965928 ], [ 1127670.0767, 6555582.616116110235453 ], [ 1127418.122, 6560125.908245329745114 ], [ 1126667.15, 6565145.835072440095246 ], [ 1126415.1952, 6568733.479921559803188 ], [ 1126165.686599999899045, 6573992.863663819618523 ], [ 1127418.122, 6576915.510747450403869 ], [ 1130116.2396, 6578057.131852109916508 ], [ 1131192.5513, 6581691.248203439638019 ], [ 1127046.3051, 6583969.837162270210683 ], [ 1127026.1447, 6584674.970267149619758 ], [ 1126867.6164, 6590219.679318300448358 ], [ 1126840.827499999897555, 6591156.650766559876502 ], [ 1127038.805, 6591410.224423419684172 ], [ 1128966.543099999893457, 6593879.309180499985814 ], [ 1129663.699500000104308, 6595385.953261559829116 ], [ 1130793.8267, 6598489.914416999556124 ], [ 1131302.6286, 6601640.370479770004749 ], [ 1133509.067499999888241, 6603946.825687750242651 ], [ 1136574.1096, 6605699.915376340039074 ], [ 1141087.2801, 6606006.822041739709675 ], [ 1147002.101899999892339, 6605562.737311960197985 ], [ 1149607.2654, 6601214.884945640340447 ], [ 1153829.3425, 6600642.920508950017393 ], [ 1157730.9723, 6598973.527282759547234 ], [ 1160805.799000000115484, 6599168.832404520362616 ], [ 1161184.9538, 6597120.454217789694667 ], [ 1160164.9043, 6597450.611244989559054 ], [ 1160548.9519, 6591103.174063630402088 ], [ 1157190.3703, 6589010.606682740151882 ], [ 1155331.2865, 6586199.586517719551921 ], [ 1157628.2334, 6581235.530987580306828 ], [ 1156566.5988, 6577731.618853610008955 ], [ 1153929.6352, 6577031.765466869808733 ], [ 1152129.2593, 6574911.277651179581881 ], [ 1156233.9206, 6560797.867900989949703 ], [ 1157672.2644, 6558010.047241220250726 ], [ 1163931.9952, 6558382.066934620030224 ], [ 1165524.4472, 6555429.157738270238042 ], [ 1165475.5239, 6549923.245626700110734 ], [ 1166987.2526, 6544468.466852130368352 ], [ 1168854.653299999888986, 6543080.911506130360067 ], [ 1169127.6451, 6542878.067285199649632 ], [ 1169355.1291, 6542878.067285199649632 ], [ 1170747.0049, 6540959.820004129782319 ], [ 1173777.8007, 6540057.661667590029538 ], [ 1175482.7763, 6538069.656161949969828 ], [ 1175861.9315, 6535721.24871408008039 ], [ 1175861.9315, 6534456.362405739724636 ], [ 1175691.8518, 6533321.567818869836628 ], [ 1175482.7763, 6531941.356509270146489 ], [ 1175482.7763, 6529079.475959659554064 ], [ 1173589.446199999889359, 6524432.359468230046332 ], [ 1171693.67, 6520857.29081941023469 ], [ 1172640.335, 6519605.784668969921768 ], [ 1173968.6014, 6519426.340769950300455 ], [ 1175482.7763, 6518890.309222579933703 ], [ 1178895.1735, 6518710.865238890051842 ], [ 1179841.8385, 6516207.848462180234492 ], [ 1182493.479, 6515671.815877090208232 ], [ 1185079.079699999885634, 6515846.629875790327787 ], [ 1186030.6306, 6513760.041308609768748 ], [ 1184159.316000000108033, 6512193.350671590305865 ], [ 1183413.2363, 6509400.450230129994452 ], [ 1185008.1345, 6507599.095710179768503 ], [ 1182889.7574, 6505459.553140079602599 ], [ 1181101.633, 6504922.837691119872034 ], [ 1179670.6071, 6504493.307061839848757 ], [ 1175399.606699999887496, 6504541.619455619715154 ], [ 1173435.3379, 6507254.008419630117714 ], [ 1169538.6005, 6506763.984291750006378 ], [ 1168854.653299999888986, 6508791.122246240265667 ], [ 1168601.7201, 6509540.78555217012763 ], [ 1166476.004600000102073, 6509819.155565559864044 ], [ 1165177.0921, 6511839.062073729932308 ], [ 1163986.519799999892712, 6513620.935335390269756 ], [ 1165566.031999999890104, 6514894.223109100013971 ], [ 1168613.9509, 6516532.22868017014116 ], [ 1168178.5339, 6519808.234311990439892 ], [ 1165348.3235, 6519603.484092149883509 ], [ 1161211.862, 6517965.481939880177379 ], [ 1160370.382, 6517296.017125979997218 ] ] ], [ [ [ 1260291.0687, 6525592.105858019553125 ], [ 1261658.648100000107661, 6523410.912085110321641 ], [ 1260957.7246, 6520716.10532349999994 ], [ 1260918.5615, 6520587.595891269855201 ], [ 1260195.8427, 6518034.498916270211339 ], [ 1259670.6515, 6513096.809173810295761 ], [ 1259452.1113, 6511072.7633215803653 ], [ 1259016.7922, 6508213.350952880457044 ], [ 1258180.3023, 6505414.944816189818084 ], [ 1257250.6626, 6502282.441805610433221 ], [ 1256267.3051, 6495797.064977220259607 ], [ 1253126.432, 6494129.129157929681242 ], [ 1249589.950999999884516, 6492196.993519090116024 ], [ 1244633.354499999899417, 6497662.850238430313766 ], [ 1240770.8633, 6498090.761160500347614 ], [ 1239288.4886, 6499604.552834689617157 ], [ 1243740.5051, 6501675.085967239923775 ], [ 1242603.0393, 6503685.801041239872575 ], [ 1239381.4428, 6503621.384512850083411 ], [ 1239750.813400000100955, 6505321.518038149923086 ], [ 1237903.9604, 6506490.214910009875894 ], [ 1232722.9875, 6504870.603270719759166 ], [ 1229188.2821, 6504891.308563039638102 ], [ 1229156.482, 6507129.776955720037222 ], [ 1224917.2818, 6508703.374611560255289 ], [ 1224514.3987, 6508459.058856249786913 ], [ 1223202.5216, 6507663.51206924021244 ], [ 1220900.6823, 6509336.03404526039958 ], [ 1220127.6948, 6512869.71950083039701 ], [ 1217796.3179, 6514489.088644729927182 ], [ 1218165.8722, 6516923.325174470432103 ], [ 1221700.5776, 6520629.535189329646528 ], [ 1223664.8464, 6524519.78060511033982 ], [ 1224514.3987, 6525038.387891420163214 ], [ 1227003.8587, 6526558.071958609856665 ], [ 1227691.4995, 6529394.513202410191298 ], [ 1228133.693, 6530843.735899579711258 ], [ 1228182.909200000111014, 6531005.034481460228562 ], [ 1228551.3258, 6531683.051329930312932 ], [ 1228905.9949, 6531856.236357879824936 ], [ 1229367.0722, 6531615.829456020146608 ], [ 1229557.6527, 6531375.422415840439498 ], [ 1231521.9215, 6532672.929703519679606 ], [ 1232667.2919, 6533321.567818869836628 ], [ 1234467.1016, 6534351.730248070321977 ], [ 1235646.1521, 6537537.195778509601951 ], [ 1235646.1521, 6539783.293751239776611 ], [ 1237216.5887, 6541657.364722380414605 ], [ 1240164.2167, 6540906.339638990350068 ], [ 1242406.6369, 6538461.398076919838786 ], [ 1242625.3728, 6538230.417319449596107 ], [ 1244679.8316, 6536225.807911830022931 ], [ 1246160.0781, 6534131.467809270136058 ], [ 1246397.445099999895319, 6533321.567818869836628 ], [ 1246644.100400000112131, 6532488.886134260334074 ], [ 1247317.7981, 6531717.973633210174739 ], [ 1247591.3036, 6531688.848701260052621 ], [ 1247894.652199999894947, 6531718.479709950275719 ], [ 1248018.8439, 6531748.110818340443075 ], [ 1251553.5493, 6529523.481941170059144 ], [ 1253517.8181, 6530080.214581039734185 ], [ 1255090.7008, 6529523.481941170059144 ], [ 1257583.340799999888986, 6530307.968793120235205 ], [ 1258216.8969, 6528762.000213280320168 ], [ 1260291.0687, 6525592.105858019553125 ] ] ] ] } }
]
}
