{
"type": "FeatureCollection",
"name": "Saxe-Coburg",
"crs": { "type": "name", "properties": { "name": "urn:ogc:def:crs:OGC:1.3:CRS84" } },
"features": [
{ "type": "Feature", "properties": { "OBJECTID": 59.0, "YEAR": 1700.0, "OWNER_ID": 7934.0, "SHORT_NAME": "Coburg", "LONG_NAME": "Duchy of Saxe-Coburg", "VARIANTS": null, "SHAPE_LENG": 648973.9, "Shape__Are": 3115330195.6625977, "Shape__Len": 649811.83041380544 }, "geometry": { "type": "MultiPolygon", "coordinates": [ [ [ [ 11.027285352747716, 50.157921863419908 ], [ 11.027462325350264, 50.156732527244145 ], [ 11.02590105428478, 50.142676745031608 ], [ 10.999999999766354, 50.139401941543731 ], [ 10.989863276251373, 50.138120242223344 ], [ 10.98491906840351, 50.121122227731277 ], [ 10.945936740429529, 50.108333282557219 ], [ 10.930400942630996, 50.124342115057395 ], [ 10.900252264478736, 50.122010037238383 ], [ 10.883991316040142, 50.138663336895448 ], [ 10.874058952964088, 50.152344621379079 ], [ 10.89763732797547, 50.163731653958848 ], [ 10.934576050661837, 50.177392493148481 ], [ 10.913898276414066, 50.208392786889867 ], [ 10.878014318703389, 50.220678807226939 ], [ 10.859160407451695, 50.23222132907113 ], [ 10.839537398179612, 50.255760421814131 ], [ 10.839405552445363, 50.265299609708919 ], [ 10.795193351464855, 50.294671410870698 ], [ 10.760737719547503, 50.294235721842981 ], [ 10.754738748520587, 50.303727561107507 ], [ 10.75733171043537, 50.32662422746052 ], [ 10.749179261178433, 50.341636308304366 ], [ 10.759639007191486, 50.350512034380344 ], [ 10.798291721728159, 50.363262201336489 ], [ 10.822111813619562, 50.391031664336715 ], [ 10.920754244713608, 50.400635803031534 ], [ 10.939650453140453, 50.392268827816608 ], [ 10.960593568163587, 50.382993775791419 ], [ 10.96753743302042, 50.362748041931106 ], [ 10.98821520726819, 50.353162559610318 ], [ 10.999999999766354, 50.357722202755475 ], [ 11.003619160230789, 50.359122400396039 ], [ 11.041700543551814, 50.350103233659411 ], [ 11.04198620871048, 50.337270369140455 ], [ 11.073739007567278, 50.3371516520562 ], [ 11.120280478994067, 50.346437056775684 ], [ 11.136871041768288, 50.339736976417967 ], [ 11.133552929213444, 50.329988508836713 ], [ 11.162493022965604, 50.330357905954841 ], [ 11.172711052098634, 50.318826089423318 ], [ 11.132717907427613, 50.306948281150163 ], [ 11.146034305925633, 50.298262394869262 ], [ 11.180731654723003, 50.295806825200494 ], [ 11.225257518654637, 50.264429819711708 ], [ 11.232700767757699, 50.259182594865941 ], [ 11.215538874666146, 50.241342297084309 ], [ 11.2406594827472, 50.193828312767103 ], [ 11.248280514733191, 50.17940422298706 ], [ 11.228008430447513, 50.173722706837275 ], [ 11.195762045071334, 50.165055550606311 ], [ 11.164998088323095, 50.169291771872473 ], [ 11.140518768658758, 50.185094839253182 ], [ 11.162097486661166, 50.199291939944388 ], [ 11.147264864914215, 50.222582922365746 ], [ 11.081803559368607, 50.216936470875822 ], [ 11.096086824488394, 50.196910615972087 ], [ 11.098306224687221, 50.181614380578331 ], [ 11.050841834018994, 50.18190553133995 ], [ 11.044249557187952, 50.194714400676915 ], [ 11.000894352581756, 50.191737440785481 ], [ 11.024758392751803, 50.168087134899935 ], [ 11.026110249456568, 50.165818363013351 ], [ 11.027285352747716, 50.157921863419908 ] ] ], [ [ [ 11.536187202696018, 50.749535651541258 ], [ 11.569983606840436, 50.746416749096767 ], [ 11.591268746424841, 50.747884111025257 ], [ 11.592686843102028, 50.753539267539232 ], [ 11.593803699630152, 50.738869727549371 ], [ 11.623556840579663, 50.734097686810216 ], [ 11.634851607480233, 50.720492705852571 ], [ 11.629380018492, 50.706288517838388 ], [ 11.575609016151397, 50.697795679503123 ], [ 11.537835272577516, 50.724869474152023 ], [ 11.519179129927199, 50.717266063419153 ], [ 11.525134152675472, 50.690875915910055 ], [ 11.531224856964258, 50.680004329828314 ], [ 11.515904965651, 50.678899521612074 ], [ 11.499999999796566, 50.677577296192275 ], [ 11.498250252303006, 50.677431832288462 ], [ 11.49920453173101, 50.683227258634062 ], [ 11.487272511645985, 50.691881528347658 ], [ 11.470572077725995, 50.684669748472359 ], [ 11.451498424182763, 50.674584620179061 ], [ 11.449103230869355, 50.664484073694972 ], [ 11.454750240171323, 50.663345319323277 ], [ 11.434776016572609, 50.650064174915435 ], [ 11.399001929109385, 50.629863538224036 ], [ 11.403770342944354, 50.596649300703689 ], [ 11.406143562567594, 50.586531903396747 ], [ 11.406143562567594, 50.572087951341977 ], [ 11.434776016572609, 50.547513720461886 ], [ 11.450653074466112, 50.542385343811596 ], [ 11.454943328550067, 50.541115673040004 ], [ 11.463408470577622, 50.538845976827275 ], [ 11.473954135057708, 50.534361482527459 ], [ 11.480130879086094, 50.528716092841165 ], [ 11.496831312107767, 50.511358772612603 ], [ 11.499999999796566, 50.50607134823214 ], [ 11.503638043746587, 50.499999999891088 ], [ 11.506368138879383, 50.495491612313756 ], [ 11.515904965651, 50.48115970313097 ], [ 11.513531746027757, 50.468270402081799 ], [ 11.499999999796566, 50.464207639878481 ], [ 11.49920453173101, 50.463968798597286 ], [ 11.463408470577622, 50.453930192213264 ], [ 11.444334817034388, 50.459666801101321 ], [ 11.43053498477633, 50.473308172229217 ], [ 11.430432353153433, 50.473984579777841 ], [ 11.428535327767355, 50.486485372419558 ], [ 11.44132434422669, 50.492415221862174 ], [ 11.438039820578636, 50.499999999891088 ], [ 11.434578247971235, 50.508077823385335 ], [ 11.422931893044876, 50.515648898668097 ], [ 11.412120559904347, 50.51246122640584 ], [ 11.392014115973907, 50.525077829158697 ], [ 11.362239000435917, 50.519659745569079 ], [ 11.344681571039931, 50.510282859145988 ], [ 11.338528779690284, 50.500465669990028 ], [ 11.309742505362539, 50.506151653729397 ], [ 11.290251341824705, 50.5044379599141 ], [ 11.290556543544172, 50.499999999891088 ], [ 11.291108337300702, 50.492060241079919 ], [ 11.297063360947288, 50.482777192477243 ], [ 11.274671594849213, 50.478292797019208 ], [ 11.26054214915384, 50.481475315248751 ], [ 11.242896822302249, 50.478292797019208 ], [ 11.211144023445451, 50.491008429936763 ], [ 11.210028390422742, 50.490839085608769 ], [ 11.207303363584781, 50.490669741243586 ], [ 11.204846421875374, 50.490836193331489 ], [ 11.198794492467512, 50.495241827190469 ], [ 11.19657875020852, 50.499999999891088 ], [ 11.194446446168065, 50.504627531898791 ], [ 11.181149165615921, 50.516591877346102 ], [ 11.162693648209583, 50.528040778158626 ], [ 11.160728710188026, 50.529359797239941 ], [ 11.140584706797243, 50.54331941190452 ], [ 11.138782802219971, 50.550951172556026 ], [ 11.150846668039245, 50.566303817011807 ], [ 11.16038349481086, 50.585099644024908 ], [ 11.141309841267629, 50.598094464802671 ], [ 11.155615080975895, 50.608209363804924 ], [ 11.174710709107607, 50.624086538022368 ], [ 11.188109950241131, 50.620966661426792 ], [ 11.194922189450958, 50.619619739241486 ], [ 11.203343163112622, 50.618308824731557 ], [ 11.20662435850255, 50.618118916404818 ], [ 11.226876051929592, 50.621948867254979 ], [ 11.243907638100975, 50.625530854977264 ], [ 11.249867934858282, 50.626762198966574 ], [ 11.257166024296263, 50.632698776964823 ], [ 11.263103467912741, 50.638487959799562 ], [ 11.27254009210599, 50.651507688921775 ], [ 11.303545765734246, 50.66737016722697 ], [ 11.332178219739259, 50.686112193726991 ], [ 11.346505434036009, 50.699078964351678 ], [ 11.372742694727615, 50.700520964204877 ], [ 11.407945450975191, 50.699621373311722 ], [ 11.411505280410054, 50.716380019951025 ], [ 11.421635412087484, 50.728981410461351 ], [ 11.441895675442337, 50.740297278754703 ], [ 11.475626156719628, 50.754160757277013 ], [ 11.48977831631696, 50.758616483620969 ], [ 11.492326589741301, 50.758309747308765 ], [ 11.499999999796566, 50.756774839377449 ], [ 11.536187202696018, 50.749535651541258 ] ] ], [ [ [ 10.655678886483683, 50.458259041561909 ], [ 10.654250479841981, 50.455574933911478 ], [ 10.659260610556966, 50.444034214318741 ], [ 10.661677778458856, 50.416440824405022 ], [ 10.645746501848064, 50.400042844000843 ], [ 10.622519655573663, 50.399041835896831 ], [ 10.59869956368226, 50.402111162487174 ], [ 10.590195527297849, 50.416440824405022 ], [ 10.559541441695384, 50.41746796691617 ], [ 10.545939377140382, 50.420536094241534 ], [ 10.534007357055357, 50.421563147468248 ], [ 10.525503320670946, 50.428725565957365 ], [ 10.542533368028247, 50.449179856419967 ], [ 10.559541441695384, 50.475754518241004 ], [ 10.559541441695384, 50.492112830761208 ], [ 10.561419598867232, 50.499999999891088 ], [ 10.562947450807517, 50.506483757305482 ], [ 10.562947450807517, 50.513709757138365 ], [ 10.559541441695384, 50.527122727393532 ], [ 10.544225385290074, 50.538474276500594 ], [ 10.516999283388222, 50.543624716708628 ], [ 10.504495850340861, 50.554574159869574 ], [ 10.55303706142163, 50.554574159869574 ], [ 10.595425399406061, 50.566250747986508 ], [ 10.613444288871923, 50.584463070625638 ], [ 10.648910736588, 50.578720254371277 ], [ 10.667588852928482, 50.561169135922498 ], [ 10.64805374021369, 50.549265658053457 ], [ 10.666270397382611, 50.539018550916445 ], [ 10.670357608856161, 50.51781373630515 ], [ 10.640758287331064, 50.511318924490162 ], [ 10.632660288556762, 50.499999999891088 ], [ 10.631111589413679, 50.497857928913682 ], [ 10.659128764822718, 50.490298443861953 ], [ 10.655678886483683, 50.458259041561909 ] ] ], [ [ [ 10.681872118946584, 50.002444321524742 ], [ 10.642274511478313, 50.01370784186868 ], [ 10.621311072071876, 50.030598145055848 ], [ 10.609664717145519, 50.034819787833207 ], [ 10.570067109677247, 50.036226919161393 ], [ 10.532798772655257, 50.046075677465815 ], [ 10.542115857135332, 50.058735381462583 ], [ 10.55609148340629, 50.071391727892326 ], [ 10.579384193259006, 50.07701569264421 ], [ 10.591030548185365, 50.082638994140012 ], [ 10.600347632665441, 50.064360838632197 ], [ 10.623640343416476, 50.062954536526355 ], [ 10.625473874979955, 50.067603799526189 ], [ 10.627246318409169, 50.069706929339247 ], [ 10.629849828342017, 50.07189844214863 ], [ 10.633174752821661, 50.072252608811297 ], [ 10.637615968789115, 50.071391727892326 ], [ 10.642702350302049, 50.069362560339805 ], [ 10.649434821809592, 50.066235799672512 ], [ 10.663237949986431, 50.058735381462583 ], [ 10.656250137749268, 50.04748247708639 ], [ 10.667896492675627, 50.037634009024764 ], [ 10.688859932082062, 50.034819787833207 ], [ 10.709823370590183, 50.044668836383167 ], [ 10.728457539550334, 50.036226919161393 ], [ 10.716811183725662, 50.02074619390109 ], [ 10.730786809996617, 50.009484333000131 ], [ 10.723813646586793, 50.000000000210534 ], [ 10.721469726414856, 49.996519718662775 ], [ 10.701624117310315, 49.999469418721617 ], [ 10.698347787195965, 50.000000000210534 ], [ 10.681872118946584, 50.002444321524742 ] ] ], [ [ [ 10.456268812454299, 50.387296643534512 ], [ 10.443077889736848, 50.380516248935486 ], [ 10.423520803331892, 50.378170385687142 ], [ 10.407875133489272, 50.382861996109568 ], [ 10.405919424758945, 50.399278958031218 ], [ 10.423784493902076, 50.408341413112495 ], [ 10.431343637354885, 50.412173990613724 ], [ 10.468502103231105, 50.421549980179918 ], [ 10.493926315827045, 50.422721848112204 ], [ 10.4978377332877, 50.403968469509245 ], [ 10.470457811961431, 50.394588980594861 ], [ 10.456268812454299, 50.387296643534512 ] ] ] ] } }
]
}
