{
"type": "FeatureCollection",
"name": "Saxe-Weimar",
"crs": { "type": "name", "properties": { "name": "urn:ogc:def:crs:OGC:1.3:CRS84" } },
"features": [
{ "type": "Feature", "properties": { "OBJECTID": 45.0, "YEAR": 1700.0, "OWNER_ID": 113.0, "SHORT_NAME": "Weimar", "LONG_NAME": "Duchy of Saxe-Weimar", "VARIANTS": null, "SHAPE_LENG": 579117.1, "Shape__Are": 3443998121.8999023, "Shape__Len": 579953.49751453951 }, "geometry": { "type": "MultiPolygon", "coordinates": [ [ [ [ 11.425898440930125, 50.8390356214165 ], [ 11.392805189481093, 50.858657949555813 ], [ 11.380917117674715, 50.891053518497834 ], [ 11.403836265811476, 50.897653743307181 ], [ 11.38946510233777, 50.908533498681741 ], [ 11.362612563050188, 50.909784638052365 ], [ 11.351537538441161, 50.929613978374519 ], [ 11.32600345469945, 50.919502866505717 ], [ 11.331848606301952, 50.881039405672823 ], [ 11.327475729669734, 50.85806465463719 ], [ 11.300491344647902, 50.84454865581985 ], [ 11.281351768237545, 50.834630023747408 ], [ 11.285241211109719, 50.803000237114496 ], [ 11.240259911210506, 50.798327179109577 ], [ 11.220790721362837, 50.824630108734219 ], [ 11.218681193208093, 50.876809110187423 ], [ 11.193982130353902, 50.916908904758934 ], [ 11.191828653920513, 50.95184275385737 ], [ 11.231206518198931, 50.959289438204898 ], [ 11.244193303259642, 50.996938652359091 ], [ 11.243473156235714, 50.999999999968175 ], [ 11.233887377569319, 51.041173323224804 ], [ 11.201409428970775, 51.064240123793951 ], [ 11.163108302459895, 51.065699659215966 ], [ 11.159130962132116, 51.087679973628333 ], [ 11.134937307626441, 51.105619905145971 ], [ 11.093911373466526, 51.112221311595839 ], [ 11.061455398558147, 51.130469663183767 ], [ 11.028867578813832, 51.126415099989806 ], [ 11.020011954403634, 51.10467866405245 ], [ 11.019616417200881, 51.08829001958825 ], [ 10.999999999766354, 51.089056479328988 ], [ 10.994499844352086, 51.08927138124281 ], [ 10.988918383319771, 51.105725959400033 ], [ 10.976239238006206, 51.130376915672784 ], [ 10.97243769169132, 51.152419038983709 ], [ 10.974656226812531, 51.164504096027208 ], [ 10.988061386945461, 51.166706324813532 ], [ 10.999999999766354, 51.17250548252008 ], [ 11.014606287384211, 51.17959946098135 ], [ 11.021154615038295, 51.202385236289537 ], [ 11.029319589505237, 51.209422057598417 ], [ 11.037219114500665, 51.21474131795572 ], [ 11.044801550370478, 51.218946770452085 ], [ 11.058050267998361, 51.220113384839948 ], [ 11.09241712390776, 51.214699658291103 ], [ 11.092263304483344, 51.213720974478463 ], [ 11.090558101749778, 51.208349216317174 ], [ 11.090043904284517, 51.202993760109464 ], [ 11.125378506266344, 51.202993760109464 ], [ 11.125378506266344, 51.189392645333157 ], [ 11.163943324245727, 51.183556688802263 ], [ 11.179896632937176, 51.20836429485604 ], [ 11.21046282198235, 51.216630513092078 ], [ 11.234282913873754, 51.211168363680443 ], [ 11.263618544828663, 51.220306847571166 ], [ 11.303897353760039, 51.214197093814434 ], [ 11.338506805101803, 51.227909840514364 ], [ 11.404165879248787, 51.209025647144941 ], [ 11.437368978487394, 51.229007211995039 ], [ 11.469407442502854, 51.245332459202736 ], [ 11.496501698670459, 51.226680224848074 ], [ 11.491513542543951, 51.193706276765433 ], [ 11.470242464288686, 51.187897334940409 ], [ 11.457035936936435, 51.179850933959187 ], [ 11.459804692864113, 51.159079930735352 ], [ 11.473670447989301, 51.140604504849527 ], [ 11.441500138239586, 51.113016597768201 ], [ 11.412516096208781, 51.102544228192976 ], [ 11.399133774843635, 51.09112795407448 ], [ 11.4645511321106, 51.08045163848368 ], [ 11.472505811867844, 51.103525285199112 ], [ 11.499999999796566, 51.109936261781179 ], [ 11.517816726102684, 51.114090211907701 ], [ 11.522651061906458, 51.107276973785126 ], [ 11.512367110804616, 51.092202079378147 ], [ 11.538780165509118, 51.093567906502535 ], [ 11.54858068285092, 51.069268692350747 ], [ 11.57897103027249, 51.042182281663287 ], [ 11.586793911906195, 51.027723421112753 ], [ 11.61219615081197, 51.014694651584783 ], [ 11.642147100787046, 51.017271493969396 ], [ 11.636378966245426, 50.999999999968175 ], [ 11.633752895124218, 50.992219389288152 ], [ 11.657660884471225, 50.968865742432826 ], [ 11.684845730345341, 50.963895555670199 ], [ 11.688798403833733, 50.960710224351175 ], [ 11.735361849849001, 50.956724019731539 ], [ 11.734988288133048, 50.925335457092281 ], [ 11.701257805957441, 50.92010854179815 ], [ 11.66891170309315, 50.926875770330064 ], [ 11.635071350670087, 50.912918924005723 ], [ 11.636697445064788, 50.891672741229677 ], [ 11.636148089335938, 50.849770913216268 ], [ 11.605669796848053, 50.83956322553535 ], [ 11.572818286533554, 50.835935922234988 ], [ 11.526013122739947, 50.862547140869552 ], [ 11.499999999796566, 50.863269927239365 ], [ 11.492326589741301, 50.863483134585067 ], [ 11.456772245467935, 50.855045324297755 ], [ 11.425898440930125, 50.8390356214165 ] ], [ [ 11.393376519798423, 51.067583718680908 ], [ 11.360854622921234, 51.064492228867756 ], [ 11.332046374903326, 51.048500739343964 ], [ 11.332991267834927, 51.026050207090137 ], [ 11.374324840843672, 51.023234820862342 ], [ 11.400803818415298, 51.031096222987415 ], [ 11.410560387478457, 51.051022587905408 ], [ 11.393376519798423, 51.067583718680908 ] ] ], [ [ [ 10.926313731157446, 50.776051094617841 ], [ 10.946376225910925, 50.776051094617841 ], [ 10.993511002243524, 50.782588455551476 ], [ 10.999999999766354, 50.768287390602325 ], [ 11.004388259149495, 50.758613639764974 ], [ 10.999999999766354, 50.742779528243368 ], [ 10.997136754545515, 50.732445204267819 ], [ 10.982633746235873, 50.717173492339668 ], [ 10.939124721306946, 50.69971397924229 ], [ 10.924621712997304, 50.688798463636957 ], [ 10.899241448680009, 50.664775338659652 ], [ 10.899241448680009, 50.640739850773024 ], [ 10.901329003144587, 50.63014177016727 ], [ 10.894121602227797, 50.623901022987042 ], [ 10.863313541792371, 50.656407360170718 ], [ 10.833231421616141, 50.665173293472499 ], [ 10.842679716721561, 50.677880394051648 ], [ 10.866851396638756, 50.701751259205707 ], [ 10.89574754211227, 50.723296000348689 ], [ 10.884255006610326, 50.732299783125903 ], [ 10.916161624891538, 50.766897245669021 ], [ 10.926313731157446, 50.776051094617841 ] ] ], [ [ [ 11.371006728288828, 51.439031139078075 ], [ 11.346922944928924, 51.460753826314509 ], [ 11.372830591284904, 51.481558914824774 ], [ 11.394629052477171, 51.478731981369378 ], [ 11.384476947109579, 51.459530474587496 ], [ 11.402232145106939, 51.451663402970318 ], [ 11.43572090950421, 51.474905479794977 ], [ 11.479625470737574, 51.477154081637408 ], [ 11.49406255618009, 51.454715672421841 ], [ 11.473670447989301, 51.398887246100315 ], [ 11.441522112828066, 51.393657637261505 ], [ 11.404759184154599, 51.394145056736477 ], [ 11.367051362549528, 51.378452792167877 ], [ 11.347757966714754, 51.392854042040419 ], [ 11.377620979708352, 51.408975926164871 ], [ 11.371006728288828, 51.439031139078075 ] ] ], [ [ [ 11.138362226275305, 51.368207590537793 ], [ 11.193542645770821, 51.385660574807488 ], [ 11.214253805007809, 51.395394723467895 ], [ 11.213407371922925, 51.393460033056598 ], [ 11.229250809468603, 51.377688463138526 ], [ 11.212858015295758, 51.355214093399866 ], [ 11.180226247272799, 51.358523333214542 ], [ 11.138362226275305, 51.368207590537793 ] ] ] ] } }
]
}
