{
"type": "FeatureCollection",
"name": "Saxe-Gotha-Altenburg",
"crs": { "type": "name", "properties": { "name": "urn:ogc:def:crs:OGC:1.3:CRS84" } },
"features": [
{ "type": "Feature", "properties": { "OBJECTID": 55.0, "YEAR": 1700.0, "OWNER_ID": 7839.0, "SHORT_NAME": "Altenburg", "LONG_NAME": "Duchy of Saxe-Gotha-Altenburg", "VARIANTS": null, "SHAPE_LENG": 953713.99999999988, "Shape__Are": 7384297626.5795898, "Shape__Len": 954902.51711988042 }, "geometry": { "type": "MultiPolygon", "coordinates": [ [ [ [ 10.470303991638703, 51.130204669798324 ], [ 10.460415576841296, 51.155186803421287 ], [ 10.482082192299311, 51.160218673951817 ], [ 10.49999999973614, 51.154724382406563 ], [ 10.505660568209009, 51.152988497326724 ], [ 10.554707104993291, 51.136060662702207 ], [ 10.594414583607335, 51.12387087755863 ], [ 10.625508154691197, 51.135398257569193 ], [ 10.64179107771827, 51.146286986896619 ], [ 10.665808938211052, 51.166176754676613 ], [ 10.659106790234237, 51.187235677673364 ], [ 10.709186117405727, 51.184906567832883 ], [ 10.734588356311502, 51.200837432457185 ], [ 10.792776183562966, 51.192383119799608 ], [ 10.795676785224895, 51.170214569757597 ], [ 10.8328352502028, 51.16803022228374 ], [ 10.841976540669981, 51.185872633571869 ], [ 10.907943253665794, 51.186798978838006 ], [ 10.902010204607688, 51.158047092224159 ], [ 10.891506511214303, 51.129727678417566 ], [ 10.922687978855457, 51.118357913163649 ], [ 10.913744456989651, 51.083648161827014 ], [ 10.889331059294124, 51.046138040292689 ], [ 10.918051410754741, 51.042766338991932 ], [ 10.936224119645017, 51.029635590955074 ], [ 10.946134509030905, 51.016633926614531 ], [ 10.942545730487694, 50.999999999968175 ], [ 10.942508756728914, 50.999830441685475 ], [ 10.917611926171659, 50.998818335889339 ], [ 10.911900195948416, 50.999999999968175 ], [ 10.885463591010426, 51.005528480200546 ], [ 10.842437999841541, 51.00158248045787 ], [ 10.838851556918071, 50.999999999968175 ], [ 10.815607434244122, 50.989853003467232 ], [ 10.827209840891836, 50.977558991930472 ], [ 10.840745981681399, 50.974376479215344 ], [ 10.853688818463464, 50.983252775154156 ], [ 10.863950794976827, 50.980307349000405 ], [ 10.862214829436356, 50.96870790713227 ], [ 10.875509253345895, 50.963933141384643 ], [ 10.883529856868581, 50.973074479021392 ], [ 10.899768830718694, 50.970957006284813 ], [ 10.90554805945407, 50.959236815972162 ], [ 10.944903950940638, 50.96035503162566 ], [ 10.999999999766354, 50.957797227769831 ], [ 11.007530576793128, 50.957447613630691 ], [ 11.003179674749394, 50.945723996730244 ], [ 10.999999999766354, 50.94526237577923 ], [ 10.97127305646818, 50.94109162515759 ], [ 10.969581039206354, 50.932694268729257 ], [ 10.999999999766354, 50.930462972738411 ], [ 11.005113408891239, 50.930087882634581 ], [ 11.012606630375238, 50.920095375238041 ], [ 11.011881479735179, 50.909666110742243 ], [ 11.000279073087464, 50.899669193590917 ], [ 10.999999999766354, 50.899566470221046 ], [ 10.972723357748302, 50.889525188348763 ], [ 10.936224119645017, 50.876189688813227 ], [ 10.934290385503171, 50.856904411102541 ], [ 10.905042652003866, 50.83079126077871 ], [ 10.899483165560028, 50.793191554024489 ], [ 10.929214332819374, 50.778666149248167 ], [ 10.926313731157446, 50.776051094617841 ], [ 10.916161624891538, 50.766897245669021 ], [ 10.884255006610326, 50.732299783125903 ], [ 10.89574754211227, 50.723296000348689 ], [ 10.866851396638756, 50.701751259205707 ], [ 10.842679716721561, 50.677880394051648 ], [ 10.833231421616141, 50.665173293472499 ], [ 10.798928974912613, 50.675167022869225 ], [ 10.760408106110193, 50.670057515844327 ], [ 10.75078338188297, 50.669223527769695 ], [ 10.722985949663787, 50.661240315576499 ], [ 10.705889979439362, 50.647561094295817 ], [ 10.686992119909025, 50.652024164940791 ], [ 10.667896522320031, 50.672162246073071 ], [ 10.71922835162755, 50.683214024795859 ], [ 10.716283801686975, 50.715255910710084 ], [ 10.676642245940057, 50.727236195358074 ], [ 10.630078799924789, 50.737283507976549 ], [ 10.627178198262859, 50.77333022521249 ], [ 10.620300256273151, 50.787249891390758 ], [ 10.567056636869548, 50.799172060782325 ], [ 10.563716549726223, 50.809309440188358 ], [ 10.540621607576565, 50.813427119021952 ], [ 10.504100395783118, 50.803317037474535 ], [ 10.49999999973614, 50.809056718500138 ], [ 10.494124084428419, 50.817280513318437 ], [ 10.49999999973614, 50.81902498929324 ], [ 10.527415080224316, 50.827163272577316 ], [ 10.507440482926441, 50.84907200898801 ], [ 10.49999999973614, 50.851764129469615 ], [ 10.491003739576636, 50.85501895360315 ], [ 10.451186389816824, 50.859027107248529 ], [ 10.432530247166506, 50.862916267039331 ], [ 10.431101916881603, 50.86314038982151 ], [ 10.427695911362731, 50.874753126389443 ], [ 10.422224322374499, 50.91509172835395 ], [ 10.430860204493159, 50.927810465156277 ], [ 10.450153600327933, 50.941604893754182 ], [ 10.466084935329215, 50.95398741641133 ], [ 10.485576098867051, 50.954171616300087 ], [ 10.490102795821995, 50.934523916497845 ], [ 10.49999999973614, 50.936151570285347 ], [ 10.509791727961204, 50.937761821480848 ], [ 10.514003575290534, 50.999999999968175 ], [ 10.514362373194796, 51.005355766610599 ], [ 10.502166661641269, 51.032583364440086 ], [ 10.49999999973614, 51.04437347284707 ], [ 10.492432066268277, 51.085531486198242 ], [ 10.487553782185856, 51.102252558223888 ], [ 10.476632577001244, 51.114355298237712 ], [ 10.470303991638703, 51.130204669798324 ] ], [ [ 10.893681962236172, 50.901407943029696 ], [ 10.865401096256949, 50.904450597335504 ], [ 10.846788901885276, 50.891844014153179 ], [ 10.836395079637665, 50.875029898706991 ], [ 10.846788901885276, 50.867925551835476 ], [ 10.868543414798898, 50.864735490921845 ], [ 10.881596121828418, 50.879668885029524 ], [ 10.893681962236172, 50.901407943029696 ] ] ], [ [ [ 12.559638128388578, 50.901249877389681 ], [ 12.531379236099518, 50.908744219223166 ], [ 12.519491164293139, 50.915183905863131 ], [ 12.499999999856989, 50.896114292513516 ], [ 12.480047376249283, 50.876585065404193 ], [ 12.441152944832591, 50.867266466450289 ], [ 12.415421092489504, 50.873276979264823 ], [ 12.379866748216138, 50.862784436926567 ], [ 12.364462795253539, 50.847608231424374 ], [ 12.336467594432982, 50.834155142358433 ], [ 12.305242178513183, 50.845036618787873 ], [ 12.268017790668155, 50.841897739780372 ], [ 12.256107744273296, 50.820104373249166 ], [ 12.211675801001247, 50.816053268130574 ], [ 12.180252616480074, 50.828601309302741 ], [ 12.126877150443907, 50.829590757738089 ], [ 12.11760401514079, 50.838547609001516 ], [ 12.134128655047885, 50.846183971570468 ], [ 12.128459297458278, 50.853845448487931 ], [ 12.111684689645278, 50.847595661296545 ], [ 12.109297746459438, 50.84990278088673 ], [ 12.099607100263407, 50.864590483067808 ], [ 12.101057401543528, 50.893372267243052 ], [ 12.126899125032386, 50.913840731832124 ], [ 12.150785139790914, 50.911378146211682 ], [ 12.153378102604012, 50.945447646700153 ], [ 12.106770707411782, 50.96385421566039 ], [ 12.102924531895265, 50.971760690082526 ], [ 12.119208135845327, 50.982634777229173 ], [ 12.162101881279961, 50.964012066974078 ], [ 12.198623093073412, 50.983949656907853 ], [ 12.220707219424341, 50.998279413910119 ], [ 12.221556700492986, 50.999999999968175 ], [ 12.264985343271974, 51.088833749891009 ], [ 12.246131432020281, 51.095477344854267 ], [ 12.242725422908149, 51.106110404020519 ], [ 12.313086987124656, 51.122850499225926 ], [ 12.373054729093555, 51.098686083187424 ], [ 12.46255586972042, 51.091804258262641 ], [ 12.4756525259269, 51.04366902299185 ], [ 12.499999999856989, 51.034755927404909 ], [ 12.522325843087943, 51.026581392516469 ], [ 12.520985413851907, 51.0060333310362 ], [ 12.525058138194868, 50.999999999968175 ], [ 12.534411683495696, 50.986290049298887 ], [ 12.601608954581778, 50.973639998478745 ], [ 12.60448758255354, 50.956829270426326 ], [ 12.634861316532247, 50.948941544149704 ], [ 12.646609467648288, 50.929816818680067 ], [ 12.623551031235145, 50.924155198066778 ], [ 12.622396599975316, 50.922254676793976 ], [ 12.590270239402564, 50.912286815936525 ], [ 12.559638128388578, 50.901249877389681 ] ] ], [ [ [ 11.945151626406362, 50.974453185854628 ], [ 11.945040191293684, 50.972061786580831 ], [ 11.966091527257408, 50.955500462747025 ], [ 11.971563116245639, 50.936787841138077 ], [ 11.934206883564675, 50.916105669156167 ], [ 11.937568944398164, 50.893082430209731 ], [ 11.96870646376067, 50.888523841534528 ], [ 11.969563459236667, 50.877375807900776 ], [ 11.953258562519428, 50.870667247036479 ], [ 11.951825553808526, 50.869304597291659 ], [ 11.945194010718099, 50.87181396599879 ], [ 11.936382334586543, 50.867279648602235 ], [ 11.951610493536245, 50.849283000031555 ], [ 11.935811004269214, 50.833482385882519 ], [ 11.899553483045949, 50.81662070830955 ], [ 11.873601888411322, 50.809731782842732 ], [ 11.85092445715458, 50.804241026616758 ], [ 11.828708485069399, 50.796412937622904 ], [ 11.806668306997111, 50.783724145784234 ], [ 11.779420231405094, 50.782443190972657 ], [ 11.755775932628271, 50.807672825288705 ], [ 11.725033950468516, 50.802366629915902 ], [ 11.710772659038893, 50.783697734565983 ], [ 11.634170406017132, 50.774360476087033 ], [ 11.593620219631687, 50.757261058000033 ], [ 11.592686843102028, 50.753539267539232 ], [ 11.591268746424841, 50.747884111025257 ], [ 11.569983606840436, 50.746416749096767 ], [ 11.536187202696018, 50.749535651541258 ], [ 11.499999999796566, 50.756774839377449 ], [ 11.492326589741301, 50.758309747308765 ], [ 11.48977831631696, 50.758616483620969 ], [ 11.446004860606051, 50.763885195719403 ], [ 11.402803475424269, 50.784701345758364 ], [ 11.413482963728864, 50.801680212084925 ], [ 11.423635069096456, 50.837861725672006 ], [ 11.425898440930125, 50.8390356214165 ], [ 11.456772245467935, 50.855045324297755 ], [ 11.492326589741301, 50.863483134585067 ], [ 11.499999999796566, 50.863269927239365 ], [ 11.526013122739947, 50.862547140869552 ], [ 11.572818286533554, 50.835935922234988 ], [ 11.605669796848053, 50.83956322553535 ], [ 11.636148089335938, 50.849770913216268 ], [ 11.636697445064788, 50.891672741229677 ], [ 11.635071350670087, 50.912918924005723 ], [ 11.66891170309315, 50.926875770330064 ], [ 11.701257805957441, 50.92010854179815 ], [ 11.734988288133048, 50.925335457092281 ], [ 11.735361849849001, 50.956724019731539 ], [ 11.688798403833733, 50.960710224351175 ], [ 11.684845730345341, 50.963895555670199 ], [ 11.69730244021814, 50.961617925494274 ], [ 11.703653000169165, 50.971640921119935 ], [ 11.730703308058121, 50.990589225689845 ], [ 11.766079005269251, 50.999999999968175 ], [ 11.77957405082951, 51.003628596288394 ], [ 11.787243066326404, 51.02110988766043 ], [ 11.824423504994472, 51.01060331005101 ], [ 11.889357428501395, 51.022225490125919 ], [ 11.909222155551815, 51.015385361667398 ], [ 11.919747823533678, 51.036367392007655 ], [ 11.963344745019894, 51.031693740832345 ], [ 11.952884999905157, 51.014136762356017 ], [ 11.931372819217527, 50.999999999968175 ], [ 11.929636238331083, 50.998870913610666 ], [ 11.933987140374818, 50.974639505285268 ], [ 11.945151626406362, 50.974453185854628 ] ] ], [ [ [ 11.642147100787046, 51.017271493969396 ], [ 11.61219615081197, 51.014694651584783 ], [ 11.586793911906195, 51.027723421112753 ], [ 11.57897103027249, 51.042182281663287 ], [ 11.596220867532042, 51.054672387013333 ], [ 11.575081634112712, 51.097559072272588 ], [ 11.607251943862424, 51.103207107040596 ], [ 11.623095381408104, 51.064624915194337 ], [ 11.651266376241558, 51.063032655172499 ], [ 11.712750341459385, 51.096286180169081 ], [ 11.733054553092884, 51.106017607337471 ], [ 11.772102803933992, 51.110816272530322 ], [ 11.79436272429782, 51.113427489959655 ], [ 11.786913451990779, 51.099826324388786 ], [ 11.742042023237335, 51.087799331193807 ], [ 11.751710695743203, 51.070621933414571 ], [ 11.795395514685024, 51.073925266516156 ], [ 11.835300761900443, 51.067636789693978 ], [ 11.850045487090105, 51.055256327921761 ], [ 11.767883747624506, 51.045368145903538 ], [ 11.739207344442532, 51.028254587263014 ], [ 11.706927164445363, 51.030326077288677 ], [ 11.674778829284129, 51.029701984375556 ], [ 11.642147100787046, 51.017271493969396 ] ] ], [ [ [ 12.08189585054469, 50.951816438225762 ], [ 12.111165558632477, 50.944026391966958 ], [ 12.107913368944759, 50.93233886072877 ], [ 12.091652419607849, 50.920648376620377 ], [ 12.068887091793815, 50.928442361244166 ], [ 12.062382712418378, 50.944026391966958 ], [ 12.08189585054469, 50.951816438225762 ] ] ] ] } }
]
}
