{
"type": "FeatureCollection",
"name": "Saxony",
"crs": { "type": "name", "properties": { "name": "urn:ogc:def:crs:OGC:1.3:CRS84" } },
"features": [
{ "type": "Feature", "properties": { "OBJECTID": 40.0, "YEAR": 1700.0, "OWNER_ID": 4870.0, "SHORT_NAME": "Saxony-Poland-Lithuania", "LONG_NAME": "Electorate of Saxony in Personal Union with the Polish-Lithuanian Commonwealth", "VARIANTS": null, "SHAPE_LENG": 4291201.0, "Shape__Are": 89199696769.397949, "Shape__Len": 4296626.0502702892 }, "geometry": { "type": "MultiPolygon", "coordinates": [ [ [ [ 11.951825553808526, 50.869304597291659 ], [ 11.978111444798039, 50.859356709950099 ], [ 11.991559689030307, 50.837017548010913 ], [ 11.999999999826779, 50.831798696128082 ], [ 12.008391967786235, 50.826609154901064 ], [ 12.076644003848001, 50.834537685921987 ], [ 12.111684689645278, 50.847595661296545 ], [ 12.128459297458278, 50.853845448487931 ], [ 12.134128655047885, 50.846183971570468 ], [ 12.11760401514079, 50.838547609001516 ], [ 12.126877150443907, 50.829590757738089 ], [ 12.180252616480074, 50.828601309302741 ], [ 12.211675801001247, 50.816053268130574 ], [ 12.256107744273296, 50.820104373249166 ], [ 12.268017790668155, 50.841897739780372 ], [ 12.305242178513183, 50.845036618787873 ], [ 12.336467594432982, 50.834155142358433 ], [ 12.364462795253539, 50.847608231424374 ], [ 12.379866748216138, 50.862784436926567 ], [ 12.415421092489504, 50.873276979264823 ], [ 12.441152944832591, 50.867266466450289 ], [ 12.450184364154001, 50.84456184442918 ], [ 12.496923604182168, 50.827374363231854 ], [ 12.499999999856989, 50.818431532418018 ], [ 12.510349873825959, 50.788332650634132 ], [ 12.509822491787274, 50.761995959756661 ], [ 12.530895802339478, 50.759062868283934 ], [ 12.542564131854316, 50.73228656263678 ], [ 12.567614782734301, 50.688467650343718 ], [ 12.60259779669034, 50.675577347687607 ], [ 12.631669736176748, 50.642475057406884 ], [ 12.639580467655346, 50.626392123648451 ], [ 12.626286042847491, 50.61172189082771 ], [ 12.625868532852891, 50.586386026717769 ], [ 12.638415832432207, 50.565467976601525 ], [ 12.657533434254084, 50.556299293531232 ], [ 12.674321764731364, 50.551508573352862 ], [ 12.717193536475834, 50.533336547057957 ], [ 12.740068735435639, 50.547394268061325 ], [ 12.770041619575004, 50.552145595130426 ], [ 12.803332615370898, 50.560956837348471 ], [ 12.818077340560562, 50.574542012867752 ], [ 12.80952935499919, 50.600175952750853 ], [ 12.802233903014884, 50.612397855979765 ], [ 12.777556814749166, 50.610860352011372 ], [ 12.786676130627868, 50.646037990450225 ], [ 12.772480761167056, 50.690412797832913 ], [ 12.746023758183911, 50.722039827508333 ], [ 12.787708920116758, 50.726231345097993 ], [ 12.786786001773638, 50.742742519875328 ], [ 12.735564013069173, 50.74513476698214 ], [ 12.7489683090228, 50.762471578918181 ], [ 12.738069078426665, 50.798617609148046 ], [ 12.699877823061556, 50.81808546263548 ], [ 12.632285014772723, 50.856429757603813 ], [ 12.588797964432278, 50.870983586487654 ], [ 12.566098558587056, 50.884360114588624 ], [ 12.559638128388578, 50.901249877389681 ], [ 12.590270239402564, 50.912286815936525 ], [ 12.622396599975316, 50.922254676793976 ], [ 12.653907681952095, 50.882765676666949 ], [ 12.704558339440913, 50.881421562769539 ], [ 12.745210710986559, 50.839945724532917 ], [ 12.763866853636877, 50.840908553059464 ], [ 12.776260333791775, 50.848636836575018 ], [ 12.828756828865153, 50.840855796153065 ], [ 12.866442675881743, 50.84808297518402 ], [ 12.878924052593934, 50.859857700888412 ], [ 12.885977788596536, 50.884689536669448 ], [ 12.938803897107224, 50.903041253736404 ], [ 12.944121666671041, 50.92320263121298 ], [ 12.925729215489225, 50.948513724289811 ], [ 12.878198901953873, 50.970312538722375 ], [ 12.847271361992398, 50.999999999968175 ], [ 12.847215202914096, 51.000054477512634 ], [ 12.814517511125697, 51.00560819394709 ], [ 12.815581385916678, 50.999999999968175 ], [ 12.819044208080641, 50.981937876199581 ], [ 12.795707549050963, 50.980557191945969 ], [ 12.777930376465122, 50.986421528600232 ], [ 12.777830702994457, 50.999999999968175 ], [ 12.777776557040706, 51.007454855492853 ], [ 12.747210367995532, 51.010231352227436 ], [ 12.729033497210542, 50.999999999968175 ], [ 12.702316965551923, 50.985119867931054 ], [ 12.634861316532247, 50.948941544149704 ], [ 12.60448758255354, 50.956829270426326 ], [ 12.601608954581778, 50.973639998478745 ], [ 12.534411683495696, 50.986290049298887 ], [ 12.525058138194868, 50.999999999968175 ], [ 12.520985413851907, 51.0060333310362 ], [ 12.522325843087943, 51.026581392516469 ], [ 12.499999999856989, 51.034755927404909 ], [ 12.4756525259269, 51.04366902299185 ], [ 12.46255586972042, 51.091804258262641 ], [ 12.373054729093555, 51.098686083187424 ], [ 12.313086987124656, 51.122850499225926 ], [ 12.242725422908149, 51.106110404020519 ], [ 12.246131432020281, 51.095477344854267 ], [ 12.264985343271974, 51.088833749891009 ], [ 12.221556700492986, 50.999999999968175 ], [ 12.220707219424341, 50.998279413910119 ], [ 12.198623093073412, 50.983949656907853 ], [ 12.162101881279961, 50.964012066974078 ], [ 12.119208135845327, 50.982634777229173 ], [ 12.102924531895265, 50.971760690082526 ], [ 12.101760577595112, 50.970983311019744 ], [ 12.083939456730626, 50.983607791872465 ], [ 12.068052070007985, 50.994730255379714 ], [ 12.036848627778355, 50.993875787588927 ], [ 12.016456519587562, 50.97959726322248 ], [ 11.999999999826779, 50.977036615281229 ], [ 11.979693590914094, 50.973876725669854 ], [ 11.945151626406362, 50.974453185854628 ], [ 11.933987140374818, 50.974639505285268 ], [ 11.929636238331083, 50.998870913610666 ], [ 11.931372819217527, 50.999999999968175 ], [ 11.952884999905157, 51.014136762356017 ], [ 11.963344745019894, 51.031693740832345 ], [ 11.919747823533678, 51.036367392007655 ], [ 11.909222155551815, 51.015385361667398 ], [ 11.889357428501395, 51.022225490125919 ], [ 11.824423504994472, 51.01060331005101 ], [ 11.787243066326404, 51.02110988766043 ], [ 11.77957405082951, 51.003628596288394 ], [ 11.766079005269251, 50.999999999968175 ], [ 11.730703308058121, 50.990589225689845 ], [ 11.703653000169165, 50.971640921119935 ], [ 11.69730244021814, 50.961617925494274 ], [ 11.684845730345341, 50.963895555670199 ], [ 11.657660884471225, 50.968865742432826 ], [ 11.633752895124218, 50.992219389288152 ], [ 11.636378966245426, 50.999999999968175 ], [ 11.642147100787046, 51.017271493969396 ], [ 11.674778829284129, 51.029701984375556 ], [ 11.706927164445363, 51.030326077288677 ], [ 11.739207344442532, 51.028254587263014 ], [ 11.767883747624506, 51.045368145903538 ], [ 11.850045487090105, 51.055256327921761 ], [ 11.835300761900443, 51.067636789693978 ], [ 11.795395514685024, 51.073925266516156 ], [ 11.751710695743203, 51.070621933414571 ], [ 11.742042023237335, 51.087799331193807 ], [ 11.786913451990779, 51.099826324388786 ], [ 11.79436272429782, 51.113427489959655 ], [ 11.772102803933992, 51.110816272530322 ], [ 11.733054553092884, 51.106017607337471 ], [ 11.712750341459385, 51.096286180169081 ], [ 11.651266376241558, 51.063032655172499 ], [ 11.623095381408104, 51.064624915194337 ], [ 11.607251943862424, 51.103207107040596 ], [ 11.575081634112712, 51.097559072272588 ], [ 11.596220867532042, 51.054672387013333 ], [ 11.57897103027249, 51.042182281663287 ], [ 11.54858068285092, 51.069268692350747 ], [ 11.538780165509118, 51.093567906502535 ], [ 11.512367110804616, 51.092202079378147 ], [ 11.522651061906458, 51.107276973785126 ], [ 11.517816726102684, 51.114090211907701 ], [ 11.499999999796566, 51.109936261781179 ], [ 11.472505811867844, 51.103525285199112 ], [ 11.4645511321106, 51.08045163848368 ], [ 11.399133774843635, 51.09112795407448 ], [ 11.412516096208781, 51.102544228192976 ], [ 11.441500138239586, 51.113016597768201 ], [ 11.473670447989301, 51.140604504849527 ], [ 11.459804692864113, 51.159079930735352 ], [ 11.457035936936435, 51.179850933959187 ], [ 11.470242464288686, 51.187897334940409 ], [ 11.491513542543951, 51.193706276765433 ], [ 11.496501698670459, 51.226680224848074 ], [ 11.469407442502854, 51.245332459202736 ], [ 11.437368978487394, 51.229007211995039 ], [ 11.404165879248787, 51.209025647144941 ], [ 11.338506805101803, 51.227909840514364 ], [ 11.303897353760039, 51.214197093814434 ], [ 11.263618544828663, 51.220306847571166 ], [ 11.234282913873754, 51.211168363680443 ], [ 11.21046282198235, 51.216630513092078 ], [ 11.179896632937176, 51.20836429485604 ], [ 11.157175253401787, 51.21887866638734 ], [ 11.131751040805845, 51.237613391766857 ], [ 11.129217848298492, 51.238636904352951 ], [ 11.116667252800401, 51.240855559099806 ], [ 11.107993794153405, 51.240022435649266 ], [ 11.099904191932064, 51.236168962161337 ], [ 11.096811975128453, 51.232114084299234 ], [ 11.094424033016022, 51.22276176093294 ], [ 11.094291967194525, 51.222077862809599 ], [ 11.09241712390776, 51.214699658291103 ], [ 11.058050267998361, 51.220113384839948 ], [ 11.044801550370478, 51.218946770452085 ], [ 11.037219114500665, 51.21474131795572 ], [ 11.029319589505237, 51.209422057598417 ], [ 11.021154615038295, 51.202385236289537 ], [ 11.014606287384211, 51.17959946098135 ], [ 10.999999999766354, 51.17250548252008 ], [ 10.988061386945461, 51.166706324813532 ], [ 10.974656226812531, 51.164504096027208 ], [ 10.954616570826836, 51.161211741319875 ], [ 10.928577078736605, 51.151597948205627 ], [ 10.902010204607688, 51.158047092224159 ], [ 10.907943253665794, 51.186798978838006 ], [ 10.841976540669981, 51.185872633571869 ], [ 10.8328352502028, 51.16803022228374 ], [ 10.795676785224895, 51.170214569757597 ], [ 10.792776183562966, 51.192383119799608 ], [ 10.734588356311502, 51.200837432457185 ], [ 10.709186117405727, 51.184906567832883 ], [ 10.659106790234237, 51.187235677673364 ], [ 10.665808938211052, 51.166176754676613 ], [ 10.64179107771827, 51.146286986896619 ], [ 10.625508154691197, 51.135398257569193 ], [ 10.594414583607335, 51.12387087755863 ], [ 10.554707104993291, 51.136060662702207 ], [ 10.505660568209009, 51.152988497326724 ], [ 10.49999999973614, 51.154724382406563 ], [ 10.482082192299311, 51.160218673951817 ], [ 10.460415576841296, 51.155186803421287 ], [ 10.470303991638703, 51.130204669798324 ], [ 10.448857119370542, 51.131410376226533 ], [ 10.430442693600243, 51.146075065311507 ], [ 10.388183196485437, 51.170039736534605 ], [ 10.387658819311378, 51.188042898381816 ], [ 10.404842686093092, 51.197490293651015 ], [ 10.429695568371704, 51.198707463218618 ], [ 10.443289440291313, 51.217796042373877 ], [ 10.46507411953049, 51.212583559381351 ], [ 10.483620390136721, 51.215109640912765 ], [ 10.49999999973614, 51.227438619716892 ], [ 10.503770782345807, 51.230276427652981 ], [ 10.538907615726259, 51.22964182422281 ], [ 10.571407538913283, 51.235961025408997 ], [ 10.575406852931227, 51.255005889484792 ], [ 10.577394595584584, 51.2555854151856 ], [ 10.587009259578942, 51.258388464578701 ], [ 10.626628841635693, 51.282653743219285 ], [ 10.667962415542751, 51.276671177604307 ], [ 10.764956776755303, 51.264915069545729 ], [ 10.767681584404338, 51.289599403614652 ], [ 10.792204852347322, 51.28768483093048 ], [ 10.80295026351904, 51.261665094987791 ], [ 10.883595778837389, 51.264162047263731 ], [ 10.934927638687627, 51.262074657632695 ], [ 10.948463779477189, 51.248768611669661 ], [ 10.999158386142968, 51.246046142777843 ], [ 10.999999999766354, 51.248160098911534 ], [ 11.011617788266678, 51.277331543323854 ], [ 10.999999999766354, 51.289088391523386 ], [ 10.981930570184293, 51.307368092932919 ], [ 10.964504985624242, 51.316065100612171 ], [ 10.98015065546686, 51.328757909428511 ], [ 10.999999999766354, 51.318581032510629 ], [ 11.001509631177731, 51.317806942625367 ], [ 11.034383116979026, 51.318097242788582 ], [ 11.021154615038295, 51.336276930749136 ], [ 11.043282689667871, 51.342502270040143 ], [ 11.056950676191683, 51.330578418024274 ], [ 11.079825876049799, 51.349109168292721 ], [ 11.099360988764595, 51.354963583220545 ], [ 11.103777813675453, 51.376555124357388 ], [ 11.118940049758031, 51.3815495112786 ], [ 11.132586062591677, 51.369543609098777 ], [ 11.138362226275305, 51.368207590537793 ], [ 11.180226247272799, 51.358523333214542 ], [ 11.212858015295758, 51.355214093399866 ], [ 11.229250809468603, 51.377688463138526 ], [ 11.213407371922925, 51.393460033056598 ], [ 11.214253805007809, 51.395394723467895 ], [ 11.219274498113906, 51.406868814958308 ], [ 11.217472608807993, 51.436372653228098 ], [ 11.196157581375768, 51.457412550939026 ], [ 11.185961527729532, 51.474695079003851 ], [ 11.210174834678677, 51.500000000093614 ], [ 11.21391277937313, 51.503948511374581 ], [ 11.224837572428989, 51.500000000093614 ], [ 11.23865579050597, 51.495060020638043 ], [ 11.241775650267499, 51.500000000093614 ], [ 11.259773050235134, 51.528802350231352 ], [ 11.247555364093131, 51.547257894244403 ], [ 11.289636062330414, 51.558208167418115 ], [ 11.311939930972887, 51.551452494164629 ], [ 11.332947318657967, 51.554651278590988 ], [ 11.337122427587122, 51.539186178867268 ], [ 11.433962969375257, 51.523901736908059 ], [ 11.499314402876781, 51.531418449639112 ], [ 11.499999999796566, 51.53138076812786 ], [ 11.549327807181143, 51.528669548907295 ], [ 11.548009352533589, 51.51039242448941 ], [ 11.521156812347693, 51.505742270273004 ], [ 11.523073081443785, 51.500000000093614 ], [ 11.526101020195552, 51.491024570554352 ], [ 11.54965742151677, 51.490525043828406 ], [ 11.535857589258709, 51.473906065806034 ], [ 11.585145842923014, 51.457175758116186 ], [ 11.598000782249473, 51.45942523839409 ], [ 11.605208337676492, 51.437372894161591 ], [ 11.638763024940888, 51.438359951876855 ], [ 11.704444073676349, 51.435280259635817 ], [ 11.727582964104652, 51.41777206190843 ], [ 11.785265383007598, 51.421392730970538 ], [ 11.794077059139152, 51.455426085110417 ], [ 11.826598956914657, 51.467290965934453 ], [ 11.827257208218878, 51.470969900935543 ], [ 11.857978193157184, 51.469000725907442 ], [ 11.853209779322217, 51.435833040682382 ], [ 11.884325324096244, 51.438123060272581 ], [ 11.911990911479494, 51.434924897402354 ], [ 11.913287392436885, 51.451755499832032 ], [ 11.937942506114119, 51.453834219433475 ], [ 11.957939078898788, 51.435346067255921 ], [ 11.956203112460001, 51.414480294080619 ], [ 11.95899384297616, 51.39890041816961 ], [ 11.97209049918264, 51.382037060421062 ], [ 11.990592821510228, 51.369794039125878 ], [ 11.999999999826779, 51.370246563337929 ], [ 12.021554546859841, 51.371283409191598 ], [ 12.049351979079024, 51.363163773898833 ], [ 12.062580481019753, 51.368067363136539 ], [ 12.111846760095577, 51.35611064430131 ], [ 12.130656722170309, 51.365668361266202 ], [ 12.129404190389879, 51.372469598068498 ], [ 12.115186847238901, 51.383855441875731 ], [ 12.125712515220762, 51.396647940576528 ], [ 12.173374674490367, 51.388374726997249 ], [ 12.181131586544552, 51.426948251371911 ], [ 12.167133985685112, 51.448058302216033 ], [ 12.15192780132389, 51.45751779179723 ], [ 12.146148572588512, 51.447058297069795 ], [ 12.121339638588548, 51.448492508609426 ], [ 12.093058772609325, 51.456018087662436 ], [ 12.087081775272571, 51.469474186979312 ], [ 12.087894822469924, 51.481545766697018 ], [ 12.077566922191121, 51.484596028002521 ], [ 12.066294129879035, 51.488618903436439 ], [ 12.067796749041301, 51.500000000093614 ], [ 12.067920224273733, 51.500945468134034 ], [ 12.091828213620744, 51.51193351298739 ], [ 12.136787539829792, 51.516596315720356 ], [ 12.148280075331735, 51.529174190746581 ], [ 12.169133642694087, 51.526292346063769 ], [ 12.186888840691447, 51.55540780437925 ], [ 12.140589086144677, 51.563795103712991 ], [ 12.128371400002672, 51.554319464621955 ], [ 12.059526059035095, 51.561406474307091 ], [ 12.031069399042975, 51.564458589685081 ], [ 12.009710423332107, 51.545200274431053 ], [ 12.000437288028991, 51.545200274431053 ], [ 11.999999999826779, 51.545686499937439 ], [ 11.993823036609466, 51.552554175464167 ], [ 11.98934028883148, 51.561207416163533 ], [ 11.972683804088453, 51.571053109353727 ], [ 11.964223715084371, 51.582740429248219 ], [ 11.966596934707612, 51.59392081325511 ], [ 11.958114872911683, 51.60166455895726 ], [ 11.992021148201868, 51.627405620405511 ], [ 11.999999999826779, 51.631457760318206 ], [ 12.002327073892191, 51.632639519409707 ], [ 12.049813438250583, 51.634600419330958 ], [ 12.114857232903276, 51.634534173932842 ], [ 12.167683342312278, 51.625868461545458 ], [ 12.20479785901154, 51.656747365286115 ], [ 12.187196480438592, 51.664930505426014 ], [ 12.189459828916066, 51.680048192935381 ], [ 12.209362614890127, 51.683678274760716 ], [ 12.218268076933976, 51.685302453253925 ], [ 12.250724051842354, 51.673350438643382 ], [ 12.296056939767357, 51.674740371186118 ], [ 12.312164068781536, 51.665711666000654 ], [ 12.339697810430534, 51.643516137236887 ], [ 12.373450265397988, 51.653052548049253 ], [ 12.392194305503912, 51.672503221383565 ], [ 12.366528375129635, 51.677625997557485 ], [ 12.36134245130007, 51.694300769697243 ], [ 12.350223478412397, 51.707424501285416 ], [ 12.357189316959394, 51.721549403325284 ], [ 12.382217993250901, 51.723757671551041 ], [ 12.410872421844395, 51.70061175139486 ], [ 12.438779726107661, 51.719050095043308 ], [ 12.478838792747496, 51.706181085887046 ], [ 12.499999999856989, 51.739026414909134 ], [ 12.501406351960153, 51.741208431879116 ], [ 12.522721379392378, 51.734109962797554 ], [ 12.543157436760128, 51.745028187114478 ], [ 12.570427486940625, 51.781279865076705 ], [ 12.540916062871135, 51.792952381874827 ], [ 12.535883958465984, 51.809148909901261 ], [ 12.564868000496787, 51.843001475075297 ], [ 12.566270813237731, 51.846731830047688 ], [ 12.576030922561422, 51.872677275251682 ], [ 12.607322261348344, 51.941484651108773 ], [ 12.598752302096809, 51.975421283808274 ], [ 12.5647801039395, 51.982481592748684 ], [ 12.556850212294204, 51.999999999749583 ], [ 12.554320357926446, 52.005650486164605 ], [ 12.503493906424731, 52.012519937273062 ], [ 12.499999999856989, 52.015802924955736 ], [ 12.489694074166668, 52.025485296201531 ], [ 12.452052175428722, 52.01206820702776 ], [ 12.416168217718045, 52.026946319196163 ], [ 12.370923226350332, 52.030731473643577 ], [ 12.267976080092883, 52.088941131999768 ], [ 12.279708093873158, 52.116494975251086 ], [ 12.338291457429058, 52.122446098647742 ], [ 12.377625374327145, 52.110039290422577 ], [ 12.469126171962984, 52.126130358210055 ], [ 12.469389862533168, 52.152428136563998 ], [ 12.499999999856989, 52.15273833244796 ], [ 12.52428155181827, 52.152984394477272 ], [ 12.532653742468431, 52.179411838281553 ], [ 12.5036037775705, 52.19563650659704 ], [ 12.531818721580915, 52.199883581294607 ], [ 12.514151420140843, 52.22059710606748 ], [ 12.499999999856989, 52.227403027664309 ], [ 12.47398248235524, 52.239913042048542 ], [ 12.492462830992663, 52.254503465510808 ], [ 12.499999999856989, 52.251222084862839 ], [ 12.5281270464118, 52.238974543815672 ], [ 12.547376493967928, 52.253063140262519 ], [ 12.564384566736747, 52.247869649885828 ], [ 12.583875731172895, 52.259643326495194 ], [ 12.643338064793273, 52.244671318992879 ], [ 12.654962446029467, 52.222911232948604 ], [ 12.690890352917103, 52.233924815530251 ], [ 12.714688471118343, 52.231717030338011 ], [ 12.753011571319389, 52.204434510162422 ], [ 12.82143940139405, 52.20350848736134 ], [ 12.835700692823673, 52.207212463853061 ], [ 12.852005590439228, 52.251834201539886 ], [ 12.860070142240557, 52.251358474120252 ], [ 12.889845256880232, 52.271651618438092 ], [ 12.915005778905986, 52.263342598528482 ], [ 12.920587239938303, 52.253406708023292 ], [ 12.908061914947469, 52.243851874362477 ], [ 12.896327662565506, 52.238683737754776 ], [ 12.860553575102282, 52.20200035081497 ], [ 12.860399755677866, 52.192950451248009 ], [ 12.866135036134599, 52.185288343659877 ], [ 12.8916031979075, 52.184851602879924 ], [ 12.90500749296281, 52.181794299466418 ], [ 12.916873591079025, 52.177519014057346 ], [ 12.925641318931934, 52.166994493494393 ], [ 12.923004407840191, 52.15587152615209 ], [ 12.917203204516333, 52.142599760818761 ], [ 12.909424318771986, 52.125335220463725 ], [ 12.902634273339567, 52.112611072134662 ], [ 12.892921652555053, 52.096965971113008 ], [ 12.886131608020953, 52.078954018782056 ], [ 12.882242165148778, 52.066256375675174 ], [ 12.890021050893125, 52.054683366583859 ], [ 12.907512558320303, 52.051391410168478 ], [ 12.912346894124077, 52.048099209410545 ], [ 12.898766805055871, 52.035379468254938 ], [ 12.898415217030081, 52.028407294218155 ], [ 12.913379684511284, 52.022098195001597 ], [ 12.935617630286632, 52.025671247035383 ], [ 12.950054715729149, 52.031966559095252 ], [ 12.969567853855461, 52.018949951885006 ], [ 12.999057304234787, 52.010739562059534 ], [ 12.999999999887205, 52.01077365156727 ], [ 13.024042032247646, 52.011643044929905 ], [ 13.040372213845188, 51.999999999749583 ], [ 13.042698174897966, 51.998359913331427 ], [ 13.065793117047621, 51.993299970129968 ], [ 13.097458018448814, 51.993825705602504 ], [ 13.122560766225387, 51.999999999749583 ], [ 13.132616826417747, 52.002501079631138 ], [ 13.140233247351386, 51.999999999749583 ], [ 13.158436575318122, 51.994088570457514 ], [ 13.174082245160742, 51.958929727141708 ], [ 13.191068344239396, 51.943840002919551 ], [ 13.217239682063877, 51.951984088994827 ], [ 13.283645880541087, 51.955628052597994 ], [ 13.257677063405835, 51.999999999749583 ], [ 13.249234196902382, 52.014579237077371 ], [ 13.252002953728374, 52.027942443430703 ], [ 13.345063922891791, 52.034370230677425 ], [ 13.370839724411836, 52.039190461520576 ], [ 13.367895173572947, 52.050541833204704 ], [ 13.444563349461834, 52.06127982045389 ], [ 13.478843187366291, 52.069533962402666 ], [ 13.499999999917415, 52.078936240761266 ], [ 13.509145684942967, 52.083000049746161 ], [ 13.511738646857751, 52.055227578112252 ], [ 13.560279776191827, 52.054603725435072 ], [ 13.614072752222597, 52.04220449994628 ], [ 13.646990186302535, 52.031581428583287 ], [ 13.647034134581181, 52.016346173502733 ], [ 13.66687688704312, 52.009317868423686 ], [ 13.666349505004433, 52.030213523895945 ], [ 13.682632428031509, 52.033998400388775 ], [ 13.695509341048133, 52.050475459684165 ], [ 13.706979901961597, 52.077521237478827 ], [ 13.736183687182258, 52.076619092696049 ], [ 13.767826613994972, 52.065115135028833 ], [ 13.775737346371885, 52.046492846055976 ], [ 13.769232966996446, 52.025126674264769 ], [ 13.752576481355103, 52.013609385248543 ], [ 13.778901638603999, 52.003577484287831 ], [ 13.787331990677227, 51.999999999749583 ], [ 13.807556067197492, 51.991512424333273 ], [ 13.808733974130643, 51.999999999749583 ], [ 13.80986336395361, 52.008228315424226 ], [ 13.862821318198549, 52.019494600799625 ], [ 13.918284337800982, 52.045417479022596 ], [ 13.963946840061611, 52.064438338765491 ], [ 13.999999999947628, 52.068664607715853 ], [ 14.002775348611177, 52.068989926048417 ], [ 14.050876992463859, 52.079604061799941 ], [ 14.114931945906305, 52.052148050826879 ], [ 14.177954108961545, 52.036548030352236 ], [ 14.192061580966753, 52.044474852344571 ], [ 14.203004759841528, 52.071285447816322 ], [ 14.281672592739389, 52.117025174536096 ], [ 14.334652520674492, 52.108978718496395 ], [ 14.384248414984258, 52.174143497082902 ], [ 14.3984877318254, 52.182628130438914 ], [ 14.409145245541509, 52.194683835656242 ], [ 14.433800359218747, 52.1955968121542 ], [ 14.440436584328433, 52.216100741500952 ], [ 14.49999999997784, 52.206159570510245 ], [ 14.536090516304947, 52.200134952991007 ], [ 14.556680393097112, 52.202595673640182 ], [ 14.533915065283079, 52.22265999074591 ], [ 14.54604485396948, 52.230315624869981 ], [ 14.60614444077431, 52.223307928370822 ], [ 14.632865135225959, 52.217410024211908 ], [ 14.65472951928535, 52.195755588607703 ], [ 14.724717520887586, 52.201577004906987 ], [ 14.733880785044933, 52.183819290206351 ], [ 14.728892629816741, 52.172700550100956 ], [ 14.713290908252771, 52.165087897394514 ], [ 14.715708076154655, 52.151209642544572 ], [ 14.736012287788155, 52.1284494293972 ], [ 14.699139487968917, 52.095759212954569 ], [ 14.707182065181765, 52.079577529652006 ], [ 14.740055550983064, 52.066044053705767 ], [ 14.74715323526431, 52.048125760360534 ], [ 14.843774034760907, 52.050648031074616 ], [ 14.865286829896192, 52.045019188295065 ], [ 14.876889236543906, 52.036441798803644 ], [ 14.854585367901434, 52.002926329031112 ], [ 14.856195353706459, 51.999999999749583 ], [ 14.862649919702761, 51.988397191677286 ], [ 14.879657992471586, 51.975394986822501 ], [ 14.912707272285772, 51.874179658075519 ], [ 14.938087536603067, 51.869817337323319 ], [ 14.946305907828814, 51.856714640898382 ], [ 14.928770452122992, 51.851045283434139 ], [ 14.890974733960631, 51.844425730058205 ], [ 14.893413876451, 51.83241045570206 ], [ 14.925474314156627, 51.828677282620987 ], [ 14.950854578473924, 51.762629230448255 ], [ 14.983991754845405, 51.763461541526908 ], [ 14.992803431875274, 51.805572184445772 ], [ 15.000000000008052, 51.809123295630918 ], [ 15.005235820760076, 51.811709194526379 ], [ 15.004577226299412, 51.824983378368906 ], [ 15.022995899304373, 51.826711635699439 ], [ 15.019812695738899, 51.847208171430829 ], [ 15.033094336621948, 51.848474059306589 ], [ 15.039460743752899, 51.861460527281558 ], [ 15.061611446944481, 51.854420615100814 ], [ 15.169972075564322, 51.891980367553437 ], [ 15.209707233068901, 51.853234004079141 ], [ 15.210789200828019, 51.852106272126832 ], [ 15.2093998897658, 51.85162543663025 ], [ 15.248761843982217, 51.803856311310746 ], [ 15.207358249093708, 51.791381258479632 ], [ 15.23051879610688, 51.744221968221083 ], [ 15.215239420609567, 51.739133204238463 ], [ 15.270056375452922, 51.668571392955222 ], [ 15.273129812975515, 51.649741523200277 ], [ 15.238202390362519, 51.620434979820097 ], [ 15.225118327638009, 51.582435350060372 ], [ 15.208411998973125, 51.576757853919908 ], [ 15.152058324919315, 51.585127932058107 ], [ 15.170652622155581, 51.559455666844663 ], [ 15.162705590654665, 51.544045311574749 ], [ 15.107603245537124, 51.548771180933862 ], [ 15.071292775814385, 51.560703131874476 ], [ 15.069404807243004, 51.58214353384254 ], [ 15.001964805078948, 51.591971408146023 ], [ 15.000000000008052, 51.591590665762411 ], [ 14.93017680512447, 51.578071170184032 ], [ 14.882009238404661, 51.557279156436479 ], [ 14.88055893712454, 51.513501118288211 ], [ 14.906115971923443, 51.500000000093614 ], [ 14.945976294391503, 51.479165894484574 ], [ 15.000000000008052, 51.444448629314863 ], [ 15.005126054717191, 51.441149920546572 ], [ 15.068943790940876, 51.428988616171452 ], [ 15.114825823490641, 51.431581721021757 ], [ 15.18380254486515, 51.471118109566333 ], [ 15.195409655990009, 51.500000000093614 ], [ 15.198247701670493, 51.507137366575051 ], [ 15.228872311751859, 51.505994719041276 ], [ 15.231134478944734, 51.500000000093614 ], [ 15.248783797011132, 51.453715813846436 ], [ 15.297256298650762, 51.411491162689593 ], [ 15.326300283463846, 51.42634270635871 ], [ 15.355256456161278, 51.459977725127096 ], [ 15.373148253777375, 51.453492158006433 ], [ 15.41474942682442, 51.402575273766857 ], [ 15.424424351604662, 51.358034304536758 ], [ 15.427921302562899, 51.352313367129845 ], [ 15.43793192776482, 51.255877983579992 ], [ 15.426867552683484, 51.204012358363144 ], [ 15.369811379009505, 51.180539168176971 ], [ 15.354685674714585, 51.150790085946618 ], [ 15.354795440757467, 51.116621722248617 ], [ 15.371984737855074, 51.102318847015653 ], [ 15.367616066236705, 51.046284053401997 ], [ 15.352270831652653, 51.024629255613043 ], [ 15.43979794330729, 51.015106422073281 ], [ 15.442583233626086, 50.999999999968175 ], [ 15.442717708729173, 50.999278386936084 ], [ 15.387242160323474, 50.99557156170976 ], [ 15.365223175305371, 50.977914051853062 ], [ 15.347770440962487, 50.932681105182319 ], [ 15.332848914748498, 50.932573092884098 ], [ 15.325949033204603, 50.932523146867673 ], [ 15.289660516510777, 50.931878143305049 ], [ 15.288189657285379, 50.93561640567944 ], [ 15.307025439636321, 50.950882228421321 ], [ 15.318177626833309, 50.963459583882631 ], [ 15.316179893117363, 50.9760466682987 ], [ 15.299978485914112, 50.982726820178435 ], [ 15.281208563548226, 50.985382832823312 ], [ 15.277278954304753, 50.998555448084872 ], [ 15.265245133538469, 50.999999999968175 ], [ 15.259321297601916, 51.000718832761606 ], [ 15.257629661225769, 50.999999999968175 ], [ 15.229772390428881, 50.988288493254508 ], [ 15.210234108457765, 50.989103622585219 ], [ 15.212389288995247, 50.999999999968175 ], [ 15.214690593090104, 51.011759018204572 ], [ 15.197896451411253, 51.018519993129011 ], [ 15.183143951302807, 51.014867330216781 ], [ 15.177667391936104, 50.999999999968175 ], [ 15.173748013605405, 50.989471741139077 ], [ 15.15179488767404, 50.99049719841237 ], [ 15.132629808991082, 50.998936635394635 ], [ 15.13298121106561, 50.999999999968175 ], [ 15.139127934295512, 51.018798911513286 ], [ 15.137020433638366, 51.027537511316197 ], [ 15.115111214663143, 51.027949167148591 ], [ 15.096692541658182, 51.036101856149379 ], [ 15.086659963427351, 51.029462967614172 ], [ 15.078756837984262, 51.01707224498923 ], [ 15.063828712746192, 51.017244914153842 ], [ 15.044685587092149, 51.0383190324917 ], [ 15.031338087122359, 51.042792888807035 ], [ 15.003786914563589, 51.031282118434234 ], [ 15.000000000008052, 51.025917458922891 ], [ 14.997879484559069, 51.022916087435689 ], [ 14.980937333759059, 51.018480147426914 ], [ 14.965379561372048, 51.008730205098487 ], [ 14.969154537317454, 50.999999999968175 ], [ 14.973290292850645, 50.990536638534628 ], [ 14.986057335619817, 50.987539086978416 ], [ 15.000000000008052, 50.990076550814777 ], [ 15.009165430003549, 50.991746122281192 ], [ 15.026947461576762, 50.973626847153156 ], [ 15.024400899443034, 50.952369060507088 ], [ 15.00611394550987, 50.940709960288103 ], [ 15.000000000008052, 50.937588956524202 ], [ 14.993396736781085, 50.934221173891032 ], [ 15.000000000008052, 50.929619591802954 ], [ 15.004291836025226, 50.92662563765419 ], [ 15.000000000008052, 50.900544116453382 ], [ 14.999593476409375, 50.898075283020738 ], [ 14.968785570484178, 50.894294464799778 ], [ 14.932967535640628, 50.903857887772666 ], [ 14.925210623586445, 50.900064369882216 ], [ 14.8882499263116, 50.911773222023669 ], [ 14.880317220244519, 50.906202337782908 ], [ 14.867682024107916, 50.904094972394518 ], [ 14.853003221785377, 50.907111109090813 ], [ 14.842851115519471, 50.904490110922978 ], [ 14.826809909372413, 50.884636829543894 ], [ 14.817448876613694, 50.860029091402559 ], [ 14.79266191720221, 50.833653873842394 ], [ 14.769259336203723, 50.835672107704809 ], [ 14.753745512095353, 50.825764772041666 ], [ 14.734320270526329, 50.841765849359867 ], [ 14.688657768265699, 50.854953027085394 ], [ 14.665716646438774, 50.861769328583215 ], [ 14.695206096818097, 50.901184016594506 ], [ 14.686174677496687, 50.9332076305162 ], [ 14.667628406890458, 50.936050761836789 ], [ 14.650554410356197, 50.930074718345942 ], [ 14.634908740513577, 50.923676601140862 ], [ 14.615241782962848, 50.915973989728371 ], [ 14.595464953368035, 50.922044017745598 ], [ 14.581423404229954, 50.928824127343297 ], [ 14.59157551049586, 50.948026849609718 ], [ 14.604650192113859, 50.973008720416495 ], [ 14.599705984265999, 50.987880922909007 ], [ 14.583618379236203, 50.999999999968175 ], [ 14.566986318787436, 51.012662309475886 ], [ 14.545495497342314, 51.003256582233888 ], [ 14.536815666945008, 51.017842612078077 ], [ 14.514599694859825, 51.020034103167724 ], [ 14.49999999997784, 51.024722101461997 ], [ 14.498800205592794, 51.025107337448169 ], [ 14.49999999997784, 51.026882566092318 ], [ 14.510072998803199, 51.041783985645488 ], [ 14.508710594978682, 51.050133320189062 ], [ 14.49999999997784, 51.0557664483038 ], [ 14.499701150245748, 51.055959701575539 ], [ 14.479089298865105, 51.047385773197227 ], [ 14.48194595224839, 51.037894192373791 ], [ 14.479946295239419, 51.027325042059374 ], [ 14.454741824036702, 51.03338002766737 ], [ 14.446171864785166, 51.039195251734469 ], [ 14.431163449025318, 51.036154963443437 ], [ 14.408420094901452, 51.029476246355607 ], [ 14.393697344300266, 51.027112571823366 ], [ 14.369833303231903, 51.045169033045518 ], [ 14.342431407317159, 51.053411580169822 ], [ 14.312722214646289, 51.05550848217905 ], [ 14.302350366088843, 51.021362228803341 ], [ 14.270861258700545, 51.002206953951188 ], [ 14.267668347940111, 50.999999999968175 ], [ 14.259500568932852, 50.994414761552747 ], [ 14.276420745144383, 50.975915159457173 ], [ 14.305822298966419, 50.969562840712278 ], [ 14.317117065866986, 50.975783650241304 ], [ 14.329598442579174, 50.978466362682198 ], [ 14.340387802029538, 50.973442725365523 ], [ 14.343815785730154, 50.965274860908387 ], [ 14.320127538674685, 50.960552361191603 ], [ 14.326675866328769, 50.953592700946011 ], [ 14.328917240217761, 50.947053086003855 ], [ 14.334213036091413, 50.939249075488775 ], [ 14.402992454191862, 50.939183268745253 ], [ 14.42955932832078, 50.931180476579222 ], [ 14.426702674937497, 50.899985334552831 ], [ 14.388643265306635, 50.901447459213365 ], [ 14.351440852050089, 50.896889693685758 ], [ 14.314062643882329, 50.891488292408098 ], [ 14.288484611861971, 50.892594972617957 ], [ 14.273300401190914, 50.89956381279071 ], [ 14.22829712670322, 50.884781774705189 ], [ 14.197423298809213, 50.867859643661724 ], [ 14.134049547728182, 50.851643397989257 ], [ 14.092056746048186, 50.816396372164256 ], [ 14.068192704979824, 50.823482223107 ], [ 14.046196476084498, 50.816897827566173 ], [ 14.027935870636931, 50.819325849344793 ], [ 13.999999999947628, 50.823689057306005 ], [ 13.991524529989253, 50.8250127307819 ], [ 13.971703752115793, 50.816963808152096 ], [ 13.957662202977712, 50.80744844650264 ], [ 13.948718681111906, 50.79519834383072 ], [ 13.941005717336367, 50.778613321051964 ], [ 13.920899274304242, 50.783592090112599 ], [ 13.904352660706985, 50.780805629950564 ], [ 13.906220471981706, 50.767333183696877 ], [ 13.910043992885072, 50.756103165089357 ], [ 13.896244160627008, 50.747381516574947 ], [ 13.865743894448958, 50.751187527842966 ], [ 13.862293936159864, 50.744632537275855 ], [ 13.854185436079888, 50.734547151890503 ], [ 13.832518820621871, 50.731480127371633 ], [ 13.81924637130081, 50.738962254967625 ], [ 13.807050659747288, 50.737058788893464 ], [ 13.777890822805272, 50.737376038545605 ], [ 13.749917596573194, 50.742927560281672 ], [ 13.716648574467465, 50.753090416531464 ], [ 13.695047881876572, 50.742332785663471 ], [ 13.657735596575939, 50.732656725222149 ], [ 13.593834463456222, 50.725623136045243 ], [ 13.5459305873066, 50.72546447118625 ], [ 13.529559767722235, 50.718072744681692 ], [ 13.525494530837166, 50.708894265757515 ], [ 13.548479600942738, 50.679375989454215 ], [ 13.524132127012649, 50.658327360871617 ], [ 13.53263616339706, 50.628339857069399 ], [ 13.513079076992103, 50.621250777081983 ], [ 13.499999999917415, 50.607938370954294 ], [ 13.494510830899072, 50.60235014724411 ], [ 13.463373311536566, 50.587592807389804 ], [ 13.443135022770194, 50.588547601006809 ], [ 13.402988059573069, 50.59943352146626 ], [ 13.365104443955106, 50.621701330011831 ], [ 13.342734652445507, 50.628525351640434 ], [ 13.343877313080169, 50.623768517429873 ], [ 13.344448644295813, 50.614306411527672 ], [ 13.332187009875165, 50.605743809765549 ], [ 13.309817218365566, 50.600335043228604 ], [ 13.289205366984925, 50.592963267407718 ], [ 13.288919701826259, 50.584980287386095 ], [ 13.29395180623141, 50.573679789650335 ], [ 13.283162446781045, 50.572008358178593 ], [ 13.258023899343771, 50.567895851818776 ], [ 13.240312649625055, 50.590284744477962 ], [ 13.216624402569586, 50.583614292062215 ], [ 13.208362083065197, 50.578892681731794 ], [ 13.196254268068962, 50.573414486830544 ], [ 13.188277613723239, 50.551893441437358 ], [ 13.18317958645096, 50.523006282827254 ], [ 13.163402757754463, 50.506297779615082 ], [ 13.132067469790579, 50.518969160575033 ], [ 13.101896817948155, 50.515702024972867 ], [ 13.087899217088719, 50.504770076180968 ], [ 13.057662642379167, 50.500744671176527 ], [ 13.03467757137528, 50.515210606937138 ], [ 13.02141053530212, 50.499999999891088 ], [ 13.019383490456766, 50.497700177837885 ], [ 13.015340227261861, 50.473689600085734 ], [ 13.004155331507063, 50.442257455540343 ], [ 12.999999999887205, 50.441109380952227 ], [ 12.970666567109793, 50.433004064305052 ], [ 12.935595655698151, 50.42643476397788 ], [ 12.905688695324226, 50.43536036335751 ], [ 12.865541731228788, 50.452535406450373 ], [ 12.83816180990252, 50.465823666680301 ], [ 12.813748412206992, 50.448600835422745 ], [ 12.791180852096018, 50.455811771581146 ], [ 12.755143074062609, 50.445745104020361 ], [ 12.72128074705107, 50.424183349674742 ], [ 12.703987009123583, 50.402888342146262 ], [ 12.684188204940291, 50.421168129513973 ], [ 12.641580124664321, 50.411001860863863 ], [ 12.575811179371566, 50.404126534544098 ], [ 12.52496275328137, 50.38247983191642 ], [ 12.499999999856989, 50.362094410371121 ], [ 12.499670386419679, 50.361825177683791 ], [ 12.488968924424922, 50.345869960995017 ], [ 12.459896984938515, 50.34540836587145 ], [ 12.446536637263531, 50.319974119129178 ], [ 12.408565125088277, 50.315777736265169 ], [ 12.404741605083228, 50.28888829767309 ], [ 12.37709799228846, 50.282721505884105 ], [ 12.349432404905212, 50.273080156945113 ], [ 12.34323566527692, 50.253130861728593 ], [ 12.351849572807099, 50.228334470613511 ], [ 12.328468965498775, 50.214661831839962 ], [ 12.324491625170996, 50.203181178087199 ], [ 12.329743472766001, 50.193338406932426 ], [ 12.320184671405906, 50.181601146331722 ], [ 12.309153595973838, 50.178133666319084 ], [ 12.277906205465561, 50.186299045104462 ], [ 12.279356505847367, 50.21077353435826 ], [ 12.250680103563706, 50.216791002803966 ], [ 12.24305503634546, 50.230912524476032 ], [ 12.240506022709321, 50.239161355795652 ], [ 12.251427227893934, 50.242862287933328 ], [ 12.26199684415444, 50.237945272083458 ], [ 12.273269637364844, 50.243430620169796 ], [ 12.260480620905509, 50.26445410859381 ], [ 12.228024645997131, 50.273212243087514 ], [ 12.198425324472037, 50.276461456078557 ], [ 12.189547725473354, 50.323972213470014 ], [ 12.115714229277586, 50.323035396535829 ], [ 12.101590527410142, 50.31078525582754 ], [ 12.087367440431239, 50.321689514400056 ], [ 12.060954385726737, 50.339235751094108 ], [ 12.029025793755357, 50.334737675419099 ], [ 12.007337203708861, 50.360849558997444 ], [ 11.999999999826779, 50.381233206227684 ], [ 11.98826355016563, 50.413820191522049 ], [ 11.947347488049802, 50.434781172343676 ], [ 11.895488247957509, 50.442046892852126 ], [ 11.896586958516895, 50.45515388545698 ], [ 11.90493717547689, 50.472177022656595 ], [ 11.943304224854895, 50.466810268897277 ], [ 11.952775128759386, 50.47789825497447 ], [ 11.947918818367132, 50.489706780700786 ], [ 11.924076751887247, 50.495701955896756 ], [ 11.921803400669086, 50.499999999891088 ], [ 11.915440869768588, 50.512155729678604 ], [ 11.92585666660468, 50.531252088380654 ], [ 11.945743367345264, 50.538514101574293 ], [ 11.938579760196889, 50.552490644812778 ], [ 11.969080025476625, 50.56522916239949 ], [ 11.987955910418485, 50.558568411276873 ], [ 11.999999999826779, 50.566058074318327 ], [ 12.010018063079251, 50.572286934231109 ], [ 12.028124849102403, 50.56522916239949 ], [ 12.036035580581002, 50.553074568731759 ], [ 12.019928451566821, 50.537106925220975 ], [ 12.031860472550163, 50.523696808429911 ], [ 12.058009835786164, 50.522236069384931 ], [ 12.122064789228608, 50.537239679585923 ], [ 12.119757492472493, 50.550486667021232 ], [ 12.105518174733033, 50.5590328367499 ], [ 12.118614830939515, 50.573215509301953 ], [ 12.090421861517582, 50.581784061461356 ], [ 12.096201091151274, 50.599751708071103 ], [ 12.131733460836161, 50.589873670449734 ], [ 12.16023407000524, 50.570708314319354 ], [ 12.177220169083895, 50.581505541876766 ], [ 12.216312368203646, 50.575868479449817 ], [ 12.258261220706682, 50.623954029562078 ], [ 12.317701580636893, 50.648620615742757 ], [ 12.330908107989144, 50.663861819211299 ], [ 12.389469497854879, 50.690439261993561 ], [ 12.344202531898683, 50.693839764354443 ], [ 12.28933281810038, 50.686495955957206 ], [ 12.281356162856341, 50.666853860857636 ], [ 12.262106716198527, 50.66455027054117 ], [ 12.255536413955966, 50.685410827073284 ], [ 12.241648684242296, 50.676517110019695 ], [ 12.22989245817017, 50.683690448597261 ], [ 12.233166621548051, 50.694342541628167 ], [ 12.228090568864257, 50.705574226389125 ], [ 12.200271162056591, 50.712862129678335 ], [ 12.176231326975335, 50.703259318411369 ], [ 12.187240428717237, 50.680593607526369 ], [ 12.133996809313633, 50.679428930279002 ], [ 12.130371057011644, 50.693032663806001 ], [ 12.080819112777156, 50.696922496533709 ], [ 12.077852588248101, 50.708113879234226 ], [ 12.046297557992679, 50.690320173437641 ], [ 12.036892576955314, 50.670587024215209 ], [ 11.999999999826779, 50.661921411362407 ], [ 11.967453931081925, 50.65427540433646 ], [ 11.865713130622888, 50.648607371523099 ], [ 11.811942128282283, 50.661716963648999 ], [ 11.772542289415385, 50.656592742813281 ], [ 11.797153454813976, 50.635229148483702 ], [ 11.762587951750856, 50.619514782622275 ], [ 11.741097130305736, 50.587393889507311 ], [ 11.688051279503506, 50.5689571779292 ], [ 11.633599075699802, 50.572446119476389 ], [ 11.599473057219761, 50.584516118453415 ], [ 11.571939315570763, 50.590523430985826 ], [ 11.546273386094802, 50.616506455689539 ], [ 11.540362311625177, 50.663689704793143 ], [ 11.531224856964258, 50.680004329828314 ], [ 11.525134152675472, 50.690875915910055 ], [ 11.519179129927199, 50.717266063419153 ], [ 11.537835272577516, 50.724869474152023 ], [ 11.575609016151397, 50.697795679503123 ], [ 11.629380018492, 50.706288517838388 ], [ 11.634851607480233, 50.720492705852571 ], [ 11.623556840579663, 50.734097686810216 ], [ 11.593803699630152, 50.738869727549371 ], [ 11.592686843102028, 50.753539267539232 ], [ 11.593620219631687, 50.757261058000033 ], [ 11.634170406017132, 50.774360476087033 ], [ 11.710772659038893, 50.783697734565983 ], [ 11.725033950468516, 50.802366629915902 ], [ 11.755775932628271, 50.807672825288705 ], [ 11.779420231405094, 50.782443190972657 ], [ 11.806668306997111, 50.783724145784234 ], [ 11.828708485069399, 50.796412937622904 ], [ 11.85092445715458, 50.804241026616758 ], [ 11.873601888411322, 50.809731782842732 ], [ 11.899553483045949, 50.81662070830955 ], [ 11.935811004269214, 50.833482385882519 ], [ 11.951610493536245, 50.849283000031555 ], [ 11.936382334586543, 50.867279648602235 ], [ 11.945194010718099, 50.87181396599879 ], [ 11.951825553808526, 50.869304597291659 ] ], [ [ 14.051162657622523, 51.700294239106022 ], [ 14.065401975361979, 51.671245603097788 ], [ 14.082124382972136, 51.672211986370066 ], [ 14.087244384832893, 51.644522853548771 ], [ 14.103812973018631, 51.631910785249843 ], [ 14.131500534092046, 51.629154738114416 ], [ 14.143872039658465, 51.64558253080363 ], [ 14.162176594282991, 51.653343906875186 ], [ 14.177844237815775, 51.650430236133772 ], [ 14.18533745840146, 51.635859059504106 ], [ 14.206762356979455, 51.600338668994453 ], [ 14.253193958158791, 51.591918361781509 ], [ 14.284858859559984, 51.600630368304067 ], [ 14.338739732148042, 51.598164125862532 ], [ 14.378425237071919, 51.60076295797159 ], [ 14.403497861642068, 51.60472721536518 ], [ 14.439184051649686, 51.600617109259993 ], [ 14.466629896741395, 51.599901117337609 ], [ 14.489900632005632, 51.604873050807385 ], [ 14.49999999997784, 51.603725768325617 ], [ 14.516159867285717, 51.601889956392199 ], [ 14.549428889391448, 51.600471260077512 ], [ 14.573578595618478, 51.601054654541784 ], [ 14.586213791755082, 51.635792816512755 ], [ 14.551208804108882, 51.647993203466534 ], [ 14.527168969027622, 51.656376573031203 ], [ 14.524949568828793, 51.695279890275437 ], [ 14.555911294178408, 51.706167858401543 ], [ 14.558833870428817, 51.720068348678353 ], [ 14.535694980000512, 51.732523559480228 ], [ 14.520378924493521, 51.758625995451823 ], [ 14.525652744880373, 51.782507999054232 ], [ 14.532201073432773, 51.811207706684797 ], [ 14.553538074555162, 51.832700653673356 ], [ 14.534772060759074, 51.850596977911465 ], [ 14.526092230361769, 51.883324652698171 ], [ 14.522224761179761, 51.917384497812215 ], [ 14.533761244960349, 51.939589752359659 ], [ 14.519236262960543, 51.945392624908251 ], [ 14.503920207453552, 51.937010455760948 ], [ 14.49999999997784, 51.938575597711257 ], [ 14.4874395158251, 51.943589999254556 ], [ 14.477463204470405, 51.956825102175578 ], [ 14.453928776839348, 51.960258220141938 ], [ 14.436788858336278, 51.953325944147721 ], [ 14.432284135969814, 51.939984529497295 ], [ 14.36594386035973, 51.921031287405171 ], [ 14.314150541337932, 51.908904890948826 ], [ 14.273564092659415, 51.909708152569763 ], [ 14.256841684150945, 51.893943150345898 ], [ 14.206586562966558, 51.875247109379167 ], [ 14.211882358840212, 51.856688273383249 ], [ 14.165318911926626, 51.857545207450123 ], [ 14.119348770817165, 51.860827771391712 ], [ 14.09445194025991, 51.855949978879259 ], [ 14.080981721439159, 51.844333418355475 ], [ 14.066940173199393, 51.829904119346331 ], [ 14.052590984314167, 51.802905953335156 ], [ 14.050239739279402, 51.771083735870405 ], [ 14.06817073128966, 51.759775475532869 ], [ 14.073862063467747, 51.747089927154249 ], [ 14.062677167712948, 51.731756777329075 ], [ 14.049558536917987, 51.730249616856156 ], [ 14.051162657622523, 51.700294239106022 ] ], [ [ 13.240818057973577, 51.918292931999126 ], [ 13.200473325276761, 51.881308697746498 ], [ 13.195726886030277, 51.848566361918088 ], [ 13.221832300987634, 51.798695096626538 ], [ 13.262177033684445, 51.785862085886507 ], [ 13.333373619686785, 51.795843633651451 ], [ 13.331000400063544, 51.83574762223175 ], [ 13.326253960817057, 51.85283846008295 ], [ 13.304894985106188, 51.865652308491633 ], [ 13.319134301947331, 51.899804640154585 ], [ 13.240818057973577, 51.918292931999126 ] ], [ [ 11.371006728288828, 51.439031139078075 ], [ 11.377620979708352, 51.408975926164871 ], [ 11.347757966714754, 51.392854042040419 ], [ 11.367051362549528, 51.378452792167877 ], [ 11.404759184154599, 51.394145056736477 ], [ 11.441522112828066, 51.393657637261505 ], [ 11.473670447989301, 51.398887246100315 ], [ 11.49406255618009, 51.454715672421841 ], [ 11.479625470737574, 51.477154081637408 ], [ 11.43572090950421, 51.474905479794977 ], [ 11.402232145106939, 51.451663402970318 ], [ 11.384476947109579, 51.459530474587496 ], [ 11.394629052477171, 51.478731981369378 ], [ 11.372830591284904, 51.481558914824774 ], [ 11.346922944928924, 51.460753826314509 ], [ 11.371006728288828, 51.439031139078075 ] ] ], [ [ [ 10.833231421616141, 50.665173293472499 ], [ 10.863313541792371, 50.656407360170718 ], [ 10.894121602227797, 50.623901022987042 ], [ 10.915546346295564, 50.623450494674898 ], [ 10.918823651081995, 50.613749520357928 ], [ 10.919853300060653, 50.610701296736956 ], [ 10.897769173709721, 50.600030119147384 ], [ 10.885749256169094, 50.571995092256778 ], [ 10.870301354927848, 50.543239780758704 ], [ 10.821694302726646, 50.524121742036733 ], [ 10.774911114419835, 50.50518189628837 ], [ 10.774646123987434, 50.499999999891088 ], [ 10.773636607152609, 50.480462719078766 ], [ 10.768802271348832, 50.464179283277296 ], [ 10.74564140633205, 50.453206487628634 ], [ 10.714459938690899, 50.456811741238702 ], [ 10.690134438450976, 50.463929332292302 ], [ 10.655678886483683, 50.458259041561909 ], [ 10.659128764822718, 50.490298443861953 ], [ 10.631111589413679, 50.497857928913682 ], [ 10.632660288556762, 50.499999999891088 ], [ 10.640758287331064, 50.511318924490162 ], [ 10.670357608856161, 50.51781373630515 ], [ 10.666270397382611, 50.539018550916445 ], [ 10.64805374021369, 50.549265658053457 ], [ 10.667588852928482, 50.561169135922498 ], [ 10.648910736588, 50.578720254371277 ], [ 10.613444288871923, 50.584463070625638 ], [ 10.595425399406061, 50.566250747986508 ], [ 10.55303706142163, 50.554574159869574 ], [ 10.504495850340861, 50.554574159869574 ], [ 10.502452326799936, 50.554574159869574 ], [ 10.49999999973614, 50.555731855295249 ], [ 10.483224853832287, 50.563650305289961 ], [ 10.469644763865766, 50.594766542779013 ], [ 10.470084249347163, 50.626153620022038 ], [ 10.455779009638894, 50.642978388019415 ], [ 10.485817815747071, 50.647561094295817 ], [ 10.49999999973614, 50.653908150897465 ], [ 10.516208210779352, 50.661160873948518 ], [ 10.547807189313421, 50.660485612942374 ], [ 10.63157304858524, 50.661584561831113 ], [ 10.667896522320031, 50.672162246073071 ], [ 10.686992119909025, 50.652024164940791 ], [ 10.705889979439362, 50.647561094295817 ], [ 10.722985949663787, 50.661240315576499 ], [ 10.75078338188297, 50.669223527769695 ], [ 10.760408106110193, 50.670057515844327 ], [ 10.798928974912613, 50.675167022869225 ], [ 10.833231421616141, 50.665173293472499 ] ] ], [ [ [ 11.767883771879019, 51.925901927089647 ], [ 11.770872245843726, 51.945458412970801 ], [ 11.76370863869535, 51.971081991912492 ], [ 11.749155748734612, 51.987575495937314 ], [ 11.739558932468322, 51.998412481297009 ], [ 11.740404151030944, 51.999999999749583 ], [ 11.740811351959344, 52.000773433388936 ], [ 11.752128206636117, 52.016133613666952 ], [ 11.724858156455619, 52.018365443534208 ], [ 11.716266222615603, 52.017834065594656 ], [ 11.711695577382013, 52.03156814844796 ], [ 11.745733698406449, 52.040903309830362 ], [ 11.754677220272255, 52.052705567223633 ], [ 11.756852671294123, 52.091130792885039 ], [ 11.781551734148318, 52.099432429616066 ], [ 11.792011479263055, 52.115898493271878 ], [ 11.829082047683668, 52.12542798692796 ], [ 11.867910556233236, 52.121902711016482 ], [ 11.885402062762099, 52.130609369618199 ], [ 11.908079494018839, 52.128316914453599 ], [ 11.913858722754217, 52.114108999755814 ], [ 11.940074008857342, 52.114811550332583 ], [ 11.966618909296095, 52.114188534248015 ], [ 11.982044835948857, 52.100652347962949 ], [ 11.993119860557885, 52.085944797201435 ], [ 11.985956253409512, 52.067198540547615 ], [ 11.999999999826779, 52.049961327663993 ], [ 12.001689807233006, 52.047886817856288 ], [ 11.999999999826779, 52.045985816590786 ], [ 11.994680032983776, 52.040000421444731 ], [ 11.999999999826779, 52.034520254722025 ], [ 12.009710423332107, 52.024515681449685 ], [ 12.034409486186298, 52.017966910535691 ], [ 12.031419966582602, 51.999999999749583 ], [ 12.02970699521846, 51.989816818543972 ], [ 12.01348999505851, 51.982665645386142 ], [ 11.999999999826779, 51.979741021497183 ], [ 11.985231103667765, 51.976538912168259 ], [ 11.965608093497366, 51.997190263375749 ], [ 11.925065593097493, 51.993391974479636 ], [ 11.901047732604717, 51.988226307148196 ], [ 11.874173218728652, 51.978576867725771 ], [ 11.878787812240889, 51.953575893267967 ], [ 11.881556564575307, 51.952865491327664 ], [ 11.876019056313211, 51.930614209843384 ], [ 11.836816985149374, 51.920320384551019 ], [ 11.820028654672095, 51.909326275393965 ], [ 11.7930003204733, 51.916541875835158 ], [ 11.776168041717376, 51.906323820966477 ], [ 11.767883771879019, 51.925901927089647 ] ] ], [ [ [ 11.393376519798423, 51.067583718680908 ], [ 11.410560387478457, 51.051022587905408 ], [ 11.400803818415298, 51.031096222987415 ], [ 11.374324840843672, 51.023234820862342 ], [ 11.332991267834927, 51.026050207090137 ], [ 11.332046374903326, 51.048500739343964 ], [ 11.360854622921234, 51.064492228867756 ], [ 11.393376519798423, 51.067583718680908 ] ] ], [ [ [ 11.498250252303006, 50.677431832288462 ], [ 11.496831312107767, 50.668813147108523 ], [ 11.470572077725995, 50.660154598967772 ], [ 11.454750240171323, 50.663345319323277 ], [ 11.449103230869355, 50.664484073694972 ], [ 11.451498424182763, 50.674584620179061 ], [ 11.470572077725995, 50.684669748472359 ], [ 11.487272511645985, 50.691881528347658 ], [ 11.49920453173101, 50.683227258634062 ], [ 11.498250252303006, 50.677431832288462 ] ] ] ] } }
]
}
