{
"type": "FeatureCollection",
"name": "Schleswig-Holstein-Gottorp",
"crs": { "type": "name", "properties": { "name": "urn:ogc:def:crs:OGC:1.3:CRS84" } },
"features": [
{ "type": "Feature", "properties": { "OBJECTID": 95.0, "YEAR": 1700.0, "OWNER_ID": 6788.0, "SHORT_NAME": "Schleswig-Holstein-Gottorp", "LONG_NAME": "Duchy of Schleswig-Holstein-Gottorp", "VARIANTS": "Schleswig-Holstein-Gottorf", "SHAPE_LENG": 973986.1, "Shape__Are": 13544564837.291992, "Shape__Len": 974992.95921950857 }, "geometry": { "type": "MultiPolygon", "coordinates": [ [ [ [ 10.126899385422968, 54.380075648524254 ], [ 10.138954201614071, 54.353779551411797 ], [ 10.128032996429457, 54.32364821683224 ], [ 10.162444680068162, 54.336257286297261 ], [ 10.171849661105531, 54.379620747971352 ], [ 10.215534480047353, 54.427741152105426 ], [ 10.247353200872961, 54.432254054961646 ], [ 10.291081968093428, 54.457638049458794 ], [ 10.351972629303761, 54.454153618116614 ], [ 10.450263471473702, 54.415778886032008 ], [ 10.47409564929894, 54.412702345484419 ], [ 10.49999999973614, 54.409471438451227 ], [ 10.516831399939718, 54.40737201344718 ], [ 10.559966203789271, 54.399581207554057 ], [ 10.589304690488472, 54.393177875455194 ], [ 10.618957628859613, 54.38552845792492 ], [ 10.64298362000403, 54.376715647688549 ], [ 10.664245909142554, 54.366142009503108 ], [ 10.680871850267609, 54.35422469555634 ], [ 10.687827141694855, 54.341096765642476 ], [ 10.71164283902789, 54.336201503813626 ], [ 10.730768571501404, 54.334533001061942 ], [ 10.748440926863264, 54.333922131888315 ], [ 10.771786375009683, 54.334511768354531 ], [ 10.774083124646049, 54.334604083777549 ], [ 10.79991605811985, 54.335286156593675 ], [ 10.817437010525406, 54.334711565144801 ], [ 10.836587793418936, 54.333124769824643 ], [ 10.860368991851798, 54.32851556667088 ], [ 10.947145324829632, 54.384073113761559 ], [ 10.987292288026755, 54.387695242451763 ], [ 10.999999999766354, 54.384979130492162 ], [ 11.02414311415583, 54.379818348638132 ], [ 11.053588615358194, 54.377275816296311 ], [ 11.100196010550425, 54.384389239187342 ], [ 11.111886313755427, 54.375694887424729 ], [ 11.091120642950367, 54.363796436116338 ], [ 11.068289392269211, 54.36304525475073 ], [ 11.115709834658793, 54.18520819422389 ], [ 10.999999999766354, 54.118069539632721 ], [ 10.998477183781555, 54.117185222264801 ], [ 10.961714256006397, 54.068208153273666 ], [ 10.94125622405017, 54.056552292860452 ], [ 10.920776218403773, 54.056366409725037 ], [ 10.907064283601319, 54.063907284077665 ], [ 10.892868915038822, 54.059181122465553 ], [ 10.877812911026798, 54.036143590932937 ], [ 10.842086411815751, 54.039035773764084 ], [ 10.800884683642941, 54.048346082942345 ], [ 10.799412408672653, 54.033815240606351 ], [ 10.741136683965586, 54.040722675633226 ], [ 10.676532374794288, 54.046354039049113 ], [ 10.639242064082135, 54.043325948445393 ], [ 10.612741112820339, 54.019651392671754 ], [ 10.602273744602103, 53.99999999987628 ], [ 10.595139734247395, 53.986762042057805 ], [ 10.55235585995853, 53.964969854910997 ], [ 10.506451640817881, 53.968637737066402 ], [ 10.49999999973614, 53.969815557095885 ], [ 10.460942958879979, 53.976945145672701 ], [ 10.424004236193618, 53.973698619508049 ], [ 10.38686774580419, 53.97100394077539 ], [ 10.372298814627424, 53.99401480175618 ], [ 10.378380617510061, 53.99999999987628 ], [ 10.390493498106181, 54.012062572376315 ], [ 10.400601655195128, 54.053803792388933 ], [ 10.390427575239055, 54.072734201612221 ], [ 10.336766444044223, 54.076490046834309 ], [ 10.271612778245759, 54.062991300867438 ], [ 10.191780310124759, 54.027305255575222 ], [ 10.141415317794605, 54.028766769755826 ], [ 10.060199608527755, 53.99999999987628 ], [ 10.03785065433949, 53.992175453555717 ], [ 10.031741811268489, 53.96631083861412 ], [ 9.999999999705929, 53.959018626198883 ], [ 9.995579104528515, 53.958001299436333 ], [ 9.950580310837459, 53.959881609736811 ], [ 9.924844775401711, 53.973238564464722 ], [ 9.892066521800317, 53.995302296503901 ], [ 9.867603501168491, 53.990217772499257 ], [ 9.857949932935812, 53.958159091065937 ], [ 9.829252506481243, 53.950413447735649 ], [ 9.798580486912444, 53.918850466712058 ], [ 9.753625573228073, 53.898260432809572 ], [ 9.740790714841472, 53.862875487741654 ], [ 9.690657978334764, 53.860120892512917 ], [ 9.643048333678358, 53.86904301099036 ], [ 9.611476776218337, 53.865656257656887 ], [ 9.561804778434333, 53.861491623024719 ], [ 9.515467649480167, 53.862585539068924 ], [ 9.499999999675717, 53.864984941952329 ], [ 9.48751618044427, 53.866921380742667 ], [ 9.45061322058768, 53.878015917059514 ], [ 9.414412339041398, 53.885893613573785 ], [ 9.405636367349123, 53.894573160965749 ], [ 9.417242590040166, 53.913585443963285 ], [ 9.419063603580161, 53.951597085912752 ], [ 9.371366198910387, 53.973698619508049 ], [ 9.377837328043897, 53.99999999987628 ], [ 9.38224840373694, 54.018136397634237 ], [ 9.421762215457195, 54.021339084750657 ], [ 9.435891529100221, 54.052595456233384 ], [ 9.464040456818717, 54.050577058569523 ], [ 9.491399548010179, 54.014481576842535 ], [ 9.499999999675717, 54.014224329683188 ], [ 9.602042607120758, 54.011172024508056 ], [ 9.637848570403523, 54.033748817293748 ], [ 9.752528576654246, 54.038477885646337 ], [ 9.848800982534202, 54.053086762244554 ], [ 9.862623137927075, 54.084942768794903 ], [ 9.917472959431727, 54.116416259257655 ], [ 9.923462559233602, 54.14179772818693 ], [ 9.912119616582661, 54.214224496188628 ], [ 9.867449922492574, 54.237179569187369 ], [ 9.824403782361562, 54.266119582526088 ], [ 9.786469646390334, 54.271178685431224 ], [ 9.754700629349395, 54.28552042622119 ], [ 9.746846135102528, 54.323555876701498 ], [ 9.730588647872723, 54.349112954115519 ], [ 9.701268205632637, 54.36281623068642 ], [ 9.73360937315276, 54.376059494262911 ], [ 9.789539780807626, 54.391916111741978 ], [ 9.843916566551654, 54.401240658825479 ], [ 9.870328148019089, 54.399375919624788 ], [ 9.915383198704815, 54.389118332285264 ], [ 9.977528095799672, 54.377925298084847 ], [ 9.999999999705929, 54.381476030962119 ], [ 10.007057947908899, 54.382589434977433 ], [ 10.058407703097911, 54.382589434977433 ], [ 10.126899385422968, 54.380075648524254 ] ] ], [ [ [ 10.062748062513471, 53.618566684212773 ], [ 10.061253235337977, 53.624279893078615 ], [ 10.071499830897046, 53.632579654938169 ], [ 10.081052039521271, 53.645892983529833 ], [ 10.081806635139714, 53.650401441203577 ], [ 10.081078408668121, 53.655471271555349 ], [ 10.080349962109283, 53.660592668499909 ], [ 10.080867016217148, 53.664360109976357 ], [ 10.082647590297999, 53.669148744043078 ], [ 10.088303543226937, 53.677001057849857 ], [ 10.090742685717302, 53.731163240773022 ], [ 10.072811693707047, 53.753183790119415 ], [ 10.057100101895617, 53.783248350698294 ], [ 10.060396239861982, 53.793163853238028 ], [ 10.070570319818055, 53.809108217147681 ], [ 10.078525000473613, 53.834266270164221 ], [ 10.089292385335495, 53.864522885904556 ], [ 10.117990762207636, 53.881810043807462 ], [ 10.157456523941658, 53.883970433787681 ], [ 10.189736704837141, 53.879649541665437 ], [ 10.219204180627987, 53.865972542164734 ], [ 10.23909088136857, 53.85581070583752 ], [ 10.255730665532155, 53.849697912186734 ], [ 10.282138446227622, 53.844011430774671 ], [ 10.294588399871172, 53.842919532249759 ], [ 10.312348432601393, 53.841628098968556 ], [ 10.35252198503261, 53.839158916060931 ], [ 10.384318732168053, 53.82968961054209 ], [ 10.443363554895514, 53.819980680405294 ], [ 10.488169060781834, 53.804541993760303 ], [ 10.49999999973614, 53.802902751838637 ], [ 10.529700403290267, 53.798787312489473 ], [ 10.554838950727543, 53.799434093934657 ], [ 10.587294925635922, 53.817803775410262 ], [ 10.627507811700168, 53.823714136906624 ], [ 10.645229314789537, 53.832629855009785 ], [ 10.644814123346686, 53.816044199647159 ], [ 10.642713996061394, 53.781254403422373 ], [ 10.574396038030816, 53.776764372350861 ], [ 10.49999999973614, 53.752267852701983 ], [ 10.472369571514799, 53.743166274438138 ], [ 10.375221390877833, 53.701034743885337 ], [ 10.385197702232528, 53.662343804617329 ], [ 10.400359938315107, 53.642368860730677 ], [ 10.453911197465857, 53.614151970484997 ], [ 10.49999999973614, 53.599595101198666 ], [ 10.514955678100605, 53.594870357026153 ], [ 10.504583829543156, 53.572474554947277 ], [ 10.49999999973614, 53.57277822264696 ], [ 10.437474455014369, 53.576920167909236 ], [ 10.304024804875494, 53.534183045256107 ], [ 10.299542056199193, 53.505095958753607 ], [ 10.263366467618047, 53.499999999893774 ], [ 10.246979673292985, 53.497718629415232 ], [ 10.213918668667707, 53.499999999893774 ], [ 10.170443309002369, 53.503035582996453 ], [ 10.131658748731446, 53.503939502279401 ], [ 10.104520543386885, 53.531087931964414 ], [ 10.114782520798562, 53.545273106648082 ], [ 10.103268011606453, 53.558125956633219 ], [ 10.074657531291603, 53.563741208230326 ], [ 10.066702850636045, 53.580502857205353 ], [ 10.06727418185169, 53.601263178782887 ], [ 10.062748062513471, 53.618566684212773 ] ], [ [ 10.14978750934308, 53.662264347781658 ], [ 10.128274713309478, 53.644886121111242 ], [ 10.139020123582879, 53.629687521785399 ], [ 10.15336931246811, 53.610121332943926 ], [ 10.146205705319733, 53.594896885545147 ], [ 10.174904082191874, 53.592721514388423 ], [ 10.203602459064014, 53.603597244895099 ], [ 10.189253271077101, 53.629687521785399 ], [ 10.171322279066844, 53.647058792983877 ], [ 10.182067689340249, 53.657920465972168 ], [ 10.14978750934308, 53.662264347781658 ] ] ] ] } }
]
}
