{
"type": "FeatureCollection",
"name": "Schweinfurt",
"crs": { "type": "name", "properties": { "name": "urn:ogc:def:crs:EPSG::3857" } },
"features": [
{ "type": "Feature", "properties": { "OBJECTID": 14.0, "YEAR": 1700.0, "OWNER_ID": 9637.0, "SHORT_NAME": "Schweinfurt", "LONG_NAME": "Imperial City of Schweinfurt", "VARIANTS": null, "SHAPE_LENG": 68275.55, "Shape__Are": 181065006.00537109, "Shape__Len": 68401.877025790891 }, "geometry": { "type": "MultiPolygon", "coordinates": [ [ [ [ 1145436.7948, 6461210.870288830250502 ], [ 1144740.0876, 6462290.127444590441883 ], [ 1145545.2786, 6464703.998725430108607 ], [ 1146199.4963, 6466502.567019079811871 ], [ 1147809.8782, 6468537.786335930228233 ], [ 1149722.206900000106543, 6470052.366471090354025 ], [ 1152741.6731, 6470005.035886869765818 ], [ 1153848.8107, 6468301.133061479777098 ], [ 1152339.0776, 6467496.511689970269799 ], [ 1151231.94, 6462716.104934450238943 ], [ 1150074.4779, 6457415.042169629596174 ], [ 1150225.4512, 6452019.298292510211468 ], [ 1152327.7464, 6446275.841053619980812 ], [ 1152339.0776, 6446242.050722040235996 ], [ 1150477.073400000110269, 6444072.178363990038633 ], [ 1146954.3628, 6443917.187439849600196 ], [ 1144413.173, 6446275.841053619980812 ], [ 1143280.6789, 6447238.842269809916615 ], [ 1142878.083399999886751, 6450741.356056509539485 ], [ 1140563.1593, 6452066.629443249665201 ], [ 1140009.5905, 6453959.875050920061767 ], [ 1141418.6747, 6455237.814445960335433 ], [ 1143381.3278, 6456279.097686000168324 ], [ 1144639.4387, 6459639.5975485695526 ], [ 1145436.7948, 6461210.870288830250502 ] ] ] ] } }
]
}
