{
"type": "FeatureCollection",
"name": "SchwabischesHall",
"crs": { "type": "name", "properties": { "name": "urn:ogc:def:crs:OGC:1.3:CRS84" } },
"features": [
{ "type": "Feature", "properties": { "OBJECTID": 79.0, "YEAR": 1700.0, "OWNER_ID": 9665.0, "SHORT_NAME": "Schwabisches Hall", "LONG_NAME": "Imperial City of Schwabisches Hall", "VARIANTS": null, "SHAPE_LENG": 113722.7, "Shape__Are": 565930331.47021484, "Shape__Len": 113812.17092141435 }, "geometry": { "type": "MultiPolygon", "coordinates": [ [ [ [ 10.027878120400562, 49.03311202604862 ], [ 10.001680632618161, 49.020789731911371 ], [ 9.999999999705929, 49.020939067582766 ], [ 9.973046222082457, 49.023337785777628 ], [ 9.909234608775749, 49.029016157025012 ], [ 9.87763925404554, 49.033881799262275 ], [ 9.852007742621373, 49.03782866626274 ], [ 9.804237974163886, 49.031389061268101 ], [ 9.764846824700733, 49.026078305030403 ], [ 9.684729212443933, 49.031366312891613 ], [ 9.656560961065356, 49.024488707590585 ], [ 9.648335856068243, 49.045808254580329 ], [ 9.627207705164572, 49.064993464628024 ], [ 9.607469780706397, 49.080007626658634 ], [ 9.696174585495145, 49.119416576729861 ], [ 9.81150873056272, 49.150490143716979 ], [ 9.822073689956794, 49.128212970258922 ], [ 9.837040716738242, 49.121175980746251 ], [ 9.843203609643259, 49.108272224873289 ], [ 9.953806689232122, 49.09040382957707 ], [ 9.958632264665244, 49.075468284591452 ], [ 9.999999999705929, 49.050152935812015 ], [ 10.027878120400562, 49.03311202604862 ] ] ] ] } }
]
}
