{
"type": "FeatureCollection",
"name": "Sefevid Empire of Persia",
"crs": { "type": "name", "properties": { "name": "urn:ogc:def:crs:OGC:1.3:CRS84" } },
"features": [
{ "type": "Feature", "properties": { "OBJECTID": 30.0, "YEAR": 1700.0, "OWNER_ID": 165.0, "SHORT_NAME": "Persia", "LONG_NAME": "Sefevid Empire of Persia", "VARIANTS": "Safavid Iranian Empire", "SHAPE_LENG": 6604265.0, "Shape__Are": 803702982377.74316, "Shape__Len": 6622711.7596629001 }, "geometry": { "type": "MultiPolygon", "coordinates": [ [ [ [ 45.740089220814752, 41.045039452552622 ], [ 45.828218984345732, 41.031211588832257 ], [ 45.939832558136445, 41.006022803030447 ], [ 45.950854234495694, 41.019192717783078 ], [ 45.972701161594173, 41.020648687823837 ], [ 46.000000000084583, 41.003814489184805 ], [ 46.006184712169535, 40.999999999862673 ], [ 46.075497394477154, 40.957561191814797 ], [ 46.106641815595985, 40.961465978500492 ], [ 46.148502361909962, 40.939657255589047 ], [ 46.17539088770782, 40.953254407865785 ], [ 46.240058665548894, 40.936812103807021 ], [ 46.326355120298579, 40.903882956454773 ], [ 46.406715147426375, 40.897272625038447 ], [ 46.500000000114795, 40.931210498993259 ], [ 46.505059058470053, 40.933050528355849 ], [ 46.596615363007295, 40.957207660317543 ], [ 46.671577353405688, 40.948487133812122 ], [ 46.611718333637313, 40.997048262403183 ], [ 46.612435610543912, 40.999999999862673 ], [ 46.640370124777135, 41.115733127563196 ], [ 46.64070207024092, 41.117107148147362 ], [ 46.66802709821512, 41.142769797384645 ], [ 46.6678816483942, 41.14392877451661 ], [ 46.666164115385058, 41.15761288075317 ], [ 46.658904205244966, 41.215423015632936 ], [ 46.686373976065944, 41.254053053019874 ], [ 46.688608169720865, 41.257054652944909 ], [ 46.696094028612805, 41.264307193237251 ], [ 46.720189093016046, 41.286625574116279 ], [ 46.720237266071464, 41.287692407461634 ], [ 46.72112757197651, 41.300656966016689 ], [ 46.721913275354936, 41.317406883511318 ], [ 46.698735017157624, 41.349557789644265 ], [ 46.564903489598201, 41.431287769545008 ], [ 46.53100316025688, 41.432740629402637 ], [ 46.517193815738288, 41.434663478082435 ], [ 46.542008957096854, 41.481969076769012 ], [ 46.557134779071077, 41.499999999681769 ], [ 46.575488663781115, 41.522042965366367 ], [ 46.60074030731603, 41.541033039209978 ], [ 46.657289147551843, 41.634397250373667 ], [ 46.713095934447196, 41.653693101655264 ], [ 46.757400891870681, 41.648332829732091 ], [ 46.817245322998836, 41.668350827035063 ], [ 46.908910753080171, 41.668189416527525 ], [ 46.91891711487775, 41.678739617033152 ], [ 46.934948099993505, 41.67080421466558 ], [ 47.000000000145008, 41.630229888812714 ], [ 47.015504552741334, 41.620555553221166 ], [ 47.074716055174804, 41.582293618046755 ], [ 47.147219045823491, 41.555085957545309 ], [ 47.173911146001323, 41.508452072893768 ], [ 47.18638621833685, 41.499999999681769 ], [ 47.222755724441747, 41.475543726862107 ], [ 47.238084686044431, 41.414787327851549 ], [ 47.238338848184391, 41.413779472122506 ], [ 47.343273940114457, 41.368515623246793 ], [ 47.471801967848343, 41.308984150042505 ], [ 47.500000000175213, 41.301078409459237 ], [ 47.603647411044406, 41.272011007399662 ], [ 47.74692920820624, 41.202034592481603 ], [ 47.787785800053634, 41.183447530799754 ], [ 47.844443765833525, 41.142624474323462 ], [ 47.920155045501971, 41.152699448079119 ], [ 47.985521227543842, 41.145272535011898 ], [ 48.000000000205432, 41.146713011483321 ], [ 48.135154129035755, 41.160157798584741 ], [ 48.204754380032121, 41.242046480678781 ], [ 48.247618881710991, 41.275975151776102 ], [ 48.24534907075337, 41.325248864135901 ], [ 48.229765947909037, 41.404758189988129 ], [ 48.240285646585839, 41.486225518401156 ], [ 48.241903673210977, 41.499999999681769 ], [ 48.247531580736741, 41.54826202467197 ], [ 48.267676150066158, 41.599617730887282 ], [ 48.343649331759067, 41.639225796014223 ], [ 48.346748496133088, 41.699269533317405 ], [ 48.339087885273983, 41.745587282116666 ], [ 48.296397985543628, 41.793788426804106 ], [ 48.265297214462755, 41.833404948615545 ], [ 48.229220320188617, 41.861588498347871 ], [ 48.174897639974155, 41.943380226117839 ], [ 48.153317963469334, 41.999999999713268 ], [ 48.149929723033523, 42.008955916848564 ], [ 48.12186264171887, 42.050288142344129 ], [ 48.136921962310929, 42.103842215160384 ], [ 48.184347909576573, 42.152975522108328 ], [ 48.223218417060615, 42.160353507848662 ], [ 48.236749980035491, 42.139234339132656 ], [ 48.283477524896966, 42.115587952632751 ], [ 48.326561659272926, 41.999999999713268 ], [ 48.328240809066621, 41.995526367573682 ], [ 48.347097698233476, 41.953038378336622 ], [ 48.398517638795639, 41.918448634333139 ], [ 48.456092258966166, 41.900455142318982 ], [ 48.4980401062544, 41.909090726607964 ], [ 48.500000000235644, 41.908072880436706 ], [ 48.562009480792995, 41.875860599765254 ], [ 48.64057984917747, 41.801021089300868 ], [ 48.754572358571586, 41.655000810658549 ], [ 48.792657162677216, 41.644716007309867 ], [ 48.91877163912654, 41.499999999681769 ], [ 48.947266187362402, 41.467511136250863 ], [ 49.000000000265857, 41.421388610408037 ], [ 49.036443556296256, 41.389494716668089 ], [ 49.096724488702435, 41.313735157719535 ], [ 49.147205950304127, 41.219922841828811 ], [ 49.187822465595204, 41.113310995770213 ], [ 49.231109092812609, 40.999999999862673 ], [ 49.231756397246777, 40.99831697975084 ], [ 49.328354299585094, 40.951149122888381 ], [ 49.383178957482016, 40.895181628034472 ], [ 49.442434109953467, 40.863438542577214 ], [ 49.508826071031734, 40.851883019968753 ], [ 49.532178931177562, 40.816672833515604 ], [ 49.514173221793541, 40.777238259567426 ], [ 49.526657180263868, 40.72455760587907 ], [ 49.531327752293031, 40.657614512261297 ], [ 49.58370799728381, 40.606970958224437 ], [ 49.638052502068099, 40.614418116772988 ], [ 49.686242328142328, 40.575832458398104 ], [ 49.766384104181959, 40.556207863095111 ], [ 49.862545505242259, 40.5590209698439 ], [ 49.951504622189617, 40.600282342150102 ], [ 50.053842527428124, 40.613771975565896 ], [ 50.072197438912532, 40.581133660441253 ], [ 50.110762394334152, 40.547573791362915 ], [ 50.183745537197133, 40.533989834599282 ], [ 50.239224946561926, 40.522214826900317 ], [ 50.256597728149572, 40.502202237437018 ], [ 50.258176101341434, 40.499999999920512 ], [ 50.275083589747894, 40.476581708252112 ], [ 50.316420333809589, 40.454519638825602 ], [ 50.350402018176304, 40.435536880945911 ], [ 50.364653809921791, 40.400450378361498 ], [ 50.354155935814823, 40.345516355243554 ], [ 50.34584057169122, 40.389962657488773 ], [ 50.326721782296538, 40.402605626423963 ], [ 50.267030127648745, 40.418719529610854 ], [ 50.228596122341038, 40.41920192165108 ], [ 50.205548814257632, 40.411692287311674 ], [ 50.158821270294467, 40.423993495402563 ], [ 50.114669087554724, 40.431678590094208 ], [ 50.078919569912841, 40.429540357522718 ], [ 50.060521009288777, 40.405822284570675 ], [ 49.996311557295556, 40.398922362037638 ], [ 49.925838301946513, 40.419989822092106 ], [ 49.858311435389432, 40.427064424336535 ], [ 49.795891643037848, 40.416178872819486 ], [ 49.773979239534938, 40.399179714826985 ], [ 49.805429212716199, 40.356719220863631 ], [ 49.76756265969874, 40.328547525849189 ], [ 49.681353505923312, 40.326567011693129 ], [ 49.532768208935948, 40.248555873196587 ], [ 49.485560511860164, 40.228514833892767 ], [ 49.460985447057908, 40.227095772527406 ], [ 49.452451831846133, 40.211016361217411 ], [ 49.458170008379852, 40.190496223286303 ], [ 49.475106288689481, 40.158348337393704 ], [ 49.443176163293906, 40.148839822324241 ], [ 49.41172619101097, 40.141396738062603 ], [ 49.381978576497076, 40.120160864744491 ], [ 49.361834007167673, 40.097076429382604 ], [ 49.36866526371206, 40.068326970983968 ], [ 49.38348450864612, 40.041602765439194 ], [ 49.402843374597118, 40.012991477389157 ], [ 49.408681555273013, 40.00000000026855 ], [ 49.414410678676781, 39.986347087993714 ], [ 49.387762228536921, 39.972136823144069 ], [ 49.345050503338413, 39.957403526233463 ], [ 49.337258941467091, 39.910842624335558 ], [ 49.366417278222578, 39.85708017721872 ], [ 49.336669663708697, 39.820230641112893 ], [ 49.323814678568155, 39.76025983625334 ], [ 49.357709062858923, 39.709023136606682 ], [ 49.316721519999312, 39.673207720363592 ], [ 49.300701894978637, 39.621905833158998 ], [ 49.294023414016301, 39.528241189485975 ], [ 49.30343852266018, 39.50000000024815 ], [ 49.309868437986772, 39.480845847643423 ], [ 49.350921455454191, 39.455729808147481 ], [ 49.401075541321944, 39.397471908762554 ], [ 49.44522772316337, 39.365972443815224 ], [ 49.453979589463309, 39.311391549248995 ], [ 49.45491806842378, 39.305588827524787 ], [ 49.389246335217813, 39.343141566075005 ], [ 49.360851877270903, 39.342134403587615 ], [ 49.329183653899804, 39.319590975637553 ], [ 49.324840458502884, 39.263895744119601 ], [ 49.305459767982065, 39.16804077912456 ], [ 49.271609033729263, 39.115185932742413 ], [ 49.184618167790227, 38.999999999654428 ], [ 49.146420246925707, 38.949721319736852 ], [ 49.121299553504699, 38.977198100371254 ], [ 49.137306216734132, 38.999999999654428 ], [ 49.149388460287497, 39.017329567068359 ], [ 49.188848245529925, 39.032244362728115 ], [ 49.207683309228642, 39.054985497468493 ], [ 49.184548700170986, 39.111161405106628 ], [ 49.137712030663742, 39.090704164758492 ], [ 49.09967087749439, 39.120708392138219 ], [ 49.057679380168196, 39.228213449547717 ], [ 49.009118527423738, 39.249604156778602 ], [ 49.013047046112447, 39.22339528571662 ], [ 49.000000000265857, 39.22126023232402 ], [ 48.972015854113181, 39.216680609775132 ], [ 48.933756448957354, 39.17629192739296 ], [ 48.928169223435859, 39.163810381639038 ], [ 48.937488542026053, 39.127501986193444 ], [ 48.934673103348004, 39.089275070727453 ], [ 48.931726714556035, 39.058019416058748 ], [ 48.950605428292732, 39.043057786021976 ], [ 48.956432730370537, 39.022929529335769 ], [ 48.955470320290893, 38.999999999654428 ], [ 48.954883148183526, 38.986106244089861 ], [ 48.942879341927515, 38.965376600375365 ], [ 48.936768313255435, 38.944311375372429 ], [ 48.900604118905342, 38.893694380303756 ], [ 48.888927689281594, 38.903445925909033 ], [ 48.909836137419596, 38.918417645700934 ], [ 48.917933250455029, 38.938831649485977 ], [ 48.924720856961457, 38.96336570724678 ], [ 48.915379712903125, 38.982085587619736 ], [ 48.885435672769219, 38.986435511873658 ], [ 48.869808898988595, 38.976054170949972 ], [ 48.860598705942486, 38.9474325475935 ], [ 48.871511257655968, 38.887707443170925 ], [ 48.887989209422805, 38.83392368627328 ], [ 48.900601629673702, 38.803122732767449 ], [ 48.900778719955554, 38.802690163516523 ], [ 48.902284652104584, 38.784409196110893 ], [ 48.900669594411461, 38.728146478241257 ], [ 48.896697425684778, 38.553894405289995 ], [ 48.891314842673211, 38.499999999878447 ], [ 48.889014989357534, 38.477120477402011 ], [ 48.856888439240265, 38.382453739934554 ], [ 48.892856207072001, 38.15889059973393 ], [ 48.924475836077818, 37.999999999985143 ], [ 48.926881542374993, 37.987979863572527 ], [ 48.92910770239633, 37.87956001488994 ], [ 48.986245820390536, 37.788968263137953 ], [ 49.000000000265857, 37.766524270521352 ], [ 49.03705465862447, 37.706024500858106 ], [ 49.095960609893844, 37.654890068998206 ], [ 49.151876522333289, 37.606333452559468 ], [ 49.259386976385088, 37.559767108714752 ], [ 49.344788602212276, 37.523794036778796 ], [ 49.401569671322065, 37.499999999942176 ], [ 49.427920417081836, 37.489029494171099 ], [ 49.545819619696523, 37.458934584897655 ], [ 49.732271469701331, 37.44835686026002 ], [ 49.860734021929112, 37.441281080927361 ], [ 49.900237457209514, 37.461760836826265 ], [ 49.927606135221687, 37.46293985477822 ], [ 49.952181200922276, 37.463997486776904 ], [ 49.958554130720493, 37.449189260183317 ], [ 49.96569093932731, 37.435505496097385 ], [ 50.014186316565656, 37.425600969249665 ], [ 50.062397967209719, 37.421437551698361 ], [ 50.147537691910763, 37.419858861119259 ], [ 50.178005535195261, 37.406464665474559 ], [ 50.201598470100777, 37.38204701189612 ], [ 50.202165923289336, 37.332579738686825 ], [ 50.200921892266443, 37.27835199230973 ], [ 50.219495054839015, 37.238103121457847 ], [ 50.251948981588555, 37.202808848269768 ], [ 50.283158878213499, 37.143733300249892 ], [ 50.334622469711945, 37.101129648434949 ], [ 50.432071551833111, 37.052818605383074 ], [ 50.470287306052647, 37.02322758794196 ], [ 50.494840545386772, 37.003394926143095 ], [ 50.502869358612834, 37.000000000102617 ], [ 50.592333278444222, 36.962410684277721 ], [ 50.61437663116272, 36.938998911920805 ], [ 50.73253773580187, 36.897516255749046 ], [ 50.743902174239238, 36.893725325599846 ], [ 50.84980401062019, 36.858389644332206 ], [ 51.004020184065325, 36.821032135445257 ], [ 51.000515097963877, 36.499999999919694 ], [ 50.998825809783881, 36.345804374702908 ], [ 50.998706422784309, 35.999999999757982 ], [ 50.998533629144468, 35.500000000299181 ], [ 50.998360836402938, 34.999999999650299 ], [ 50.99834565756958, 34.952985547329838 ], [ 50.998467320900083, 34.500000000164391 ], [ 50.99860165047609, 34.000000000147317 ], [ 50.998735980052096, 33.500000000094566 ], [ 50.998825809783881, 33.165958000989555 ], [ 50.998526530657081, 33.000000000021366 ], [ 50.997623120128679, 32.499999999859085 ], [ 50.996719709600264, 32.000000000137092 ], [ 50.995816298173537, 31.500000000028312 ], [ 50.994912887645135, 30.999999999760242 ], [ 50.994009477116713, 30.499999999909818 ], [ 50.993106066588311, 29.999999999932577 ], [ 50.992241397703154, 29.499999999948937 ], [ 50.991376728817997, 28.999999999695707 ], [ 50.991099723418671, 28.840083513404441 ], [ 50.947951496043835, 28.851597450688342 ], [ 50.942407919661989, 28.86307114203284 ], [ 50.922852628090972, 28.850038956015879 ], [ 50.914188062765284, 28.837862402959281 ], [ 50.917789204821759, 28.825294691103355 ], [ 50.938108374303049, 28.816837415038723 ], [ 50.947449518361381, 28.802824869967292 ], [ 50.926933922361748, 28.803429065888547 ], [ 50.893803416879557, 28.811867954273151 ], [ 50.872436641995392, 28.819585131767067 ], [ 50.84888735622954, 28.845577633853146 ], [ 50.831536400110039, 28.865642319898829 ], [ 50.81538582407714, 28.895381503930636 ], [ 50.797161863604963, 28.907103427746875 ], [ 50.790570682718567, 28.928577169874682 ], [ 50.79203296482963, 28.952206719867068 ], [ 50.795503155873874, 28.963747016922134 ], [ 50.805106201058337, 28.973554274554257 ], [ 50.810933503136148, 28.987854842269552 ], [ 50.819488943816054, 28.976784236945672 ], [ 50.833784385599522, 28.969468031371072 ], [ 50.843976708542385, 28.946212259055152 ], [ 50.874924703142881, 28.941424222995217 ], [ 50.866369263361285, 28.959893908829319 ], [ 50.872502116603201, 28.964797839008057 ], [ 50.889460221482658, 28.948255864291774 ], [ 50.894327219131846, 28.961372896401567 ], [ 50.891118929213746, 28.992193258686143 ], [ 50.892820108393153, 28.999999999695707 ], [ 50.893912542423649, 29.005037443132998 ], [ 50.882367062913808, 29.047563355810638 ], [ 50.8650161067943, 29.048911544597683 ], [ 50.86392485225177, 29.061376559273207 ], [ 50.837603778744153, 29.081243192782548 ], [ 50.797489240237212, 29.083723808582523 ], [ 50.791771063703493, 29.098215648069257 ], [ 50.759295311485822, 29.113525540972287 ], [ 50.696722742653868, 29.124772159518326 ], [ 50.646699607798347, 29.12143344943296 ], [ 50.642094511275296, 29.113330275804874 ], [ 50.630767282853618, 29.117840796215813 ], [ 50.616362715526066, 29.137637860289644 ], [ 50.626031236216654, 29.202722331258201 ], [ 50.616711917626468, 29.213822533804954 ], [ 50.622190018502188, 29.234478551625664 ], [ 50.631793062788347, 29.227437643048546 ], [ 50.634695801542335, 29.242669573873073 ], [ 50.646241281052177, 29.252419927523462 ], [ 50.64482264897908, 29.262461810610386 ], [ 50.626511388430956, 29.261408922686986 ], [ 50.627689943947743, 29.284706395967969 ], [ 50.633080743849213, 29.33426633715705 ], [ 50.629501427260884, 29.383431939790967 ], [ 50.614965908921114, 29.421010691829554 ], [ 50.606432294607664, 29.461085709168554 ], [ 50.591242023003375, 29.483208675894037 ], [ 50.579652893455567, 29.498810508187901 ], [ 50.578346264230412, 29.499999999948937 ], [ 50.562323761905887, 29.514657875619918 ], [ 50.550189005535962, 29.508950189527141 ], [ 50.554825190954368, 29.499999999948937 ], [ 50.564659048369634, 29.48110749526343 ], [ 50.562869389626307, 29.479745595918981 ], [ 50.542678934352182, 29.499999999948937 ], [ 50.532074170607864, 29.510689894979421 ], [ 50.507411804831342, 29.547744319117232 ], [ 50.499598418390192, 29.571697314768393 ], [ 50.446301518110459, 29.60507735523387 ], [ 50.411446829391068, 29.618453583705055 ], [ 50.347892131560677, 29.667705597795273 ], [ 50.308257746166355, 29.718669345838492 ], [ 50.268274157773334, 29.779432660017154 ], [ 50.227679467950395, 29.823831068689408 ], [ 50.144547653080835, 29.878765517659726 ], [ 50.082804438563592, 29.917960678577725 ], [ 50.080272726479819, 29.971986670277055 ], [ 50.093763546364983, 29.999999999932577 ], [ 50.115302015351084, 30.043008961906601 ], [ 50.107335853327882, 30.113215761644383 ], [ 50.09164360493947, 30.151074737690962 ], [ 50.069076449070373, 30.182008789610549 ], [ 50.036709822396787, 30.204773422000756 ], [ 49.998450418139271, 30.216013716369432 ], [ 49.938431385960911, 30.207014116281268 ], [ 49.823020245392023, 30.147412812867994 ], [ 49.678123390537074, 30.05666162763038 ], [ 49.58754921589658, 30.006492773150537 ], [ 49.570591111017123, 30.004565568549225 ], [ 49.532855509011895, 30.028699676756947 ], [ 49.509808200928489, 30.029055095715442 ], [ 49.49948492787172, 30.043775806091361 ], [ 49.508673295449675, 30.055595666177513 ], [ 49.521724707108561, 30.064515723920547 ], [ 49.51729421073739, 30.10650575649214 ], [ 49.503413445662126, 30.116972416588467 ], [ 49.483137926218795, 30.127195018218313 ], [ 49.464237387013966, 30.145656534416499 ], [ 49.434315172348199, 30.145693901923448 ], [ 49.407492121158135, 30.136762555039027 ], [ 49.407099269019767, 30.144759699031578 ], [ 49.331999091679528, 30.129661738692239 ], [ 49.327808672762984, 30.139247719021625 ], [ 49.317267147719733, 30.138201341890888 ], [ 49.300221742764336, 30.127026830926106 ], [ 49.279269644588361, 30.126765204979996 ], [ 49.272831239284017, 30.121401718779815 ], [ 49.219468864396482, 30.11529035010259 ], [ 49.21418718914078, 30.127157643636544 ], [ 49.216544300174355, 30.161461901963904 ], [ 49.211437226867169, 30.197210700874081 ], [ 49.19277676421865, 30.21164471936132 ], [ 49.176015085857529, 30.221708054799318 ], [ 49.176582538147784, 30.232031694115207 ], [ 49.178524972473156, 30.249166892639249 ], [ 49.165582686358363, 30.25344088883088 ], [ 49.160977589835305, 30.238602409766695 ], [ 49.152858652230044, 30.218590212090472 ], [ 49.146551197039621, 30.23682910690842 ], [ 49.141575073846347, 30.232461044557652 ], [ 49.142666329287188, 30.216181750352526 ], [ 49.129309366464192, 30.221633377215575 ], [ 49.117480161258378, 30.235111772405901 ], [ 49.100718481998953, 30.253328908562235 ], [ 49.068482806337585, 30.264265017388738 ], [ 49.035919753145656, 30.280256394845463 ], [ 49.019921953593133, 30.293577423744047 ], [ 49.017324766003256, 30.311503821802219 ], [ 49.012348642809982, 30.330937444973674 ], [ 49.000000000265857, 30.340253560118743 ], [ 48.997987725520396, 30.341771583735905 ], [ 48.975551520663537, 30.352809598981626 ], [ 48.96001204785717, 30.354636716700664 ], [ 48.937925044202387, 30.366102025255628 ], [ 48.931748540024188, 30.378777534485884 ], [ 48.949077671573868, 30.385580615738501 ], [ 48.972103154189121, 30.380697356270876 ], [ 48.997725824394266, 30.368301718196236 ], [ 49.000000000265857, 30.368568841262878 ], [ 49.010580809534801, 30.369811647718137 ], [ 49.023283019093292, 30.381051494499324 ], [ 49.033780893200259, 30.383474507608494 ], [ 49.042489109462231, 30.371638444680997 ], [ 49.061607898856913, 30.365319071720105 ], [ 49.085004409040707, 30.360733074099539 ], [ 49.093647148898249, 30.373688889670088 ], [ 49.109710424855194, 30.373558408079948 ], [ 49.12645027774817, 30.356799382820459 ], [ 49.143059180527231, 30.35610957255707 ], [ 49.153578880102351, 30.366922255835934 ], [ 49.155281237871414, 30.385543339549297 ], [ 49.172282992788837, 30.387593490718913 ], [ 49.188084366721341, 30.388599912114593 ], [ 49.197665587335976, 30.397880863176084 ], [ 49.181100334594895, 30.401048855047041 ], [ 49.166870367419229, 30.41468867139254 ], [ 49.16789614735395, 30.42661261610133 ], [ 49.186753035622495, 30.434306505788257 ], [ 49.207094031470248, 30.444868304235655 ], [ 49.211655477955333, 30.457328623421066 ], [ 49.198582241726626, 30.457421743481977 ], [ 49.187255013304949, 30.446693683277573 ], [ 49.167983447429897, 30.438143906204651 ], [ 49.157725649879232, 30.448668033765902 ], [ 49.155783215553861, 30.461928663003594 ], [ 49.138454084004181, 30.46719888466113 ], [ 49.136249749450982, 30.481220367351359 ], [ 49.131470051877734, 30.49846045747536 ], [ 49.118353164712744, 30.495258427833168 ], [ 49.122478109021479, 30.480885216348174 ], [ 49.124638794435022, 30.466156036821879 ], [ 49.099583577418457, 30.476546766634609 ], [ 49.086008363507297, 30.493899394546908 ], [ 49.075619614944401, 30.484962808624886 ], [ 49.086946842467768, 30.467161639956096 ], [ 49.075226762806039, 30.464107552433603 ], [ 49.062917405385917, 30.486210256753825 ], [ 49.052921508063086, 30.495128110414573 ], [ 49.023719521269626, 30.497436563966918 ], [ 49.021209634653999, 30.488463070455161 ], [ 49.034741197628868, 30.479041864609947 ], [ 49.041376029451555, 30.469954928013216 ], [ 49.043165687296565, 30.458967529121523 ], [ 49.039040742987815, 30.449617943162984 ], [ 49.015076780513766, 30.453454734925423 ], [ 49.006324914213828, 30.444756544991247 ], [ 49.025923856721136, 30.438311556506459 ], [ 49.024898076786407, 30.421843214659237 ], [ 49.014291077135354, 30.413850213499629 ], [ 49.003356700852045, 30.40151472740466 ], [ 49.000000000265857, 30.400991248660024 ], [ 48.984237911457356, 30.398533105372774 ], [ 48.954337520463106, 30.401943328427045 ], [ 48.93157393897399, 30.398421292514815 ], [ 48.909770661913484, 30.388711736327313 ], [ 48.895409744623912, 30.37160116312106 ], [ 48.879368294135091, 30.349919699803845 ], [ 48.870725553379245, 30.331459599950676 ], [ 48.8560809103937, 30.294734064974296 ], [ 48.881376203966582, 30.258741130073684 ], [ 48.905165565390426, 30.255213888930978 ], [ 48.915314237397006, 30.232050361327726 ], [ 48.917300321760351, 30.218310161695776 ], [ 48.927929146879556, 30.182867928770399 ], [ 48.919526482680006, 30.163554146631828 ], [ 48.910490889785784, 30.12216794933234 ], [ 48.895256969041853, 30.09979529109188 ], [ 48.89318358370425, 30.046263331035963 ], [ 48.880634149727818, 30.042560074742827 ], [ 48.847154443043557, 30.044748379382458 ], [ 48.764153579186228, 30.046431657900261 ], [ 48.709568997845622, 30.035732997854907 ], [ 48.660178791684785, 30.011507070494961 ], [ 48.648841446436379, 29.999999999932577 ], [ 48.61567740774295, 29.96500154890045 ], [ 48.58835237976875, 29.953968327109944 ], [ 48.565654272887429, 29.953579125841138 ], [ 48.534859053868992, 29.969924262610697 ], [ 48.500000000235644, 29.989753996429236 ], [ 48.488415235601792, 29.996343157529061 ], [ 48.478166578409144, 29.994918906296185 ], [ 48.477849554860548, 29.995152566660039 ], [ 48.472540078543432, 29.999999999932577 ], [ 48.47042656456378, 30.00185620234247 ], [ 48.466437357491088, 30.086559932038966 ], [ 48.458994997720161, 30.098337246235673 ], [ 48.443280923863604, 30.115664145328815 ], [ 48.413336883729698, 30.130259721994026 ], [ 48.390376875722232, 30.148720659202422 ], [ 48.394458169993015, 30.170465706980188 ], [ 48.41130714932838, 30.188657583362144 ], [ 48.422743502395825, 30.206435275227204 ], [ 48.418924110149511, 30.228764837794401 ], [ 48.39524387337142, 30.259431632760524 ], [ 48.356438841393498, 30.302923440543392 ], [ 48.317306432783312, 30.355773986525072 ], [ 48.244192340704728, 30.379504461793147 ], [ 48.19430015596312, 30.365430922835355 ], [ 48.146153980825176, 30.37711862872375 ], [ 48.134433900265137, 30.443955601769023 ], [ 48.085240119724311, 30.465969812695654 ], [ 48.03279439922742, 30.461779677512649 ], [ 48.000000000205432, 30.470650934720314 ], [ 47.969081495312949, 30.432694358164291 ], [ 47.892575337875833, 30.427820359722205 ], [ 47.785005472024878, 30.435987142981542 ], [ 47.682656147873011, 30.492605633892257 ], [ 47.759036240523656, 30.613632234223935 ], [ 47.843818143365887, 30.668833299645883 ], [ 47.868014876169198, 30.739099758869763 ], [ 47.808388696129207, 30.771088131027405 ], [ 47.671959981878231, 30.819498167191675 ], [ 47.572110137787213, 30.869337550100195 ], [ 47.500000000175213, 30.945621421315149 ], [ 47.483478397472105, 30.963090644231912 ], [ 47.462395348283898, 30.997944894233569 ], [ 47.462639920908209, 30.999999999760242 ], [ 47.466520292592648, 31.032773256536043 ], [ 47.434066365843108, 31.064701071496906 ], [ 47.432844160288354, 31.104469446567865 ], [ 47.403140195812448, 31.149807682864267 ], [ 47.391136389556436, 31.193891478837621 ], [ 47.403663998064722, 31.257757496090814 ], [ 47.375989767990127, 31.314455453334954 ], [ 47.366801400412164, 31.389235062619548 ], [ 47.328280095028518, 31.42996475259234 ], [ 47.323155147043799, 31.500000000028312 ], [ 47.323151195354875, 31.500054272568242 ], [ 47.225287436525512, 31.54378017073628 ], [ 47.211755873550644, 31.574583565791595 ], [ 47.177010310375337, 31.584026386145187 ], [ 47.163260495413979, 31.611246218676335 ], [ 47.13309820419191, 31.616311660554249 ], [ 47.124128086803793, 31.682062356848501 ], [ 47.101146254226506, 31.697899774454932 ], [ 47.097108609993704, 31.727811599191828 ], [ 47.084690127029504, 31.753477208910979 ], [ 47.088029367959827, 31.782064906515451 ], [ 47.056819471334883, 31.798295462410231 ], [ 47.059285707912537, 31.857577814973997 ], [ 47.074345028504588, 31.90083579749842 ], [ 47.057888901307578, 31.931445053614013 ], [ 47.025304023545822, 31.935188997902209 ], [ 47.000000000145008, 31.926284416833415 ], [ 46.976764996269516, 31.918107165775123 ], [ 46.937457986609125, 31.938560278184056 ], [ 46.900598138699657, 32.000000000137092 ], [ 46.900573563488422, 32.000041174454971 ], [ 46.888591582700563, 32.052897593721184 ], [ 46.872724733261947, 32.077621946968698 ], [ 46.844199324302821, 32.071899663976509 ], [ 46.79581307260856, 32.078874817206888 ], [ 46.753908876256617, 32.117536963308531 ], [ 46.731341720387519, 32.151399495040991 ], [ 46.716500649985321, 32.213223766282916 ], [ 46.746706592143681, 32.246639771609175 ], [ 46.719556164321368, 32.330237367453449 ], [ 46.74891092759519, 32.344184484742506 ], [ 46.713248710029255, 32.437004238710394 ], [ 46.696460841286033, 32.458797808081137 ], [ 46.695073518195528, 32.460616537533014 ], [ 46.692942362202004, 32.46338481836041 ], [ 46.695598749667425, 32.46850488793811 ], [ 46.702947261542306, 32.478956713162219 ], [ 46.673086161960263, 32.499999999859085 ], [ 46.671540939297337, 32.501094920576023 ], [ 46.650146952646573, 32.50278291693256 ], [ 46.570949042764184, 32.509292357319069 ], [ 46.538434674667386, 32.521827047297911 ], [ 46.514312902452424, 32.531485281634595 ], [ 46.500000000114795, 32.53029228502708 ], [ 46.479055971505012, 32.528546548049988 ], [ 46.45724025906604, 32.526919904489858 ], [ 46.422538346827018, 32.507757734747607 ], [ 46.308865816438789, 32.53050197727277 ], [ 46.283141418315942, 32.557376266922795 ], [ 46.236108322290342, 32.584007677874936 ], [ 46.22139007943526, 32.576236930769149 ], [ 46.195164430367015, 32.562388968197148 ], [ 46.194225950508226, 32.562875259607381 ], [ 46.161994860746397, 32.570883699133184 ], [ 46.149375365364321, 32.574115340010984 ], [ 46.131226203114274, 32.610309436661431 ], [ 46.150804505031296, 32.622447542199652 ], [ 46.179283752262918, 32.640101067794475 ], [ 46.246233917475585, 32.678268219428631 ], [ 46.242743153214711, 32.691592708847317 ], [ 46.234736995500114, 32.722599430201072 ], [ 46.254419582838466, 32.743236381338349 ], [ 46.268758675558217, 32.758466057115285 ], [ 46.267580120041437, 32.793506719304261 ], [ 46.26319327460655, 32.819507658749977 ], [ 46.278230769730456, 32.848465228385024 ], [ 46.298855491274182, 32.859408072422667 ], [ 46.331702271060394, 32.863658077070426 ], [ 46.355513457054073, 32.871877897764591 ], [ 46.394820466714457, 32.877841912064149 ], [ 46.442639266118455, 32.893160117483113 ], [ 46.454621246906328, 32.924738486237906 ], [ 46.453639117907883, 32.95991773411361 ], [ 46.485547416936996, 32.973192411759058 ], [ 46.500000000114795, 32.983044423038713 ], [ 46.524877097380205, 33.000000000021366 ], [ 46.562502728526667, 33.025785464408415 ], [ 46.607789815846914, 33.070103394013572 ], [ 46.645830969016252, 33.080894177771221 ], [ 46.696552507174246, 33.073862553025485 ], [ 46.726190996144041, 33.074273994031643 ], [ 46.716391524441235, 33.144788605018441 ], [ 46.706788480155083, 33.20193226600054 ], [ 46.65462670633972, 33.284772143423289 ], [ 46.662352571719367, 33.37870979226718 ], [ 46.653316978825153, 33.450894819357075 ], [ 46.645198784126627, 33.500000000094566 ], [ 46.641902450327535, 33.520047303330117 ], [ 46.61385719358271, 33.559806105536602 ], [ 46.610496128082559, 33.564557217070991 ], [ 46.549123940235532, 33.628148048168015 ], [ 46.500000000114795, 33.638266674924949 ], [ 46.49722384656075, 33.638838475085585 ], [ 46.454162565325625, 33.715519290269484 ], [ 46.453333565845455, 33.716994841947503 ], [ 46.443032118256831, 33.735328032826501 ], [ 46.400320392160005, 33.799239227977452 ], [ 46.285847730551588, 33.921776517168723 ], [ 46.238294477637133, 34.000000000147317 ], [ 46.223384287263713, 34.024657829933567 ], [ 46.228273110381053, 34.064715595134579 ], [ 46.340628737512219, 34.171044347325662 ], [ 46.468720263069763, 34.224960902514383 ], [ 46.500000000114795, 34.238796553595442 ], [ 46.601918862832818, 34.2838613794463 ], [ 46.586575815646484, 34.337350804566313 ], [ 46.527538914263197, 34.407983152026304 ], [ 46.500000000114795, 34.467298490146888 ], [ 46.493950082034857, 34.480323555450973 ], [ 46.490604258250123, 34.500000000164391 ], [ 46.479349088188968, 34.566557557313942 ], [ 46.469287716258336, 34.665470175378083 ], [ 46.481269697046194, 34.774993008141138 ], [ 46.500000000114795, 34.831953717030579 ], [ 46.525858381063955, 34.91052632259575 ], [ 46.526294883240297, 34.99218475788448 ], [ 46.52135268133047, 34.999999999650299 ], [ 46.518481496799147, 35.004255727471282 ], [ 46.507809021641982, 35.008877473392623 ], [ 46.500000000114795, 35.026546237049764 ], [ 46.493404454314437, 35.04146637902705 ], [ 46.500000000114795, 35.04863184413967 ], [ 46.561695199680102, 35.11562739324399 ], [ 46.533780893049197, 35.156425249083604 ], [ 46.500000000114795, 35.209403222780381 ], [ 46.486398595821527, 35.23072422189572 ], [ 46.467192506350898, 35.318558959867133 ], [ 46.426794241249681, 35.359913825869874 ], [ 46.386068600414518, 35.409351818346849 ], [ 46.394995067764654, 35.463112141682018 ], [ 46.384875341273158, 35.500000000299181 ], [ 46.383536889229063, 35.504908299480242 ], [ 46.453901019034028, 35.516541190722656 ], [ 46.500000000114795, 35.547995791951841 ], [ 46.509096702702848, 35.554201251892522 ], [ 46.500000000114795, 35.598041770040034 ], [ 46.493906431098566, 35.627395485352523 ], [ 46.443163068370744, 35.649283133728652 ], [ 46.385239246998125, 35.649387594679759 ], [ 46.374152095132757, 35.676943111818943 ], [ 46.375286999713268, 35.743972749519308 ], [ 46.333186377741292, 35.791970160968802 ], [ 46.323365081468651, 35.793482099690785 ], [ 46.324914663655655, 35.798678082206884 ], [ 46.3025439343049, 35.816870009061546 ], [ 46.267449169029206, 35.837246228136671 ], [ 46.206731734446691, 35.827275915550231 ], [ 46.142456807845676, 35.818172994449434 ], [ 46.101774817048472, 35.860013403125528 ], [ 46.061136476289256, 35.886766387489452 ], [ 46.001750372805581, 35.8854471805234 ], [ 46.000000000084583, 35.884982220851867 ], [ 45.913467834590854, 35.86199284582753 ], [ 45.863575649849246, 35.870448324440083 ], [ 45.850087736912357, 35.848483026822876 ], [ 45.760299265650282, 35.849750756391643 ], [ 45.682514600644218, 35.924371807861291 ], [ 45.672191327587456, 35.944061037770211 ], [ 45.660012920281247, 35.960866694057955 ], [ 45.637685840968459, 35.976593798022407 ], [ 45.630505382323669, 35.985487662388223 ], [ 45.60817830211257, 35.9860597477415 ], [ 45.583079435058025, 35.990220242678795 ], [ 45.57745449646427, 35.999999999757982 ], [ 45.57303988769722, 36.007723814074851 ], [ 45.512933555442913, 36.008369175106928 ], [ 45.500000000054371, 36.001146804393457 ], [ 45.497946454009821, 35.999999999757982 ], [ 45.484102595319683, 35.992317741342362 ], [ 45.462604869423288, 35.993201793678352 ], [ 45.44379163119271, 35.984100771658369 ], [ 45.438619082379418, 35.972241850901355 ], [ 45.392328039694263, 35.978119522876788 ], [ 45.392899138246257, 35.979338679302209 ], [ 45.399814050401474, 35.992820438980232 ], [ 45.404705185782355, 35.999999999757982 ], [ 45.410311924508456, 36.008281964625866 ], [ 45.425262119556422, 36.028634285265689 ], [ 45.415157096689505, 36.064564890503945 ], [ 45.396060132762962, 36.085738937180786 ], [ 45.407103634590349, 36.1172192464376 ], [ 45.385344007567817, 36.14673680217593 ], [ 45.36120544404357, 36.175999492797075 ], [ 45.358913808516121, 36.213914918219821 ], [ 45.36893153040878, 36.261913372480329 ], [ 45.336564903735194, 36.28324226818075 ], [ 45.309523601456966, 36.321522184734647 ], [ 45.320239726652098, 36.390388673060286 ], [ 45.341541026928468, 36.416384278036787 ], [ 45.327245585145008, 36.440653958689751 ], [ 45.194723563216286, 36.459887316694399 ], [ 45.139658829661379, 36.447348892645763 ], [ 45.105284294054613, 36.448961833369992 ], [ 45.058375535644132, 36.499999999919694 ], [ 45.056810741386101, 36.501713080850983 ], [ 45.023683910911743, 36.530592738410029 ], [ 45.049848533829483, 36.625173861365965 ], [ 45.096510602286536, 36.643371962666059 ], [ 45.096597903260793, 36.673297972388731 ], [ 45.070407779867089, 36.734106114096171 ], [ 45.014339091845592, 36.764674523940648 ], [ 45.000000000024151, 36.771244681522546 ], [ 44.950829224439445, 36.793770908765474 ], [ 44.941968446394462, 36.858268102228557 ], [ 44.949694346808407, 36.893941193264574 ], [ 44.949934417076513, 36.946612870059845 ], [ 44.941117287272867, 36.997982676572128 ], [ 44.939756179717307, 37.000000000102617 ], [ 44.907463787123852, 37.048163630073063 ], [ 44.85484472860805, 37.087713028327656 ], [ 44.849017566667435, 37.108934579389597 ], [ 44.846551389378583, 37.117836088120001 ], [ 44.846311319110484, 37.118741857404054 ], [ 44.858271187867629, 37.163302665590834 ], [ 44.849906793695816, 37.183034692848672 ], [ 44.849454058063984, 37.184102571187353 ], [ 44.817546524399496, 37.216065722804345 ], [ 44.809284905581031, 37.238847706061975 ], [ 44.806372340156152, 37.247111015440922 ], [ 44.801112617031045, 37.317536838888373 ], [ 44.790942363898075, 37.364600920445604 ], [ 44.746594820041928, 37.399888134188252 ], [ 44.66625854706519, 37.430770221793424 ], [ 44.602465304306037, 37.465211144872526 ], [ 44.537428061066713, 37.49521685130965 ], [ 44.530504998496916, 37.499999999942176 ], [ 44.499999999993946, 37.521215007456647 ], [ 44.490898059329467, 37.527543865243359 ], [ 44.485485564215573, 37.546848111691119 ], [ 44.475882749898126, 37.581171756200298 ], [ 44.478196155198177, 37.637460043969476 ], [ 44.457921121743418, 37.676945933928387 ], [ 44.41407554389162, 37.714149130293031 ], [ 44.374507582624354, 37.726586597062841 ], [ 44.346332052197027, 37.741595727568921 ], [ 44.344586085712493, 37.764772977878977 ], [ 44.361500134515474, 37.783059232723588 ], [ 44.37898162123566, 37.81497971132805 ], [ 44.361216415107712, 37.844507227937747 ], [ 44.310452445027266, 37.860099894459438 ], [ 44.285616074681897, 37.881313080785233 ], [ 44.27579501466618, 37.917753431890468 ], [ 44.268723851347062, 37.951123762757526 ], [ 44.308662830301401, 37.996177202078677 ], [ 44.311750659733164, 37.999999999985143 ], [ 44.34406229603664, 38.040266232344202 ], [ 44.372390598452746, 38.046927441360545 ], [ 44.374922250349393, 38.077470496684889 ], [ 44.40198472681719, 38.189490898476592 ], [ 44.423438287940954, 38.224183404239682 ], [ 44.468724288299704, 38.238880063640465 ], [ 44.485856581902645, 38.277407609548611 ], [ 44.487275179839756, 38.295325632420209 ], [ 44.488933847146662, 38.313465041504649 ], [ 44.499999999993946, 38.316937054171241 ], [ 44.560693061486177, 38.335976564881456 ], [ 44.624246233977217, 38.339623601219699 ], [ 44.650763096199327, 38.352890306822054 ], [ 44.680160803435314, 38.371900488368318 ], [ 44.717153463666278, 38.397118098402899 ], [ 44.732627089962314, 38.423072734422441 ], [ 44.71774272794994, 38.452572567823402 ], [ 44.655979170184764, 38.477640468923397 ], [ 44.625784999549886, 38.499999999878447 ], [ 44.600959408089615, 38.518507786241621 ], [ 44.54877684186868, 38.581612411604773 ], [ 44.499999999993946, 38.621994030464137 ], [ 44.453687153400224, 38.660314540364602 ], [ 44.327519265819042, 38.735277417092128 ], [ 44.259884896973588, 38.760942855397957 ], [ 44.269705957887624, 38.789535990104667 ], [ 44.265253743846145, 38.80345466412723 ], [ 44.262503846251228, 38.812176330754568 ], [ 44.242839901649965, 38.819906789028337 ], [ 44.205454398263775, 38.82287714442829 ], [ 44.192097757037672, 38.836580851633585 ], [ 44.190962878508302, 38.856792870648668 ], [ 44.179068483460647, 38.866618959811213 ], [ 44.18229852069345, 38.880678649709196 ], [ 44.168810931150055, 38.907766018801304 ], [ 44.167588755239706, 38.930802038464307 ], [ 44.154515832523032, 38.972778270738992 ], [ 44.162852821790466, 38.982380212725289 ], [ 44.152573444910054, 38.991218384827633 ], [ 44.159197755664124, 38.999999999654428 ], [ 44.169291072584578, 39.01347388224417 ], [ 44.178086376920085, 39.022720192957863 ], [ 44.166213806442251, 39.057478899711981 ], [ 44.141006418409802, 39.082373182326521 ], [ 44.111521412894511, 39.107990402302676 ], [ 44.113027309110926, 39.122816218981612 ], [ 44.141181014968431, 39.132222274324064 ], [ 44.137820030316647, 39.171435356832937 ], [ 44.089544062993184, 39.20003029186725 ], [ 44.064773166357298, 39.210069674669995 ], [ 44.06154312822617, 39.257654402730189 ], [ 44.081338021144717, 39.282199290418511 ], [ 44.063310919280532, 39.316377332744345 ], [ 44.062721655895189, 39.31750646764484 ], [ 44.059840811779615, 39.322978167671046 ], [ 44.060015408338238, 39.364305956961587 ], [ 44.074245033255778, 39.390027873595727 ], [ 44.102966178827103, 39.395060059655322 ], [ 44.129526690188868, 39.417266715572367 ], [ 44.187863788694465, 39.416087166402313 ], [ 44.239173372122281, 39.397211641607754 ], [ 44.27810841996623, 39.395008004767412 ], [ 44.337471273253733, 39.403613936310244 ], [ 44.402552166531024, 39.435304374917692 ], [ 44.423198217672848, 39.488314763359796 ], [ 44.420890421453436, 39.50000000024815 ], [ 44.413202560200197, 39.539195362129007 ], [ 44.3886499101609, 39.566154737879778 ], [ 44.351657249031611, 39.64705656261463 ], [ 44.350522371400579, 39.700845367016825 ], [ 44.323699964302563, 39.715094933317452 ], [ 44.241857795109411, 39.76260682972007 ], [ 44.096964419429547, 39.799626507179795 ], [ 44.025816293943528, 39.773714840879457 ], [ 43.999999999963734, 39.777314598920022 ], [ 43.937186680839005, 39.786072335322004 ], [ 43.847400365533616, 39.834837389076114 ], [ 43.696199686478614, 39.865551710009584 ], [ 43.644409961616269, 39.878725625732713 ], [ 43.620277972861587, 39.872006141874365 ], [ 43.617172887691545, 39.879419832354237 ], [ 43.59960410179373, 39.893406589872306 ], [ 43.586422057126228, 39.916133272073878 ], [ 43.568853271228427, 39.921371475502113 ], [ 43.557053376253705, 39.906560366949677 ], [ 43.552313514471734, 39.892039797464207 ], [ 43.55346694321171, 39.889901494095625 ], [ 43.557042027836722, 39.887543781623592 ], [ 43.563731042444083, 39.87197478982285 ], [ 43.564155709316545, 39.868080124193412 ], [ 43.542925672391675, 39.868381105979502 ], [ 43.499999999933515, 39.885747011913011 ], [ 43.432886147303037, 39.912889546471689 ], [ 43.367521535516303, 39.931378442661298 ], [ 43.34235779662351, 39.968358470441508 ], [ 43.348588901302996, 40.00000000026855 ], [ 43.350301942735726, 40.008121987588915 ], [ 43.37887031631827, 40.078719558877637 ], [ 43.454601603264734, 40.071236410290304 ], [ 43.456149675383756, 40.071737401925972 ], [ 43.498935946377799, 40.085582534971607 ], [ 43.499999999933515, 40.085712431015445 ], [ 43.555235659530808, 40.092455075794632 ], [ 43.556958876180758, 40.092665419118219 ], [ 43.598665645291135, 40.097884276179222 ], [ 43.616387203177744, 40.109936193590237 ], [ 43.622258014258023, 40.111131574667517 ], [ 43.628140537572968, 40.119939383785798 ], [ 43.629831143581484, 40.122470489641302 ], [ 43.648098315713774, 40.128672166090084 ], [ 43.65839951626571, 40.131352922665123 ], [ 43.67465882707554, 40.135599927899833 ], [ 43.665841697271887, 40.162642065166359 ], [ 43.66557980243396, 40.163465267346396 ], [ 43.64820743856292, 40.179894926701436 ], [ 43.625466227819317, 40.19212580237614 ], [ 43.6351221119088, 40.202006104062747 ], [ 43.649373953061627, 40.205481621662976 ], [ 43.655125829893237, 40.222709393670037 ], [ 43.636684061202324, 40.245783052434163 ], [ 43.623369957899861, 40.246701361578651 ], [ 43.614946780670799, 40.247282324162789 ], [ 43.578632308055155, 40.294539695844065 ], [ 43.565470461108504, 40.331816049889575 ], [ 43.56299124926489, 40.354643083042028 ], [ 43.572672572744899, 40.377172487650782 ], [ 43.581165942533623, 40.383125553306812 ], [ 43.593951536411737, 40.392086071536355 ], [ 43.601727679599513, 40.407827276820285 ], [ 43.602310350248992, 40.409006624280643 ], [ 43.594344309498354, 40.424551130036896 ], [ 43.588364443840895, 40.438092876026168 ], [ 43.585509562833664, 40.441786549553669 ], [ 43.581577000827856, 40.449457026748455 ], [ 43.577396097765117, 40.452282715621692 ], [ 43.57679741734065, 40.45305714595947 ], [ 43.563266178657599, 40.461831621281746 ], [ 43.543143918089946, 40.461911968139106 ], [ 43.54154926203524, 40.463622354790857 ], [ 43.530203774457107, 40.475789963651948 ], [ 43.529568944028973, 40.476833798538301 ], [ 43.532098617835359, 40.495201789027249 ], [ 43.532275277824183, 40.49648432835118 ], [ 43.536984015676509, 40.499999999920512 ], [ 43.551675011730715, 40.511050188570678 ], [ 43.590088585755595, 40.512492404728448 ], [ 43.602908836637361, 40.526814529455599 ], [ 43.60887954756376, 40.532534246042971 ], [ 43.632733812266885, 40.559942479335838 ], [ 43.634021461886711, 40.561559130975589 ], [ 43.652112185134278, 40.575256796042495 ], [ 43.683977921985218, 40.599377549860236 ], [ 43.683771333724387, 40.60026875061326 ], [ 43.684545361699058, 40.600880144485338 ], [ 43.680370504298175, 40.614937864763249 ], [ 43.677073734816169, 40.629155027574193 ], [ 43.674004089980706, 40.642389988325533 ], [ 43.672957116991796, 40.653445609016664 ], [ 43.671057772155649, 40.673497240999239 ], [ 43.646265331224313, 40.7161318603263 ], [ 43.641398170081743, 40.716687362859666 ], [ 43.640897478786769, 40.717684160492901 ], [ 43.639738658358461, 40.719991132502102 ], [ 43.637745951614839, 40.723958011509815 ], [ 43.623698436764961, 40.753337288438345 ], [ 43.621144961196805, 40.756996326156802 ], [ 43.607417301385304, 40.774740586595293 ], [ 43.589761217208185, 40.792834491651249 ], [ 43.588626339577146, 40.79335000659443 ], [ 43.580813139985572, 40.832275830874536 ], [ 43.607330003105986, 40.871838357623801 ], [ 43.61048722829176, 40.9064044576104 ], [ 43.614410090289141, 40.918537335542105 ], [ 43.616613964904914, 40.923267165047932 ], [ 43.624222226440821, 40.93959295940266 ], [ 43.614422990994932, 40.954266848775127 ], [ 43.658923305941563, 40.960164408348056 ], [ 43.731424555655231, 40.963297773629044 ], [ 43.793973797035882, 40.978624997491686 ], [ 43.87631793133508, 40.977516544987935 ], [ 43.942708298802032, 40.959987650543439 ], [ 43.974768605353638, 40.912165035576677 ], [ 43.985222577894362, 40.859206044934247 ], [ 43.999999999963734, 40.830341283818328 ], [ 44.04379974666805, 40.744712761967833 ], [ 44.094956558107086, 40.707590258364696 ], [ 44.146877230388405, 40.680259155701762 ], [ 44.218832864958038, 40.677112288539689 ], [ 44.284786741028455, 40.688537123205123 ], [ 44.364511926050007, 40.678919738577406 ], [ 44.420142776100349, 40.680452804554747 ], [ 44.499999999993946, 40.672278415025843 ], [ 44.513792042061858, 40.67086652361963 ], [ 44.598536879940426, 40.679500693831343 ], [ 44.668681075214373, 40.664604028318955 ], [ 44.788912678005794, 40.647023909394036 ], [ 44.893976198478768, 40.647653581518291 ], [ 44.951003821896393, 40.643100436093803 ], [ 45.000000000024151, 40.635972382723104 ], [ 45.043017276386777, 40.629713668564094 ], [ 45.143281797185985, 40.585755704615799 ], [ 45.268557884963805, 40.541978830714072 ], [ 45.337241481569535, 40.527148291454893 ], [ 45.399770400363508, 40.513236600655638 ], [ 45.418161726854592, 40.499999999920512 ], [ 45.457410495141843, 40.471954581822089 ], [ 45.480532830517774, 40.499999999920512 ], [ 45.500000000054371, 40.523780782962163 ], [ 45.516491047461422, 40.543919332901503 ], [ 45.523169528423743, 40.577238611091815 ], [ 45.541175237807764, 40.633137321330793 ], [ 45.601521645720055, 40.761606102630211 ], [ 45.623150322628682, 40.849806673426968 ], [ 45.633015268939289, 40.922423714624124 ], [ 45.6674116300142, 40.971974001611351 ], [ 45.676589363335815, 40.999999999862673 ], [ 45.687010572521501, 41.032052665348992 ], [ 45.740089220814752, 41.045039452552622 ] ] ], [ [ [ 50.470789282836783, 26.256948052145702 ], [ 50.535893563752495, 26.296836175970771 ], [ 50.564528097357396, 26.268256943520878 ], [ 50.560228552896767, 26.162124122745649 ], [ 50.599993889303313, 26.078198183151418 ], [ 50.594824785529141, 25.999999999598952 ], [ 50.593839209694949, 25.985148284647057 ], [ 50.580525897808236, 25.913392787535575 ], [ 50.546282312315391, 25.903324796641943 ], [ 50.484233545735719, 25.963505596732205 ], [ 50.483144667237106, 25.999999999598952 ], [ 50.482072861220487, 26.03606585844501 ], [ 50.484560922367962, 26.090129960632801 ], [ 50.447698324715418, 26.154844756301504 ], [ 50.446301518110459, 26.202942510957044 ], [ 50.470789282836783, 26.256948052145702 ] ] ], [ [ [ 50.567387186073418, 40.373841815506147 ], [ 50.570857377117655, 40.407012409536598 ], [ 50.598487957154283, 40.404471307264487 ], [ 50.595039590679868, 40.376400172714206 ], [ 50.591569399635631, 40.358521805777336 ], [ 50.560490454022911, 40.358521805777336 ], [ 50.543204972511198, 40.345757816330526 ], [ 50.522471125423401, 40.34065475827591 ], [ 50.536308240460698, 40.373841815506147 ], [ 50.522471125423401, 40.396815250289031 ], [ 50.567387186073418, 40.373841815506147 ] ] ], [ [ [ 50.375129859458944, 29.209374794951451 ], [ 50.363257003316839, 29.208457913040021 ], [ 50.346364374841805, 29.248090886561894 ], [ 50.350969471364863, 29.260979964682981 ], [ 50.365286738616469, 29.265717896928319 ], [ 50.386718989006752, 29.259186121754119 ], [ 50.378992902641542, 29.246881841675847 ], [ 50.375129859458944, 29.209374794951451 ] ] ], [ [ [ 50.514985115614493, 26.448171560890518 ], [ 50.486939858869682, 26.460824077147432 ], [ 50.477314988217067, 26.486961668772302 ], [ 50.512082376860512, 26.490406011797567 ], [ 50.531397591875219, 26.473183254699759 ], [ 50.514985115614493, 26.448171560890518 ] ] ], [ [ [ 50.469588902750168, 26.362895941142344 ], [ 50.438684557289335, 26.393925020312004 ], [ 50.457999773202353, 26.404266174681389 ], [ 50.488904117764875, 26.397372175815853 ], [ 50.496630204130092, 26.376687683266237 ], [ 50.469588902750168, 26.362895941142344 ] ] ], [ [ [ 50.339238042387841, 40.488063627634119 ], [ 50.351378691706024, 40.479862435578951 ], [ 50.354786463312749, 40.478133651590298 ], [ 50.370459287429775, 40.470765614872825 ], [ 50.370459287429775, 40.452912501649934 ], [ 50.363562555379268, 40.432514571930639 ], [ 50.34972544034197, 40.460562126023795 ], [ 50.335910150772811, 40.473304193215121 ], [ 50.339238042387841, 40.488063627634119 ] ] ], [ [ [ 49.04674500388488, 30.428270672862062 ], [ 49.07230219948223, 30.431922024076393 ], [ 49.073501269825151, 30.432150228748959 ], [ 49.077098265258265, 30.432378433660741 ], [ 49.091486464383024, 30.430096365725131 ], [ 49.076558093904879, 30.419160322918991 ], [ 49.057395654472224, 30.415508489300159 ], [ 49.042489109462231, 30.415508489300159 ], [ 49.04674500388488, 30.428270672862062 ] ] ], [ [ [ 50.835988721051031, 29.009513659886387 ], [ 50.838127580996435, 29.019090931871794 ], [ 50.839186098235061, 29.02410886878333 ], [ 50.840244615473694, 29.036308218618696 ], [ 50.840244615473694, 29.049693095004194 ], [ 50.848778230685468, 29.047778285330175 ], [ 50.85089526606103, 29.024817320429552 ], [ 50.853034126006428, 29.013344676005733 ], [ 50.85089526606103, 29.003766865844394 ], [ 50.835988721051031, 29.009513659886387 ] ] ], [ [ [ 49.156244816659239, 30.434609777534895 ], [ 49.14898469631337, 30.432378433660741 ], [ 49.146873772176676, 30.431440277211461 ], [ 49.140461993835679, 30.428270672862062 ], [ 49.129811344146646, 30.437398792046128 ], [ 49.123438414348414, 30.448351395222321 ], [ 49.138344958460102, 30.448351395222321 ], [ 49.153251503470095, 30.448351395222321 ], [ 49.157507398791068, 30.433747647914412 ], [ 49.156244816659239, 30.434609777534895 ] ] ], [ [ [ 49.176669838223724, 30.123158433187218 ], [ 49.176669838223724, 30.114000746151905 ], [ 49.142600853781069, 30.108505723078487 ], [ 49.112787763761077, 30.103029082446895 ], [ 49.127694308771076, 30.114000746151905 ], [ 49.137545505467941, 30.115832352167775 ], [ 49.145688014866259, 30.116991853210035 ], [ 49.155368538845671, 30.117663923880531 ], [ 49.170004888584501, 30.120411217128382 ], [ 49.176669838223724, 30.123158433187218 ] ] ], [ [ [ 48.931726714556035, 30.346153378732996 ], [ 48.942377365143386, 30.342498789643994 ], [ 48.935982609877016, 30.331552841280931 ], [ 48.946633259566042, 30.318759247992723 ], [ 48.929587854610645, 30.318759247992723 ], [ 48.923193099344267, 30.331552841280931 ], [ 48.931726714556035, 30.346153378732996 ] ] ], [ [ [ 49.048883863830284, 30.451983362132836 ], [ 49.065907444215853, 30.442875249365024 ], [ 49.061651548894879, 30.433747647914412 ], [ 49.048883863830284, 30.435573237238085 ], [ 49.038233214141258, 30.442875249365024 ], [ 49.048883863830284, 30.451983362132836 ] ] ], [ [ [ 50.380149632690177, 29.294296766813151 ], [ 50.38674081357658, 29.31762563909756 ], [ 50.386457087880615, 29.324835645859835 ], [ 50.401450932966554, 29.336273167725402 ], [ 50.400425153031826, 29.330739673266766 ], [ 50.391891537820051, 29.321191733571805 ], [ 50.385605908097766, 29.294394225862408 ], [ 50.380149632690177, 29.294296766813151 ] ] ] ] } }
]
}
