{
"type": "FeatureCollection",
"name": "Small States of Lahsa",
"crs": { "type": "name", "properties": { "name": "urn:ogc:def:crs:OGC:1.3:CRS84" } },
"features": [
{ "type": "Feature", "properties": { "OBJECTID": 11.0, "YEAR": 1700.0, "OWNER_ID": 2289.0, "SHORT_NAME": "Lahsa", "LONG_NAME": "Small States of Lahsa", "VARIANTS": "Al Hasa, Bani Kalid, Land of Lahsa ruled by the Bani Khalid, Wahhabis?, al Lahsa", "SHAPE_LENG": 1900233.0, "Shape__Are": 28855603403.975586, "Shape__Len": 1906288.5096418529 }, "geometry": { "type": "MultiPolygon", "coordinates": [ [ [ [ 47.525536106922949, 29.669225845844416 ], [ 47.898068041847189, 29.78303906740209 ], [ 47.976311033599416, 29.757479477504454 ], [ 48.000000000205432, 29.71643540411371 ], [ 48.034213030402213, 29.657127154248855 ], [ 48.089626965159198, 29.638700024974899 ], [ 48.092093201736844, 29.633526542172891 ], [ 48.126053061533739, 29.579198540566527 ], [ 48.133670022354863, 29.556185180712799 ], [ 48.133233520178514, 29.542155764665505 ], [ 48.118698001838752, 29.529492429622714 ], [ 48.10451168559937, 29.541862649403736 ], [ 48.07784140999135, 29.557670073732289 ], [ 48.045758509912048, 29.568532565612301 ], [ 48.002392031449034, 29.572341973318597 ], [ 48.000000000205432, 29.572041037950974 ], [ 47.938728208074565, 29.564332281410042 ], [ 47.85747335112594, 29.530254620126112 ], [ 47.818816242030906, 29.499999999948937 ], [ 47.815765581292339, 29.497623921013041 ], [ 47.780037888220278, 29.45610396433197 ], [ 47.745008599349006, 29.424553663218902 ], [ 47.720695434774562, 29.422684858882313 ], [ 47.705570639574717, 29.405357828141501 ], [ 47.715042733746962, 29.388806755518274 ], [ 47.723532698022446, 29.396479002643485 ], [ 47.751141452590922, 29.407713701027998 ], [ 47.812950142614291, 29.417779081190229 ], [ 47.815721930356055, 29.410770412056642 ], [ 47.795621011064604, 29.407830519651373 ], [ 47.804482002908635, 29.393830780593003 ], [ 47.81460885034538, 29.368649717342429 ], [ 47.839816843842328, 29.352969232378268 ], [ 47.876286589356518, 29.351235464323228 ], [ 47.909700821432978, 29.363195912163405 ], [ 47.939470261415003, 29.387638341614139 ], [ 47.956777567496538, 29.412366874315634 ], [ 48.000000000205432, 29.446075562865168 ], [ 48.003876138129932, 29.449097966884818 ], [ 48.01529066662755, 29.445069297049667 ], [ 48.035260635805074, 29.425196056811494 ], [ 48.053899272985454, 29.41542344398043 ], [ 48.081922704262126, 29.418363114517035 ], [ 48.084323465333675, 29.409913763769485 ], [ 48.073716465682615, 29.398484595757555 ], [ 48.064986424850815, 29.371804997887352 ], [ 48.060555929377969, 29.333662331153022 ], [ 48.064222546042224, 29.275037133483565 ], [ 48.078037835611383, 29.211715734365537 ], [ 48.106541420000681, 29.122975908060482 ], [ 48.112739748748716, 29.058055309250776 ], [ 48.128235571517102, 29.029703064168228 ], [ 48.137191893477393, 28.999999999695707 ], [ 48.163024784730375, 28.914696651366818 ], [ 48.194256505925146, 28.879529466467197 ], [ 48.227736213507725, 28.859993435186585 ], [ 48.235789675606881, 28.851168866886869 ], [ 48.230922677957679, 28.776704615195399 ], [ 48.257723903679597, 28.719099760753739 ], [ 48.338760508641741, 28.699260196781506 ], [ 48.362528045495758, 28.58164703014198 ], [ 48.469732948383445, 28.509783897036737 ], [ 48.474500830415764, 28.500000000205191 ], [ 48.493260408681152, 28.461679585554702 ], [ 48.493042157592981, 28.426935959415115 ], [ 48.456528761142515, 28.423139739043037 ], [ 48.461308458715763, 28.403806082355356 ], [ 48.493107633099108, 28.3961923550197 ], [ 48.500000000235644, 28.400111490152124 ], [ 48.528791675234878, 28.416481419911278 ], [ 48.536692361751967, 28.398840670143901 ], [ 48.506944747238087, 28.371731219822223 ], [ 48.545597003633958, 28.326883996558767 ], [ 48.591058692004395, 28.275252901391141 ], [ 48.600967288352976, 28.250802630032137 ], [ 48.581040970111736, 28.21384350357296 ], [ 48.572681955950173, 28.15772675033547 ], [ 48.605681510420119, 28.097694195266154 ], [ 48.674539708974358, 28.049057587255735 ], [ 48.802587584493942, 28.010503632269984 ], [ 48.793089406839101, 27.999999999632248 ], [ 48.788183016268079, 27.994599208131586 ], [ 48.758588177336243, 27.991602973808458 ], [ 48.734100412609926, 27.971463761227934 ], [ 48.727050904977354, 27.922685837702382 ], [ 48.808502186647679, 27.87838493598381 ], [ 48.856561062608009, 27.837748318533471 ], [ 48.888818563737509, 27.783587717735333 ], [ 48.887509057208497, 27.762590470392784 ], [ 48.886788829336197, 27.739034370216871 ], [ 48.879128218477106, 27.73766920614948 ], [ 48.878407989706474, 27.764540248422538 ], [ 48.873562816627114, 27.783841141198696 ], [ 48.858416195959123, 27.786531293722142 ], [ 48.845997712994915, 27.778909019581445 ], [ 48.844491780845878, 27.765710098138388 ], [ 48.851606763984563, 27.742876237839546 ], [ 48.844862807516101, 27.717716343410711 ], [ 48.835979991102249, 27.722027097810066 ], [ 48.837376797707208, 27.762590470392784 ], [ 48.833208202462181, 27.775009950160303 ], [ 48.81275808196866, 27.767094403460774 ], [ 48.807825608813346, 27.748707034187476 ], [ 48.804595493427108, 27.72276829641125 ], [ 48.78820484173621, 27.690989720528368 ], [ 48.793464691523774, 27.680180142211746 ], [ 48.803940740162595, 27.674911544657963 ], [ 48.822252001609044, 27.68581920886762 ], [ 48.831680445743309, 27.704178282217182 ], [ 48.84008310994286, 27.69805243483281 ], [ 48.831898696831487, 27.681780184154803 ], [ 48.816839376239436, 27.668510828914151 ], [ 48.826376945917779, 27.646183414968441 ], [ 48.839864858854689, 27.64382159263543 ], [ 48.857477716998652, 27.651511966395443 ], [ 48.856932089278232, 27.643489761917966 ], [ 48.845604860856554, 27.628400160732685 ], [ 48.841785467711915, 27.600889904653112 ], [ 48.850166307341638, 27.574661779131592 ], [ 48.875286999864329, 27.562160665677514 ], [ 48.901651723409906, 27.571028791145633 ], [ 48.912913476325464, 27.588645694300812 ], [ 48.920552262614734, 27.590227560063724 ], [ 48.919657432793919, 27.570677205677043 ], [ 48.928081922461601, 27.557101212183429 ], [ 48.947833640550961, 27.553155066174671 ], [ 48.965555623340691, 27.562238802540502 ], [ 48.959837446806972, 27.580677426920566 ], [ 48.968327411082463, 27.59177034497996 ], [ 48.987817228045685, 27.594445755479125 ], [ 49.000000000265857, 27.58532691630991 ], [ 49.016517237156691, 27.572962493676201 ], [ 49.034653897552928, 27.549951158476468 ], [ 49.055584170260765, 27.544852062617558 ], [ 49.083345701309618, 27.544168256964934 ], [ 49.099649052026244, 27.536939198265792 ], [ 49.131775603041845, 27.529338398886065 ], [ 49.179267025813601, 27.53715412277181 ], [ 49.217351829020913, 27.537818433942835 ], [ 49.256549713137211, 27.537994279584538 ], [ 49.28394021661753, 27.525684354750293 ], [ 49.310283115593286, 27.506571901981122 ], [ 49.314409767599379, 27.499999999953697 ], [ 49.318554828780599, 27.493428620205204 ], [ 49.344417575542053, 27.484711566617776 ], [ 49.333919701435079, 27.473444520059299 ], [ 49.282041432330125, 27.466380130381815 ], [ 49.238042026070751, 27.470408640338214 ], [ 49.222066051088049, 27.458497832763413 ], [ 49.19620330522492, 27.465698966423922 ], [ 49.179026949257292, 27.456551499261643 ], [ 49.16270177307252, 27.461047477839369 ], [ 49.151134468992836, 27.451198901920652 ], [ 49.109644949349089, 27.45275604867669 ], [ 49.093647148898249, 27.438312664411885 ], [ 49.09661536315835, 27.416079356264472 ], [ 49.170209608349552, 27.399956405534898 ], [ 49.211590002449228, 27.391309786716842 ], [ 49.222895405402753, 27.371423865173924 ], [ 49.214994717987345, 27.341130337000635 ], [ 49.23234567500517, 27.343176144318793 ], [ 49.263555570731803, 27.362794471530631 ], [ 49.295180144064943, 27.369982433505395 ], [ 49.313884256751436, 27.360456821833569 ], [ 49.323552777442011, 27.340097676546979 ], [ 49.311199769085611, 27.296210382301076 ], [ 49.297515430528691, 27.238947361607909 ], [ 49.303539158226521, 27.14709282193402 ], [ 49.334072477017131, 27.104612569907243 ], [ 49.373073934615093, 27.094439098490014 ], [ 49.41414877755065, 27.086881615157637 ], [ 49.412970222033863, 27.110060167673488 ], [ 49.427156538273238, 27.11476558377754 ], [ 49.430364828191337, 27.10086352975166 ], [ 49.42438475053148, 27.08758465875119 ], [ 49.458933887188437, 27.086725382553102 ], [ 49.477048722116535, 27.098637477027861 ], [ 49.49896112472112, 27.102425644968005 ], [ 49.523994517167878, 27.101546958271136 ], [ 49.55500798817279, 27.095454534602091 ], [ 49.562406697905757, 27.108966765185816 ], [ 49.546889049669218, 27.117030359662277 ], [ 49.530716649066498, 27.120349344399774 ], [ 49.51469702404583, 27.131145117668321 ], [ 49.524518320318464, 27.161535514828845 ], [ 49.549900913967292, 27.164462857808029 ], [ 49.568124874439476, 27.158608094295055 ], [ 49.582289366109023, 27.133663328764985 ], [ 49.585148453926728, 27.085924687903361 ], [ 49.618038883750913, 27.056392583981701 ], [ 49.642221097313133, 27.026344590072249 ], [ 49.641697294162533, 27.004672951160678 ], [ 49.645042899656644, 27.000000000039481 ], [ 49.664700952207966, 26.97266192993024 ], [ 49.706932525192165, 26.929702177790656 ], [ 49.751848585842183, 26.891925977331645 ], [ 49.821143286572763, 26.849753439459338 ], [ 49.885156311149316, 26.828339682630482 ], [ 49.971190864772872, 26.80791583809458 ], [ 50.069294700158537, 26.739972023742713 ], [ 50.038390354697697, 26.724817976563973 ], [ 49.973111473630091, 26.772672066969804 ], [ 49.969030179359322, 26.708784060591903 ], [ 49.987232315261679, 26.631313208174788 ], [ 50.018049359748261, 26.562657380555127 ], [ 50.031820999279446, 26.508206948967558 ], [ 50.035961169133941, 26.499999999798675 ], [ 50.053667926377919, 26.465047757299271 ], [ 50.08391751857426, 26.4467310319036 ], [ 50.123442779322815, 26.416339406157999 ], [ 50.180864623012965, 26.392659090124074 ], [ 50.227832243532447, 26.344660238734516 ], [ 50.23756623883083, 26.294945409618606 ], [ 50.225278706878854, 26.166319795668059 ], [ 50.178856714079799, 26.165831934204537 ], [ 50.174469868644913, 26.093332389304408 ], [ 50.166896557861762, 26.03905488628417 ], [ 50.138021947700551, 26.047533148683467 ], [ 50.081102080794523, 26.15829909732879 ], [ 50.008751865727902, 26.158689411820173 ], [ 50.00294693978551, 25.999999999598952 ], [ 50.002335285891704, 25.983338393785331 ], [ 50.004495971305253, 25.927178878868599 ], [ 50.048408076590363, 25.972653626478426 ], [ 50.091425353851292, 25.958152692671145 ], [ 50.098409386876064, 25.910686004999594 ], [ 50.129357381476552, 25.838144232622536 ], [ 50.165565226762922, 25.793201876162779 ], [ 50.220302582787262, 25.725151412475743 ], [ 50.184116563867349, 25.722264733696491 ], [ 50.114690913022869, 25.750699331289081 ], [ 50.132020044572542, 25.702894848514369 ], [ 50.240250726496654, 25.625442018085902 ], [ 50.317402463706344, 25.536784156201552 ], [ 50.355229343527597, 25.499999999777721 ], [ 50.423188734520942, 25.434163048599029 ], [ 50.423428811077258, 25.364010631839573 ], [ 50.207142046482616, 25.322020234796803 ], [ 49.855985848035807, 25.499999999777721 ], [ 49.671379434068619, 25.593853064472817 ], [ 49.446428104148296, 25.834597804677987 ], [ 49.387445254395651, 25.999999999598952 ], [ 49.324993234084936, 26.175627789667228 ], [ 49.26843060560784, 26.499999999798675 ], [ 49.267876941558889, 26.503184550115336 ], [ 49.133412485304795, 26.80994279811727 ], [ 49.07500077991822, 27.000000000039481 ], [ 49.051371925876083, 27.077136193347744 ], [ 49.000000000265857, 27.133681645506396 ], [ 48.813434659802994, 27.338792224412359 ], [ 48.729897131615139, 27.499999999953697 ], [ 48.6185583210288, 27.71547312164601 ], [ 48.500000000235644, 27.94909172708277 ], [ 48.474130410108359, 27.999999999632248 ], [ 48.409910342723428, 28.126865475076563 ], [ 48.171078247727834, 28.430693109591253 ], [ 48.129740526299109, 28.500000000205191 ], [ 48.000000000205432, 28.718265690050998 ], [ 47.968803198322377, 28.770680425052625 ], [ 47.833944690679012, 28.999999999695707 ], [ 47.777440701528711, 29.096399398344271 ], [ 47.686124472649468, 29.229797669750315 ], [ 47.587273029639945, 29.499999999948937 ], [ 47.525536106922949, 29.669225845844416 ] ] ], [ [ [ 49.53086942464855, 27.184405754945839 ], [ 49.515417251918137, 27.208578272181473 ], [ 49.48064986417301, 27.250004545921872 ], [ 49.48064986417301, 27.277613405740961 ], [ 49.492238993720818, 27.315564269447876 ], [ 49.503828123268633, 27.336259212919632 ], [ 49.53859551101376, 27.343156659901403 ], [ 49.552038900750233, 27.336673072501981 ], [ 49.562203069593778, 27.332299415208773 ], [ 49.596541157854517, 27.319013698137667 ], [ 49.56563681239367, 27.305215333840966 ], [ 49.53086942464855, 27.319013698137667 ], [ 49.503828123268633, 27.291415236448024 ], [ 49.507691166451238, 27.260358680373937 ], [ 49.527006381465952, 27.236197518784092 ], [ 49.550184640561575, 27.208578272181473 ], [ 49.53086942464855, 27.184405754945839 ] ] ], [ [ [ 48.320405598055643, 29.458302968275895 ], [ 48.324661492478292, 29.46974479520744 ], [ 48.339568037488299, 29.47353899030465 ], [ 48.354474582498291, 29.47353899030465 ], [ 48.367242267562887, 29.462117055207553 ], [ 48.382170637142721, 29.450674359033524 ], [ 48.409866692685455, 29.439249823062823 ], [ 48.420517342374488, 29.429712162706068 ], [ 48.420517342374488, 29.420193064958855 ], [ 48.402942678799775, 29.422100849864346 ], [ 48.394960147675462, 29.424008598579885 ], [ 48.373658847399085, 29.433527335131092 ], [ 48.363008197710066, 29.44687929907813 ], [ 48.343823932809265, 29.44687929907813 ], [ 48.328917387799272, 29.44687929907813 ], [ 48.314010842789266, 29.444971984383404 ], [ 48.320405598055643, 29.458302968275895 ] ] ] ] } }
]
}
