{
"type": "FeatureCollection",
"name": "State of the Church",
"crs": { "type": "name", "properties": { "name": "urn:ogc:def:crs:OGC:1.3:CRS84" } },
"features": [
{ "type": "Feature", "properties": { "OBJECTID": 17.0, "YEAR": 1700.0, "OWNER_ID": 2140.0, "SHORT_NAME": "Papal States", "LONG_NAME": "State of the Church", "VARIANTS": "Pontifical States", "SHAPE_LENG": 2691544.0000000005, "Shape__Are": 82265023539.550293, "Shape__Len": 2696510.5908701504 }, "geometry": { "type": "MultiPolygon", "coordinates": [ [ [ [ 13.049542865747432, 42.042327583354854 ], [ 13.052674486252661, 42.037333282167886 ], [ 13.059956491355482, 42.03737506066247 ], [ 13.073605117388292, 42.03745336605111 ], [ 13.080867455674595, 42.037495031962443 ], [ 13.081482735168885, 42.038368474891691 ], [ 13.091736457961417, 42.040227445769482 ], [ 13.11033493146544, 42.044902737169082 ], [ 13.135121890876926, 42.042573770432234 ], [ 13.138373781425654, 42.040472668736221 ], [ 13.168208726558197, 42.021192531628749 ], [ 13.188541305191739, 42.008049701503161 ], [ 13.214918190129641, 41.999999999713268 ], [ 13.25334338296441, 41.988364042798132 ], [ 13.256183489380161, 41.987831907120999 ], [ 13.303796271851855, 41.949631677703401 ], [ 13.35227147831881, 41.885673823875031 ], [ 13.499999999917415, 41.841906336311638 ], [ 13.501037184862991, 41.841598943728407 ], [ 13.50273285916634, 41.844220163602188 ], [ 13.505739675830831, 41.843176447800474 ], [ 13.516243369224215, 41.823503132344491 ], [ 13.515658567770883, 41.819280070692834 ], [ 13.516484335112658, 41.795675775992294 ], [ 13.510373222897249, 41.77488854313237 ], [ 13.537888010093752, 41.738993250125809 ], [ 13.548250155947816, 41.718858296602015 ], [ 13.553863293373679, 41.707948607629227 ], [ 13.555555311533821, 41.685038459619491 ], [ 13.549149474650108, 41.654151319659555 ], [ 13.545315308710624, 41.635656906288581 ], [ 13.539384431778876, 41.590503647700011 ], [ 13.536789297737734, 41.570736218581224 ], [ 13.551885610953187, 41.562814559804629 ], [ 13.554911844702547, 41.55669447122758 ], [ 13.559400806127352, 41.54761516890926 ], [ 13.553248014777704, 41.516720208571655 ], [ 13.545776767882185, 41.508565341760963 ], [ 13.535712559071884, 41.50138043555949 ], [ 13.527352149826676, 41.502905074264852 ], [ 13.50559092470125, 41.506861302271098 ], [ 13.499999999917415, 41.507877702134813 ], [ 13.496980165766141, 41.508426685400941 ], [ 13.476741524860175, 41.503166487415051 ], [ 13.472272885123727, 41.50259415883685 ], [ 13.470232460770532, 41.501474633522434 ], [ 13.464559245815094, 41.499999999681769 ], [ 13.459464715684218, 41.498686016199812 ], [ 13.439380390072705, 41.48466435009626 ], [ 13.452891591833348, 41.451941121131462 ], [ 13.451858802344457, 41.450109106921062 ], [ 13.45011285831781, 41.447723881760346 ], [ 13.427555275794699, 41.416898837368542 ], [ 13.385188912398748, 41.417879637427014 ], [ 13.379180219803827, 41.41917495260585 ], [ 13.377190283464543, 41.419246301469776 ], [ 13.324166406352481, 41.428554923146926 ], [ 13.26756072611539, 41.424857358675169 ], [ 13.254793683346216, 41.403873682655437 ], [ 13.255117305020583, 41.402585510197206 ], [ 13.263056003748924, 41.37097748048771 ], [ 13.275141844156677, 41.364299676218266 ], [ 13.276091553854831, 41.3626934272447 ], [ 13.277361243457188, 41.362030675052594 ], [ 13.282430525538688, 41.351971275048584 ], [ 13.292677298964184, 41.334635446490658 ], [ 13.292769439162875, 41.33145005085224 ], [ 13.293622191895784, 41.329757170111762 ], [ 13.293534600765689, 41.304991232797434 ], [ 13.293710074080028, 41.303319278173127 ], [ 13.277888625495875, 41.304748211675651 ], [ 13.207043627519324, 41.300850259497757 ], [ 13.115894417909276, 41.282436509365198 ], [ 13.110972184649896, 41.262550869730973 ], [ 13.093260935829495, 41.250042674277665 ], [ 13.059596376521014, 41.250735845732173 ], [ 13.034062292779304, 41.265564726627503 ], [ 13.030722205635978, 41.294213535937033 ], [ 13.007781083809054, 41.331157900992118 ], [ 12.999999999887205, 41.337418991543274 ], [ 12.882352036294547, 41.432011150501545 ], [ 12.844094858062311, 41.445110978869344 ], [ 12.779512523479495, 41.44551277247534 ], [ 12.769294494346463, 41.436801335453168 ], [ 12.752154575843393, 41.437331770398423 ], [ 12.722511306039653, 41.457067269805258 ], [ 12.699042801275725, 41.464137149371496 ], [ 12.676233525183045, 41.467495069856675 ], [ 12.627978061007632, 41.461389629437704 ], [ 12.598525233145811, 41.499999999681769 ], [ 12.583634014292876, 41.519664766740277 ], [ 12.499999999856989, 41.605429106120944 ], [ 12.48848549066488, 41.617227930873298 ], [ 12.344795836804495, 41.71383615580659 ], [ 12.210203525132643, 41.747086563739941 ], [ 12.188569267889479, 41.757358280912932 ], [ 12.186844892412802, 41.758176925543033 ], [ 12.175308408632212, 41.83139250978072 ], [ 12.155905141651671, 41.887234147437823 ], [ 12.129206421788504, 41.923545057647466 ], [ 12.101892422431044, 41.934218886912795 ], [ 12.064404344015831, 41.943605225233043 ], [ 12.038430774792724, 41.955850374515819 ], [ 11.999999999826779, 41.985758488300803 ], [ 11.999272651907532, 41.986324398489764 ], [ 11.976103475677741, 41.999999999713268 ], [ 11.931745766485827, 42.026381842943735 ], [ 11.895905757053796, 42.028339329488659 ], [ 11.852638449004887, 42.023712444828476 ], [ 11.810381956754707, 42.076804149294873 ], [ 11.758654560600036, 42.118463466430157 ], [ 11.727055582065969, 42.189049985187395 ], [ 11.651810026770036, 42.268407359321628 ], [ 11.646358396550788, 42.27415299172803 ], [ 11.613800271516508, 42.308455962886867 ], [ 11.541790638316817, 42.363061338854145 ], [ 11.499999999796566, 42.384503760705407 ], [ 11.473121091362133, 42.398291203641563 ], [ 11.45370024075822, 42.405448952347911 ], [ 11.460441946048569, 42.414081873372695 ], [ 11.499999999796566, 42.436216975966531 ], [ 11.500632858422653, 42.436571034401844 ], [ 11.57051098887912, 42.423117094494813 ], [ 11.603340526401769, 42.469076728268718 ], [ 11.598000782249473, 42.493087564324433 ], [ 11.563880266848862, 42.499999999702688 ], [ 11.54941570463675, 42.502953824400791 ], [ 11.564951502435283, 42.521418107279736 ], [ 11.565698627663826, 42.541801729207663 ], [ 11.575499145005628, 42.558685939318309 ], [ 11.639641995005363, 42.54875651114309 ], [ 11.675855567949982, 42.565153766804791 ], [ 11.716200299748479, 42.612009157781316 ], [ 11.747953097706962, 42.613220882088953 ], [ 11.759994989836073, 42.625692186843359 ], [ 11.736736091672334, 42.642578721827654 ], [ 11.720331459500676, 42.654486114593375 ], [ 11.717408884148581, 42.672598576016725 ], [ 11.739097473296761, 42.678360517508452 ], [ 11.757358079642643, 42.701241570072689 ], [ 11.746634643059407, 42.728871461943449 ], [ 11.695083040917629, 42.755602428583316 ], [ 11.694511709701983, 42.767223068696936 ], [ 11.711014375918912, 42.779244333140113 ], [ 11.756457134989688, 42.769688747307036 ], [ 11.782650446504334, 42.770849032640179 ], [ 11.810030368728917, 42.776150613163075 ], [ 11.841145913502944, 42.804069020690754 ], [ 11.898806358715724, 42.863536550989423 ], [ 11.929921903489751, 42.867140741587932 ], [ 11.953588175956739, 42.895532417982523 ], [ 11.950072295698833, 42.921065637872339 ], [ 11.938905489318911, 42.932345866494416 ], [ 11.936228514263812, 42.935049723352151 ], [ 11.958664228640535, 42.965948029298822 ], [ 11.956713970887352, 43.00000000005209 ], [ 11.956642597941395, 43.001256088468224 ], [ 11.967695647961945, 43.036791375120131 ], [ 11.984615824173476, 43.055570103095242 ], [ 11.977693933905122, 43.072710138721149 ], [ 11.959872813040635, 43.071125696067199 ], [ 11.919154518627868, 43.102031039384819 ], [ 11.919927051805905, 43.105516417700485 ], [ 11.923219755512937, 43.120369616971338 ], [ 11.93868963134266, 43.131176283828822 ], [ 11.945567573332369, 43.201461479712911 ], [ 11.968640540893547, 43.218366838741083 ], [ 11.999999999826779, 43.227776674600051 ], [ 12.013358149324258, 43.23178452637903 ], [ 12.027421673050821, 43.251695922682977 ], [ 12.036365194916629, 43.289098716110502 ], [ 12.06251455815263, 43.301582644853646 ], [ 12.098552336186037, 43.284781091904961 ], [ 12.173550468503262, 43.313532581919191 ], [ 12.218158205788205, 43.321229535835336 ], [ 12.229496920967417, 43.343187830683078 ], [ 12.223058464459104, 43.360053580907092 ], [ 12.199655883460618, 43.364719796398013 ], [ 12.180560255328905, 43.363722222544588 ], [ 12.168364543775379, 43.340177892082146 ], [ 12.152191492792392, 43.340789549561009 ], [ 12.149181019086377, 43.356642187840734 ], [ 12.156454498278835, 43.386051060008612 ], [ 12.147510976413029, 43.39742142821423 ], [ 12.120043157631159, 43.400492827973615 ], [ 12.120790281961382, 43.411217376247407 ], [ 12.162629263318648, 43.418998310263866 ], [ 12.177901370546996, 43.43515178557039 ], [ 12.169507205308356, 43.47417544249857 ], [ 12.118834573231055, 43.491791234637191 ], [ 12.113681601402742, 43.499999999890157 ], [ 12.104946844415704, 43.514028536232829 ], [ 12.113560751945885, 43.526521479569446 ], [ 12.163662053705853, 43.549865940570498 ], [ 12.195612620265713, 43.554604902953287 ], [ 12.212943686786513, 43.608832656439681 ], [ 12.237781215958604, 43.650145017701718 ], [ 12.215960780177857, 43.673667209726503 ], [ 12.257426199819166, 43.685416756866559 ], [ 12.270237189968666, 43.6974866806205 ], [ 12.345235322285889, 43.697163986942677 ], [ 12.356310346894919, 43.709376712362598 ], [ 12.328073429194342, 43.722909420990767 ], [ 12.335808366660045, 43.731601635985939 ], [ 12.368747775328464, 43.72892476256154 ], [ 12.371956016737538, 43.746483498077922 ], [ 12.355365453963319, 43.761361635979625 ], [ 12.315416258469254, 43.768162750430662 ], [ 12.288234104846048, 43.781085945411284 ], [ 12.234309283081028, 43.78002254663285 ], [ 12.202644381679836, 43.763166746408871 ], [ 12.18530669457539, 43.776542199460856 ], [ 12.109847103086604, 43.7758009882659 ], [ 12.100024611156323, 43.785661564205242 ], [ 12.110835944296852, 43.838062679472813 ], [ 12.12226255693167, 43.859048780021588 ], [ 12.14410496640258, 43.886814959553021 ], [ 12.148874258789894, 43.899547009371851 ], [ 12.153685741452843, 43.912349625713006 ], [ 12.152184979108265, 43.913016829715382 ], [ 12.134809856510985, 43.92074085459835 ], [ 12.11063817659379, 43.913732171133972 ], [ 12.078072330539641, 43.922444675142053 ], [ 12.090861346998977, 43.936218098606105 ], [ 12.107012424291801, 43.953554865476669 ], [ 12.083895508451979, 43.96285581370082 ], [ 12.04829721500165, 43.949249267463095 ], [ 12.022477465202959, 43.944589870269816 ], [ 11.999999999826779, 43.959531051515114 ], [ 11.984725695319245, 43.969682001841868 ], [ 11.980924149004363, 43.983588919513068 ], [ 11.975408610839168, 43.996561469018296 ], [ 11.973222310863616, 44.000000000164377 ], [ 11.962905260436814, 44.016361805441903 ], [ 11.962817362981209, 44.092720383283051 ], [ 11.979957282382594, 44.129400606804211 ], [ 11.963037106171065, 44.156467859427295 ], [ 11.930053749224001, 44.164411243946148 ], [ 11.877491331283498, 44.150606501797405 ], [ 11.800251825077281, 44.124247369334796 ], [ 11.765158939975473, 44.095080241917827 ], [ 11.733516012264445, 44.076554421439326 ], [ 11.679371448207887, 44.065251772516653 ], [ 11.590661381088205, 44.060513392066312 ], [ 11.550074932409688, 44.070571888373458 ], [ 11.548822399730939, 44.088356012419368 ], [ 11.563962661225037, 44.116637843389583 ], [ 11.547974125998037, 44.138186542662872 ], [ 11.546295360683281, 44.140448656009745 ], [ 11.504566250471786, 44.140803967913619 ], [ 11.499999999796566, 44.142475461732232 ], [ 11.476285384492563, 44.151155524385644 ], [ 11.455168124763397, 44.163491028588759 ], [ 11.432468719816491, 44.165040855903641 ], [ 11.40686871230934, 44.175468836545093 ], [ 11.362986125664456, 44.203095620317441 ], [ 11.316840189643788, 44.195270431327764 ], [ 11.283681039582143, 44.186637307567729 ], [ 11.258564465835033, 44.169560952152551 ], [ 11.239798452038947, 44.140787817507544 ], [ 11.216088231293313, 44.130321357441339 ], [ 11.215011492627459, 44.110578597945825 ], [ 11.207716039744838, 44.092332452640029 ], [ 11.168691699361649, 44.087854439126545 ], [ 11.151791560970844, 44.085915055439095 ], [ 11.113732151339985, 44.101512798366308 ], [ 11.0788809831182, 44.097100592945381 ], [ 11.063784669902745, 44.11374564176311 ], [ 11.042777282217667, 44.118382790156311 ], [ 11.028120454483609, 44.135490213210019 ], [ 11.004146542269474, 44.141692238577157 ], [ 10.999999999766354, 44.140940039081485 ], [ 10.960967130777858, 44.133858842199118 ], [ 10.928862744793584, 44.109269718698286 ], [ 10.84373451583323, 44.139625041910804 ], [ 10.859577918344611, 44.172337409262376 ], [ 10.860303068984672, 44.212887733709628 ], [ 10.877486936664702, 44.218807375916995 ], [ 10.903262737286433, 44.203982946787193 ], [ 10.924336047838638, 44.195867441109733 ], [ 10.959670649820465, 44.244462982678577 ], [ 10.946112534442426, 44.263000249940177 ], [ 10.946639916481111, 44.2860749533261 ], [ 10.967251767861756, 44.300959095381643 ], [ 10.993269285363505, 44.298961877229985 ], [ 10.999999999766354, 44.305223575983419 ], [ 11.010650921644912, 44.315130937740818 ], [ 11.00142173462044, 44.365075292271598 ], [ 11.007135040488691, 44.399623349376078 ], [ 11.017462940767496, 44.417596943086494 ], [ 11.042799256806145, 44.458362548770438 ], [ 11.058972307789135, 44.488954082432457 ], [ 11.057098821856762, 44.500000000095532 ], [ 11.049347584460229, 44.546074233241164 ], [ 11.046403034519654, 44.609003004125753 ], [ 11.04688646738138, 44.634061626445614 ], [ 11.049545353061603, 44.660061959925052 ], [ 11.056291449317062, 44.706703931180549 ], [ 11.087187251799548, 44.732735969863732 ], [ 11.108326484320562, 44.758401621269641 ], [ 11.147813890961356, 44.781436676731751 ], [ 11.16934899036683, 44.793995321445273 ], [ 11.196289427110019, 44.799938879398447 ], [ 11.249862660849248, 44.842460010005013 ], [ 11.301260443566608, 44.872806022872709 ], [ 11.313412205943173, 44.905756481073382 ], [ 11.284669880792389, 44.925382637521629 ], [ 11.266101635597678, 44.942206572328267 ], [ 11.253532361429881, 44.952375655904859 ], [ 11.27627571555375, 44.965722836821037 ], [ 11.309193149633687, 44.956809001282288 ], [ 11.341605175365107, 44.969464626142639 ], [ 11.365842779047743, 44.972467515366603 ], [ 11.404429570717289, 44.967682087891177 ], [ 11.394233516172735, 44.983096792479643 ], [ 11.396518838340373, 44.995682374004701 ], [ 11.391359095011447, 45.000000000297035 ], [ 11.371468187460389, 45.01518042705797 ], [ 11.329365515532938, 45.03964795684653 ], [ 11.295129625907126, 45.042515470206617 ], [ 11.260410303419588, 45.041827865306608 ], [ 11.232612871200406, 45.038477501339429 ], [ 11.205189000697178, 45.042573989523959 ], [ 11.21358316593582, 45.066400917743756 ], [ 11.222526687801626, 45.086095562203852 ], [ 11.223032095251831, 45.101808359913655 ], [ 11.251005322382225, 45.103065195411361 ], [ 11.266936657383507, 45.094529855994544 ], [ 11.291174260167827, 45.088595284043514 ], [ 11.328486545468461, 45.082937860783247 ], [ 11.351229898694015, 45.074662680828261 ], [ 11.38276295525927, 45.058781483335785 ], [ 11.466045381669367, 45.033093095933829 ], [ 11.494611912807255, 45.033883230695785 ], [ 11.499999999796566, 45.036662021442162 ], [ 11.511180500992994, 45.04242769175454 ], [ 11.534824798871503, 45.032215155327755 ], [ 11.552931585792971, 45.015985447100448 ], [ 11.597671168812164, 45.012882396490063 ], [ 11.642916159281564, 45.01627817901047 ], [ 11.67546003074723, 45.004919077559762 ], [ 11.70121315429793, 45.000000000297035 ], [ 11.713783131846592, 44.997367731980574 ], [ 11.719113835353868, 45.000000000297035 ], [ 11.755973701229648, 45.016600182435141 ], [ 11.793967187993381, 45.0097059855716 ], [ 11.824375723604511, 45.000000000297035 ], [ 11.824467454171433, 44.999967899754161 ], [ 11.86265870863823, 44.991332315412905 ], [ 11.908475030323274, 44.982984409049401 ], [ 11.934668342736236, 44.977702120436973 ], [ 11.968596592614903, 44.991203895491317 ], [ 11.999999999826779, 44.988128274821158 ], [ 12.014654630281651, 44.986692956620359 ], [ 12.026432830942261, 44.992488082946537 ], [ 12.044627514421016, 44.982807805612602 ], [ 12.088927612857129, 44.993338841533443 ], [ 12.093467825863838, 45.000000000297035 ], [ 12.099189589370491, 45.007656594456321 ], [ 12.107166243716216, 45.021854433904451 ], [ 12.143753378376791, 45.026859425107475 ], [ 12.149071147940607, 45.042910473473768 ], [ 12.174715103726403, 45.041110991697728 ], [ 12.204600090410164, 45.025600901191396 ], [ 12.22989245817017, 45.038594547592702 ], [ 12.260370749759741, 45.019073692891148 ], [ 12.263968361437138, 45.02518383462634 ], [ 12.273313585643489, 45.026361872099592 ], [ 12.282241042038756, 45.018448034424758 ], [ 12.298540030536371, 45.003996783040641 ], [ 12.30045743959456, 45.000000000297035 ], [ 12.302464532857455, 44.995413207125445 ], [ 12.306736427173634, 44.98564945047022 ], [ 12.329523729576147, 44.976979581126059 ], [ 12.374702798076736, 44.971584329009154 ], [ 12.396713891395068, 44.976511412784582 ], [ 12.409422121462587, 44.979355898534848 ], [ 12.447239814213427, 44.968581393232171 ], [ 12.452500853370422, 44.971848474102082 ], [ 12.465961878832555, 44.980206853353529 ], [ 12.499999999856989, 44.97803513467575 ], [ 12.502702832917544, 44.977862683837749 ], [ 12.507592388161834, 44.969926272797707 ], [ 12.525775801377035, 44.958945236800339 ], [ 12.522128074486568, 44.954495994482919 ], [ 12.514239317596449, 44.953082444406462 ], [ 12.508657856564133, 44.946367601430481 ], [ 12.505515538022184, 44.906351312774909 ], [ 12.499999999856989, 44.895916938713853 ], [ 12.490243430793836, 44.877454652307023 ], [ 12.49017750792671, 44.859179661952339 ], [ 12.471499391586228, 44.855607635336078 ], [ 12.453722219000385, 44.893745997190763 ], [ 12.46556634252812, 44.902878697413534 ], [ 12.457172177289479, 44.926861157218163 ], [ 12.447393633637843, 44.931698220689206 ], [ 12.43122058175654, 44.927455769022721 ], [ 12.414212508987719, 44.906415618085049 ], [ 12.417288904662543, 44.895225336419813 ], [ 12.42845182582886, 44.893070634185619 ], [ 12.435241870362963, 44.883373466736771 ], [ 12.422430880213462, 44.877744173959499 ], [ 12.4279903666573, 44.868752238649748 ], [ 12.437153630814645, 44.86254231288374 ], [ 12.438142472024893, 44.846821429830598 ], [ 12.426759808567034, 44.838581125174699 ], [ 12.402500230295919, 44.838581125174699 ], [ 12.389777136703708, 44.857087961930091 ], [ 12.382283916118025, 44.877937186941111 ], [ 12.36422107837352, 44.877502906017661 ], [ 12.345520987444557, 44.867449175349456 ], [ 12.320734028033074, 44.864344226007354 ], [ 12.313900034322009, 44.877181214057103 ], [ 12.298298313656352, 44.885415958897973 ], [ 12.284037022226729, 44.881121816292428 ], [ 12.280147579354551, 44.861898758767609 ], [ 12.281004574830551, 44.847288130380804 ], [ 12.290057967842126, 44.822950256712325 ], [ 12.281004574830551, 44.801195162367243 ], [ 12.264853497537725, 44.782799141570678 ], [ 12.259469805106784, 44.762930611390161 ], [ 12.26771015092101, 44.715689058704271 ], [ 12.27307186876347, 44.627858571447241 ], [ 12.28673985528728, 44.619215181955084 ], [ 12.290959502688223, 44.613834049506778 ], [ 12.292694878933869, 44.611620854559277 ], [ 12.291134706507975, 44.596671652158228 ], [ 12.275225346095173, 44.577434008048073 ], [ 12.266347747096493, 44.552189026243632 ], [ 12.26285384052875, 44.524861564735474 ], [ 12.276433929596958, 44.500338379116243 ], [ 12.276454456999515, 44.500000000095532 ], [ 12.277906205465561, 44.476269789190411 ], [ 12.311329046995706, 44.412983501065398 ], [ 12.318932138727158, 44.381788949893952 ], [ 12.312889219421598, 44.360312871123611 ], [ 12.328688708688631, 44.340663761892742 ], [ 12.343543305024063, 44.32112072537354 ], [ 12.345367168020141, 44.294242371931489 ], [ 12.390062802760688, 44.216517013146756 ], [ 12.462518057844534, 44.149915660990757 ], [ 12.554625534405993, 44.08049136895562 ], [ 12.573871872791967, 44.076367153587199 ], [ 12.594492949634086, 44.059182922885441 ], [ 12.650169857107802, 44.011067076920497 ], [ 12.67079093394992, 43.99869443081522 ], [ 12.691608410459681, 43.978707927169886 ], [ 12.697724345729851, 43.976651929640738 ], [ 12.77065689817098, 43.968461377165816 ], [ 12.807331930287157, 43.95758706299619 ], [ 12.896986890338441, 43.925000314154538 ], [ 12.956119610521506, 43.894341435812301 ], [ 12.999999999887205, 43.866470159161487 ], [ 13.043665042418045, 43.838722632177344 ], [ 13.08791262534265, 43.807289730782017 ], [ 13.135297684889819, 43.773609526915635 ], [ 13.170917952928628, 43.743339752816986 ], [ 13.2023411374498, 43.724860845274684 ], [ 13.252859949204371, 43.703198064215456 ], [ 13.357435428458212, 43.652663966637711 ], [ 13.386441445077496, 43.644799972676864 ], [ 13.389715609353692, 43.644799972676864 ], [ 13.414568491632304, 43.627340461798646 ], [ 13.438872017283748, 43.620943285251094 ], [ 13.461153912236055, 43.611734023739487 ], [ 13.494840445234699, 43.604866544823203 ], [ 13.499999999917415, 43.606162055011708 ], [ 13.517429979035837, 43.610538331394778 ], [ 13.523472899239714, 43.63376925699319 ], [ 13.526329552622997, 43.645042205182683 ], [ 13.54641402106664, 43.652050386196727 ], [ 13.566344670984185, 43.645042205182683 ], [ 13.574299350741427, 43.620022422492823 ], [ 13.608689059791654, 43.560653409098471 ], [ 13.632860740607164, 43.551111369984895 ], [ 13.632392328475305, 43.499999999890157 ], [ 13.632377306847125, 43.498373748618206 ], [ 13.687928223006844, 43.451509785052636 ], [ 13.770243782795173, 43.273357233423297 ], [ 13.848472130211636, 43.105747673799115 ], [ 13.895562958265591, 43.017035924276207 ], [ 13.903841476191186, 43.00000000005209 ], [ 13.922160292469163, 42.96259371825564 ], [ 13.919168219853431, 42.962665098165502 ], [ 13.876247588740654, 42.959393688056309 ], [ 13.756719577022478, 42.936151218362838 ], [ 13.696969682798187, 42.923642320234833 ], [ 13.675452237982991, 42.912116828822271 ], [ 13.651956136973533, 42.899529020079861 ], [ 13.586308365429455, 42.880546432542623 ], [ 13.584552911837209, 42.877047470419249 ], [ 13.572842116263944, 42.853700454311259 ], [ 13.53417436123447, 42.839299303369188 ], [ 13.528235205429061, 42.83588768055882 ], [ 13.499999999917415, 42.820107549388084 ], [ 13.477979125742268, 42.807797676326423 ], [ 13.446875634562724, 42.790850819056615 ], [ 13.443647189144597, 42.790689444708306 ], [ 13.414063083283782, 42.789539499200885 ], [ 13.373208516239044, 42.812840903917689 ], [ 13.363430129792581, 42.818812384887408 ], [ 13.355637481858079, 42.819800700826434 ], [ 13.322386491635049, 42.824681512710349 ], [ 13.321285881138836, 42.824157210865323 ], [ 13.305520287104104, 42.823039400428847 ], [ 13.29477385005633, 42.821993093217657 ], [ 13.288056762198028, 42.821187921069253 ], [ 13.283052669060066, 42.817234667052887 ], [ 13.252508361178579, 42.787364607850236 ], [ 13.217898909836814, 42.70761383548745 ], [ 13.199443316073676, 42.702998824425649 ], [ 13.164926478342757, 42.695310814164117 ], [ 13.134646545547701, 42.656047840981444 ], [ 13.127782489715656, 42.647284854493485 ], [ 13.09025046212348, 42.626176772010986 ], [ 13.029865210159983, 42.62370534693666 ], [ 12.999999999887205, 42.614639047797468 ], [ 12.992676003036427, 42.612415470938721 ], [ 12.985696957458121, 42.610296546513077 ], [ 12.983521506436253, 42.609214022478 ], [ 12.93374981901191, 42.614561829715306 ], [ 12.910375314857626, 42.602080537436393 ], [ 12.911000416531236, 42.601361644962722 ], [ 12.894503799569428, 42.593604182282697 ], [ 12.886724912926763, 42.557667195153194 ], [ 12.911336078325352, 42.527097075502546 ], [ 12.920588023269231, 42.519851231256162 ], [ 12.912237022978307, 42.510366089419577 ], [ 12.911672305159785, 42.499999999702688 ], [ 12.909666035652005, 42.463454121197415 ], [ 12.917296950004438, 42.445172047592024 ], [ 12.919202861525307, 42.44060504173563 ], [ 12.916000328011547, 42.43147689695116 ], [ 12.906827043147207, 42.40524765989209 ], [ 12.913301978442577, 42.400179606550999 ], [ 12.936958059522668, 42.38166004087558 ], [ 12.985798043978729, 42.33799065950322 ], [ 12.999999999887205, 42.326484520939253 ], [ 13.001760138193655, 42.325058344968099 ], [ 13.020427216035925, 42.313581261458566 ], [ 13.066738009979224, 42.285098881462105 ], [ 13.05597062511734, 42.250337063053927 ], [ 13.055233895193268, 42.221897125255026 ], [ 13.055619037091549, 42.208587714338783 ], [ 13.069221100748235, 42.140736165658268 ], [ 13.075000329483615, 42.105005577399844 ], [ 13.0655048683342, 42.096110062418354 ], [ 13.060563244041097, 42.091480164969155 ], [ 13.039358087754639, 42.074557188957229 ], [ 13.039739989429693, 42.071224292228095 ], [ 13.040390878141846, 42.068672682314073 ], [ 13.049542865747432, 42.042327583354854 ] ], [ [ 12.396567182136128, 43.900484131345735 ], [ 12.404280145013351, 43.89435751688449 ], [ 12.423859206905105, 43.889886777964932 ], [ 12.448558268860983, 43.881201643782163 ], [ 12.473147460569409, 43.882633170440258 ], [ 12.486507807346074, 43.884193333919946 ], [ 12.488198708900319, 43.885532157093245 ], [ 12.499999999856989, 43.894875349107195 ], [ 12.500483433617031, 43.895258056444476 ], [ 12.512173736822035, 43.917477740618708 ], [ 12.51623897460542, 43.942613532146552 ], [ 12.506350559808011, 43.956783858350242 ], [ 12.507669015353885, 43.975575980754854 ], [ 12.51489854447107, 43.993687845887536 ], [ 12.510152106122897, 43.999900475070007 ], [ 12.499999999856989, 43.998037022386669 ], [ 12.492748496151327, 43.996705948768216 ], [ 12.46719243692282, 43.988181014735829 ], [ 12.452733377790139, 43.971047144552479 ], [ 12.42759482945455, 43.966967682947853 ], [ 12.412872078853367, 43.963128876366561 ], [ 12.40219259144709, 43.953265693461752 ], [ 12.398149328252183, 43.925836096319451 ], [ 12.396567182136128, 43.900484131345735 ] ] ], [ [ [ 4.757906462971386, 43.936780538724889 ], [ 4.804200521300921, 43.973456143190781 ], [ 4.807640980804218, 43.978537243842375 ], [ 4.82265962747682, 44.000000000164377 ], [ 4.828081475849491, 44.007812314162784 ], [ 4.82422261342619, 44.013431406577872 ], [ 4.816183924121908, 44.025562768996281 ], [ 4.817361480712106, 44.026088030053501 ], [ 4.890394916654548, 44.051003134643388 ], [ 4.897838914952573, 44.052736310762462 ], [ 4.901358720848259, 44.053963124450362 ], [ 4.992813352265036, 44.078417890967437 ], [ 4.993924866512156, 44.092849692927935 ], [ 4.995855617348936, 44.095871977874211 ], [ 4.996012163160256, 44.097278380777723 ], [ 5.000000000302123, 44.102369804279341 ], [ 5.000038000835271, 44.102418389495845 ], [ 5.018234152161202, 44.130931793511614 ], [ 5.011070293484558, 44.141180085589411 ], [ 5.000000000302123, 44.153851546758304 ], [ 4.996100049836051, 44.15830849564685 ], [ 4.931659049891849, 44.16810061939124 ], [ 4.886604132156787, 44.174163534122769 ], [ 4.865281434010341, 44.176953785238382 ], [ 4.8437712853119, 44.164927849061137 ], [ 4.841749902547755, 44.165283012596866 ], [ 4.817023145531702, 44.173930370525035 ], [ 4.809150459502007, 44.176579787479589 ], [ 4.799417340061026, 44.170249223906573 ], [ 4.778515777509686, 44.156112642455291 ], [ 4.760323333530896, 44.148184281967758 ], [ 4.739735989987851, 44.139624970103966 ], [ 4.739317658034747, 44.138076382261545 ], [ 4.737650138729044, 44.138319846544327 ], [ 4.741977186010417, 44.162274654917951 ], [ 4.729624946611879, 44.20061656470714 ], [ 4.688454389081131, 44.209258229057156 ], [ 4.687874347800498, 44.210728558286419 ], [ 4.685795831285994, 44.211226255155445 ], [ 4.672178676830833, 44.250501044183004 ], [ 4.670480551923407, 44.25570661007697 ], [ 4.670591518115499, 44.25997021242712 ], [ 4.708646666138652, 44.264095797645865 ], [ 4.719060759768966, 44.266384680938316 ], [ 4.756106516721424, 44.266808084195091 ], [ 4.763965465713803, 44.266897905395091 ], [ 4.76700268496078, 44.266932617967242 ], [ 4.805343041798425, 44.268947048527238 ], [ 4.825490954657325, 44.271702676302375 ], [ 4.827303424320654, 44.272725383049917 ], [ 4.840200349106855, 44.280002106059243 ], [ 4.861348526153161, 44.25984127062334 ], [ 4.887890159419207, 44.265788390965625 ], [ 4.913302008501893, 44.276126674158135 ], [ 4.944109683560062, 44.288779240746692 ], [ 4.954073978151221, 44.290779358252358 ], [ 4.955248141804581, 44.291011116072632 ], [ 4.957715749211364, 44.289264732002799 ], [ 4.977358316603778, 44.258922556064782 ], [ 4.977841690176722, 44.232821796335088 ], [ 4.983136834771774, 44.221162162036535 ], [ 5.000000000302123, 44.218472033815033 ], [ 5.021928958857379, 44.21496854818497 ], [ 5.032372364515414, 44.201046651724823 ], [ 5.070240680925811, 44.199820462826864 ], [ 5.085971609872028, 44.183296673547019 ], [ 5.144331819334948, 44.180391618862451 ], [ 5.156442659857032, 44.165735036565295 ], [ 5.187224379891733, 44.123585008204522 ], [ 5.192951959091516, 44.112995415057135 ], [ 5.200125057839172, 44.102627919254346 ], [ 5.218325038683169, 44.07484456558975 ], [ 5.217328881593258, 44.000000000164377 ], [ 5.217062682028467, 43.980152641724075 ], [ 5.175508457633123, 43.949104670760306 ], [ 5.128074332105125, 43.921544549680704 ], [ 5.139987713944651, 43.891864880314834 ], [ 5.16032602742295, 43.87344828010783 ], [ 5.129566247840793, 43.851694834714642 ], [ 5.099442726109757, 43.870970850493521 ], [ 5.068397726933307, 43.860448661360174 ], [ 5.051630246353763, 43.818639086227165 ], [ 5.048849250880338, 43.806118645640936 ], [ 5.047133611519809, 43.807421747112926 ], [ 5.000000000302123, 43.842059319238018 ], [ 4.951058369675025, 43.877952432488279 ], [ 4.894855141871748, 43.904005441279232 ], [ 4.755841137318532, 43.934691447959409 ], [ 4.757906462971386, 43.936780538724889 ] ] ], [ [ [ 13.651265986493573, 41.469682474745007 ], [ 13.648132847835512, 41.471543622296601 ], [ 13.657274137404379, 41.487735282660232 ], [ 13.692784533399102, 41.495444163922599 ], [ 13.723372696134442, 41.487735282660232 ], [ 13.743413217197757, 41.470772488639639 ], [ 13.754312447793888, 41.455090778214029 ], [ 13.790174431814403, 41.432718448262442 ], [ 13.836584058405256, 41.427059846737365 ], [ 13.817246713393523, 41.40158998952468 ], [ 13.786306962632393, 41.387435720642763 ], [ 13.775798946545864, 41.391831198719998 ], [ 13.772243439804145, 41.389494716668089 ], [ 13.732162398575833, 41.410081059956873 ], [ 13.693487709450681, 41.429889209954759 ], [ 13.670656458769523, 41.447216347272828 ], [ 13.651265986493573, 41.469682474745007 ] ] ], [ [ [ 14.792969556949357, 41.211793896770729 ], [ 14.794595651344057, 41.193483913558275 ], [ 14.794595651344057, 41.192483571878284 ], [ 14.818152052665274, 41.179445454292058 ], [ 14.81783679161126, 41.178632799738971 ], [ 14.811515828453901, 41.161336204712164 ], [ 14.795720956527427, 41.131725125512624 ], [ 14.803725814379813, 41.110006215759576 ], [ 14.797078742113071, 41.085842878133299 ], [ 14.760975041212534, 41.099336017542626 ], [ 14.741483877674701, 41.079329621003104 ], [ 14.72302550362576, 41.109013807034586 ], [ 14.721399408332744, 41.142107767025429 ], [ 14.718323012657921, 41.158414365046987 ], [ 14.718323012657921, 41.159415231105804 ], [ 14.729090397519803, 41.18341525723207 ], [ 14.729090397519803, 41.184415738521906 ], [ 14.739000786905688, 41.198533790383323 ], [ 14.762864827974054, 41.19938884197974 ], [ 14.762864827974054, 41.200389077334115 ], [ 14.765479763579002, 41.217277820794749 ], [ 14.792969556949357, 41.211793896770729 ] ] ], [ [ [ 4.96514213424156, 44.390666630041096 ], [ 4.964900447005943, 44.370947336342375 ], [ 4.93455773454897, 44.355646606949485 ], [ 4.931943119642551, 44.338941533547384 ], [ 4.942599322716692, 44.316596238235761 ], [ 4.931865599525127, 44.314804675035063 ], [ 4.883847394789286, 44.306789292798783 ], [ 4.851285555221304, 44.312635010867368 ], [ 4.859041513264655, 44.334080390745449 ], [ 4.859580450332859, 44.361593397945533 ], [ 4.859766574073207, 44.371092118768942 ], [ 4.887209041499437, 44.392499894489497 ], [ 4.96514213424156, 44.390666630041096 ] ] ] ] } }
]
}
