{
"type": "FeatureCollection",
"name": "Sultnate of Funj",
"crs": { "type": "name", "properties": { "name": "urn:ogc:def:crs:OGC:1.3:CRS84" } },
"features": [
{ "type": "Feature", "properties": { "OBJECTID": 29.0, "YEAR": 1700.0, "OWNER_ID": 73.0, "SHORT_NAME": "Funj", "LONG_NAME": "Sultanate of Funj", "VARIANTS": null, "SHAPE_LENG": 581652.5, "Shape__Are": 17268792270.261719, "Shape__Len": 583962.58883250854 }, "geometry": { "type": "MultiPolygon", "coordinates": [ [ [ [ 29.945849121701411, 19.96030580505651 ], [ 29.956722843736735, 20.000000000030731 ], [ 30.000000000016104, 20.157881458681977 ], [ 30.05116925941002, 20.344346533091805 ], [ 30.027121049335371, 20.499999999651138 ], [ 30.007180144250544, 20.629373743170117 ], [ 30.109821413255439, 20.928610678581251 ], [ 30.207892571524329, 20.99999999958332 ], [ 30.50000000004632, 21.213150589627269 ], [ 30.520386487478373, 21.228015017929938 ], [ 30.872299408754216, 21.498594634823053 ], [ 31.000000000076529, 21.431858800158494 ], [ 31.062918908078068, 21.39896626110626 ], [ 31.000000000076529, 21.174785124127869 ], [ 30.974940677759108, 21.085402305239995 ], [ 30.943035203931561, 20.99999999958332 ], [ 30.857636370068285, 20.771942338939947 ], [ 30.817697834881692, 20.499999999651138 ], [ 30.784321178435256, 20.273113020398437 ], [ 30.842973332280668, 20.0534453597766 ], [ 30.842973332280668, 20.000000000030731 ], [ 30.842973332280668, 19.830729850380362 ], [ 30.798037398201615, 19.670066605830318 ], [ 30.50000000004632, 19.670066605830318 ], [ 30.029918631302202, 19.670066605830318 ], [ 30.007180144250544, 19.773556617165678 ], [ 30.000000000016104, 19.795431247423124 ], [ 29.945849121701411, 19.96030580505651 ] ] ] ] } }
]
}
