{
"type": "FeatureCollection",
"name": "Svaneti",
"crs": { "type": "name", "properties": { "name": "urn:ogc:def:crs:OGC:1.3:CRS84" } },
"features": [
{ "type": "Feature", "properties": { "OBJECTID": 76.0, "YEAR": 1700.0, "OWNER_ID": 8078.0, "SHORT_NAME": "Svaneti", "LONG_NAME": "Principality of Svaneti", "VARIANTS": null, "SHAPE_LENG": 311400.0, "Shape__Are": 4116184316.1699219, "Shape__Len": 311793.73052907194 }, "geometry": { "type": "MultiPolygon", "coordinates": [ [ [ [ 42.308920360104516, 42.939405032273697 ], [ 42.307763657005331, 42.939565738995434 ], [ 42.290026706486344, 42.951205432475014 ], [ 42.258178215492222, 42.972100116170225 ], [ 42.258419731149615, 43.00000000005209 ], [ 42.258461934899977, 43.004914136834536 ], [ 42.239801920510786, 43.00718007476425 ], [ 42.180532200958687, 43.00000000005209 ], [ 42.11607838475031, 42.992254701241109 ], [ 42.103783906126246, 43.00000000005209 ], [ 42.073695053975271, 43.019107229772061 ], [ 42.073564106556304, 43.047709944811672 ], [ 42.045715944676395, 43.062281163510391 ], [ 42.077623478340882, 43.086709641272087 ], [ 42.11972308970816, 43.131660842475704 ], [ 42.176056580414162, 43.171915364100954 ], [ 42.173913518149867, 43.215205508191552 ], [ 42.173869869010211, 43.216382961762164 ], [ 42.20152160976167, 43.230462242314374 ], [ 42.242682764626359, 43.225963034311242 ], [ 42.290871433670503, 43.234670875630961 ], [ 42.328933498721341, 43.261834511166768 ], [ 42.370029179876546, 43.269666978255373 ], [ 42.413001774036928, 43.294479203037469 ], [ 42.469396484929547, 43.28170379106971 ], [ 42.472997540747755, 43.257563293692264 ], [ 42.477777123336637, 43.23355827666839 ], [ 42.49999999987309, 43.216684314933445 ], [ 42.537161801193967, 43.188456629131778 ], [ 42.558877256257347, 43.176966151314993 ], [ 42.607065925301498, 43.165521923633079 ], [ 42.678192226217689, 43.148650260435595 ], [ 42.709030355960621, 43.134164334656596 ], [ 42.786529433961448, 43.145662922537802 ], [ 42.904403981414852, 43.135117249800764 ], [ 42.967324241380886, 43.080049771552133 ], [ 42.999999999903309, 43.059877125451742 ], [ 43.08792686185938, 43.005561556167585 ], [ 43.089396974584773, 43.00000000005209 ], [ 43.090305740868907, 42.996589877462448 ], [ 43.094212339766379, 42.981897199931581 ], [ 43.080921172249738, 42.929922596510103 ], [ 43.074024604590932, 42.885624976500509 ], [ 43.022453126325175, 42.89911864540877 ], [ 42.999999999903309, 42.899124352303978 ], [ 42.959183673241895, 42.899134726554522 ], [ 42.82827985221148, 42.927029357261183 ], [ 42.764246539184235, 42.90834859573058 ], [ 42.724023840822127, 42.905872404453852 ], [ 42.652875715336108, 42.91378300310393 ], [ 42.589147946286445, 42.925791651799088 ], [ 42.568458246004965, 42.929456472872495 ], [ 42.536026922664611, 42.935210441522749 ], [ 42.49999999987309, 42.934075600168256 ], [ 42.498270402489673, 42.93402111758477 ], [ 42.458396897244818, 42.902576019659911 ], [ 42.370705741541201, 42.873624532990881 ], [ 42.363235163890579, 42.881456352184465 ], [ 42.357963839921887, 42.886981969374858 ], [ 42.329173568989447, 42.918027292862234 ], [ 42.319124636928862, 42.928137498380565 ], [ 42.308920360104516, 42.939405032273697 ] ] ] ] } }
]
}
