{
"type": "FeatureCollection",
"name": "Swiss",
"crs": { "type": "name", "properties": { "name": "urn:ogc:def:crs:OGC:1.3:CRS84" } },
"features": [
{ "type": "Feature", "properties": { "OBJECTID": 50.0, "YEAR": 1700.0, "OWNER_ID": 5666.0, "SHORT_NAME": "Swiss Cantons", "LONG_NAME": "Swiss Confederation", "VARIANTS": null, "SHAPE_LENG": 2548250.0, "Shape__Are": 90083405662.399902, "Shape__Len": 2552177.7322442415 }, "geometry": { "type": "MultiPolygon", "coordinates": [ [ [ [ 6.339070624302921, 46.708921757319722 ], [ 6.343654758638817, 46.711373403453166 ], [ 6.373099454052382, 46.727707142627352 ], [ 6.427225257692522, 46.756310120686592 ], [ 6.450188107071244, 46.770385666145515 ], [ 6.458226375963991, 46.775312011787882 ], [ 6.459475875032032, 46.77758295421085 ], [ 6.466106173057465, 46.789631796169978 ], [ 6.442122468308439, 46.811810513354203 ], [ 6.446179479320424, 46.824761559310076 ], [ 6.451644397419356, 46.842202054105414 ], [ 6.468782079117377, 46.848860847296386 ], [ 6.474637442768011, 46.851135740433314 ], [ 6.474769081889773, 46.853754452506593 ], [ 6.475207881058265, 46.873914235353723 ], [ 6.47637473961176, 46.88590112754062 ], [ 6.47809066822983, 46.920234102266967 ], [ 6.457478329063968, 46.938277200622835 ], [ 6.459957290277629, 46.942517527001904 ], [ 6.476396734861493, 46.968548175351401 ], [ 6.500000000392768, 46.971705004357148 ], [ 6.511079405187131, 46.973186759245614 ], [ 6.567223940662977, 46.980694871542745 ], [ 6.60682943983102, 46.988657079324931 ], [ 6.608449066355676, 46.988995891760553 ], [ 6.609525841852481, 46.990566617633768 ], [ 6.61599335077537, 47.000000000202057 ], [ 6.617949055912455, 47.002879207852665 ], [ 6.638016053022137, 47.01835951092081 ], [ 6.641029860376152, 47.020684065234292 ], [ 6.642390136091762, 47.021416044888376 ], [ 6.654331935236978, 47.02491598289113 ], [ 6.671767700404161, 47.030462481041866 ], [ 6.685458215776965, 47.047087504263729 ], [ 6.682167226055513, 47.069470363740926 ], [ 6.719048245459592, 47.080175682389303 ], [ 6.733309199122649, 47.095805654223149 ], [ 6.761017176207551, 47.101258498347207 ], [ 6.766776963603531, 47.106751777018602 ], [ 6.778900370658153, 47.118679376166313 ], [ 6.789342193484665, 47.123099240727477 ], [ 6.796298734468483, 47.126043632319053 ], [ 6.817426227805364, 47.129363589285163 ], [ 6.83423287043971, 47.132004421779975 ], [ 6.844845802564884, 47.136511505319142 ], [ 6.859288268915954, 47.142857760684315 ], [ 6.860341385483093, 47.143091455326747 ], [ 6.878573465827147, 47.149868153377646 ], [ 6.882124103700006, 47.147833705549118 ], [ 6.889806708910537, 47.142784730628414 ], [ 6.909869844162795, 47.139435276675471 ], [ 6.911329778976033, 47.139191538496036 ], [ 6.9281357640436, 47.157096646589643 ], [ 6.95093134981133, 47.164294950222676 ], [ 6.974780052146208, 47.176207228010242 ], [ 6.988097588809703, 47.182031002797217 ], [ 6.987768490107059, 47.193662032451449 ], [ 6.990545068564223, 47.195427362938041 ], [ 7.000000000422981, 47.201438301222225 ], [ 7.019164527540328, 47.213619979568193 ], [ 7.047072116569568, 47.224179461362674 ], [ 7.083338818575036, 47.228773050564392 ], [ 7.102322917270964, 47.234533809503489 ], [ 7.149794861872397, 47.247230863964106 ], [ 7.176694762138379, 47.251228286279826 ], [ 7.197887184805692, 47.25227429088546 ], [ 7.234570745527187, 47.245437852884088 ], [ 7.263331686465587, 47.250415886557448 ], [ 7.293018715003473, 47.255553716835756 ], [ 7.302518703661918, 47.272690857134059 ], [ 7.304845150703236, 47.273432549662253 ], [ 7.311073163381532, 47.275418046560773 ], [ 7.336470838845655, 47.283514073427376 ], [ 7.33775422865442, 47.283923146658587 ], [ 7.367022093399243, 47.291963468199228 ], [ 7.377992057340846, 47.331433500328771 ], [ 7.397299194704512, 47.339815787792126 ], [ 7.424576675749058, 47.335265848093051 ], [ 7.430626390809753, 47.334137165270512 ], [ 7.445391329889912, 47.313397259552879 ], [ 7.478169771239202, 47.337589373512834 ], [ 7.495304855009421, 47.353856029725733 ], [ 7.499999999554868, 47.354790675394014 ], [ 7.505024243701293, 47.355790815069582 ], [ 7.519197437350982, 47.350175376242831 ], [ 7.518293516579508, 47.341601014800126 ], [ 7.516060027203765, 47.335464732488518 ], [ 7.517887106168558, 47.333345923145522 ], [ 7.525823295902301, 47.32414156771943 ], [ 7.545914236707576, 47.326986751940183 ], [ 7.562002237894394, 47.329264947662459 ], [ 7.564009273665127, 47.331298960153426 ], [ 7.578215845117523, 47.345694232593168 ], [ 7.580629237400281, 47.359034693427574 ], [ 7.564920248008203, 47.371310156423895 ], [ 7.558375573802407, 47.371062907925385 ], [ 7.543748217097868, 47.370510302533773 ], [ 7.531647716184676, 47.382640238816428 ], [ 7.530562320454432, 47.383728137719437 ], [ 7.521559846648096, 47.382406043207851 ], [ 7.511496522678341, 47.382172416416921 ], [ 7.501087783007129, 47.383230040473386 ], [ 7.499999999554868, 47.383505457454312 ], [ 7.488152438174533, 47.386505058917869 ], [ 7.476981199506999, 47.393206327884968 ], [ 7.474944601976913, 47.39442792485498 ], [ 7.473277167112827, 47.40519819319762 ], [ 7.480385703941032, 47.411403535933111 ], [ 7.481757452041143, 47.41153120441755 ], [ 7.487330210194997, 47.412049857939536 ], [ 7.494229798888097, 47.412275422478345 ], [ 7.49772355633548, 47.408393121084643 ], [ 7.498617784285075, 47.405183660112769 ], [ 7.499999999554868, 47.403790604649366 ], [ 7.50526558239057, 47.39848338750884 ], [ 7.506571563032082, 47.398559831635531 ], [ 7.514199798608356, 47.399006339226631 ], [ 7.521654709640416, 47.399442698011867 ], [ 7.538655131457978, 47.407790439459895 ], [ 7.532605765841919, 47.421553517151253 ], [ 7.539623510842683, 47.423652205584915 ], [ 7.561080760449014, 47.427400335450322 ], [ 7.5574286533732, 47.434548017048535 ], [ 7.552745120451108, 47.446254778376378 ], [ 7.561165125728921, 47.448514523276785 ], [ 7.565073827582446, 47.448925091531805 ], [ 7.571510706649137, 47.443347666403469 ], [ 7.573345180545333, 47.440095494113613 ], [ 7.57506280248772, 47.440269592311644 ], [ 7.583794771104126, 47.441154657433415 ], [ 7.585176420435271, 47.441442929484865 ], [ 7.589281631452159, 47.444563246821126 ], [ 7.597084183312696, 47.450493350294899 ], [ 7.598582035115752, 47.452236589785727 ], [ 7.60353452273556, 47.458000014575084 ], [ 7.593771254037033, 47.475317853762213 ], [ 7.581012941095794, 47.475847256077969 ], [ 7.575583053699671, 47.476072565645282 ], [ 7.57759961340903, 47.485823298564348 ], [ 7.579685820400691, 47.495908881150434 ], [ 7.60632179922946, 47.494060454446107 ], [ 7.612104773041255, 47.49368302589815 ], [ 7.613292672833634, 47.49567566288637 ], [ 7.615870758647313, 47.500000000208502 ], [ 7.618673072939051, 47.504745289623351 ], [ 7.607527809956283, 47.514605323533495 ], [ 7.591555321335201, 47.517572985939019 ], [ 7.589895521252715, 47.51758776590755 ], [ 7.585741240661747, 47.518290423916511 ], [ 7.561717019198423, 47.518510045429068 ], [ 7.556012637194232, 47.527630856031337 ], [ 7.555222799768875, 47.535462060370229 ], [ 7.539426353994015, 47.544141954058432 ], [ 7.535953027829408, 47.546050296595503 ], [ 7.535652384161724, 47.546774973976433 ], [ 7.542584233153325, 47.553283158705142 ], [ 7.546600407650819, 47.557178345392217 ], [ 7.547543824650418, 47.557939129224444 ], [ 7.560839421759701, 47.56212324163883 ], [ 7.588361543700518, 47.55853455095879 ], [ 7.589656940391361, 47.558471979224585 ], [ 7.58973430779518, 47.563556880909189 ], [ 7.598849264809026, 47.570359285223319 ], [ 7.60344590221875, 47.574144802063877 ], [ 7.637409772012455, 47.578008102754701 ], [ 7.658559863368651, 47.578739333565494 ], [ 7.667980983538394, 47.58131106953801 ], [ 7.672754459379976, 47.575569603089207 ], [ 7.673452992938177, 47.573685779038726 ], [ 7.665558700629295, 47.562532856626298 ], [ 7.66862718753634, 47.556362689334676 ], [ 7.669793106452039, 47.554018046915139 ], [ 7.653491739215533, 47.549540630096139 ], [ 7.641797757409468, 47.542911590053819 ], [ 7.652145149333297, 47.529162951373571 ], [ 7.653730657843463, 47.527055956760378 ], [ 7.657682265929918, 47.521804262601854 ], [ 7.658838831586873, 47.52175033499713 ], [ 7.676835823719342, 47.520911184391458 ], [ 7.697349656326083, 47.530265784711922 ], [ 7.714638320568836, 47.512374927614729 ], [ 7.731290726062169, 47.506898102705698 ], [ 7.754854208802789, 47.506619852712319 ], [ 7.767394323656445, 47.509144345378374 ], [ 7.776750257577612, 47.511027740495337 ], [ 7.786259207829342, 47.508048626106664 ], [ 7.797176331069313, 47.504628127269996 ], [ 7.800332011152797, 47.500000000208502 ], [ 7.810739855203671, 47.484878536456478 ], [ 7.831643959088968, 47.485447506322799 ], [ 7.836062103624964, 47.491123860460853 ], [ 7.842971738177904, 47.500000000208502 ], [ 7.845795212286178, 47.50366152690269 ], [ 7.868590798053915, 47.501728272445099 ], [ 7.871382673023745, 47.500000000208502 ], [ 7.881110642423201, 47.494035020602865 ], [ 7.882171613859195, 47.49338441411215 ], [ 7.906788214065244, 47.484823529999638 ], [ 7.913669254344376, 47.483565305109309 ], [ 7.930834375082743, 47.480426462559443 ], [ 7.951432166930876, 47.459506594770026 ], [ 7.952759985616954, 47.458157725922987 ], [ 7.954378070632565, 47.4565139433521 ], [ 7.960804318137841, 47.449985123452727 ], [ 7.970765045518998, 47.450507871407034 ], [ 7.97689049304973, 47.438625945611186 ], [ 7.9735083000724, 47.428199910936257 ], [ 7.986386273999368, 47.424058992353828 ], [ 7.988799701316402, 47.426686925987177 ], [ 7.997553698420232, 47.433864502604372 ], [ 7.999999999585081, 47.434133551939496 ], [ 8.011024813759628, 47.43534606433311 ], [ 8.014185894514592, 47.443799029285429 ], [ 8.016114877466892, 47.448591103959444 ], [ 8.034277527920933, 47.45371816962831 ], [ 8.045119463069957, 47.444190986002873 ], [ 8.083602097777254, 47.45714340923201 ], [ 8.076405800935682, 47.475114659816327 ], [ 8.089657518038274, 47.487362921954428 ], [ 8.106286089430489, 47.497575422043589 ], [ 8.106286089430489, 47.500000000208502 ], [ 8.106286089430489, 47.514436908914718 ], [ 8.151407910094642, 47.52493013188797 ], [ 8.190142390186798, 47.539838239465205 ], [ 8.18585845036098, 47.546600506900546 ], [ 8.176912613536679, 47.560718821716378 ], [ 8.177047766867815, 47.565952226477705 ], [ 8.177504991381108, 47.583652935615191 ], [ 8.200980715006686, 47.589896636075387 ], [ 8.20181911176304, 47.590624789537131 ], [ 8.213859452501653, 47.601080782757322 ], [ 8.229205516230714, 47.607454472983079 ], [ 8.233057886529409, 47.60863415878989 ], [ 8.23729808379081, 47.606343756901047 ], [ 8.244794752110552, 47.602294081554525 ], [ 8.266032602581756, 47.605188342264526 ], [ 8.266763603050947, 47.604539275041539 ], [ 8.268155472515117, 47.600109446965426 ], [ 8.269474531728832, 47.595911000189922 ], [ 8.270737876530339, 47.59188956945119 ], [ 8.270574167552969, 47.590028228295715 ], [ 8.271490040409317, 47.589495163436105 ], [ 8.27175892414016, 47.588639183055037 ], [ 8.291329340645609, 47.576179981687126 ], [ 8.310658417563486, 47.564478485787482 ], [ 8.344928585103926, 47.558685271662604 ], [ 8.366627175196156, 47.570154039639291 ], [ 8.438853419160289, 47.555525065238449 ], [ 8.457211342695855, 47.56109793111164 ], [ 8.460552506020889, 47.562112134666783 ], [ 8.473408806294985, 47.566014456653342 ], [ 8.490330532998716, 47.569262284729824 ], [ 8.498573904338826, 47.570373443249728 ], [ 8.499473441331723, 47.57101702110932 ], [ 8.499999999615302, 47.572001021518076 ], [ 8.506494219044859, 47.584135496909404 ], [ 8.499999999615302, 47.58627993178353 ], [ 8.480012725292129, 47.592879310314359 ], [ 8.484571105827138, 47.607718310613919 ], [ 8.486911450704252, 47.608557362096477 ], [ 8.490029096118588, 47.609675067317674 ], [ 8.499999999615302, 47.612987953197681 ], [ 8.511321002712068, 47.616749161278612 ], [ 8.519392387997737, 47.626744822878273 ], [ 8.531396037946903, 47.623193456989867 ], [ 8.573824081466892, 47.610550201872272 ], [ 8.573462694617964, 47.606617153343088 ], [ 8.573071822366476, 47.602362880405416 ], [ 8.572176632321229, 47.592618260764191 ], [ 8.571721625748372, 47.589224048889697 ], [ 8.570800149201283, 47.585436926495326 ], [ 8.572709850714343, 47.584603306137652 ], [ 8.575179057122325, 47.579770577365679 ], [ 8.583294929675827, 47.585447462664341 ], [ 8.586311679012407, 47.587060012881544 ], [ 8.589163869565359, 47.592148278821192 ], [ 8.590072475051059, 47.595434399748967 ], [ 8.592169639692544, 47.599487371484017 ], [ 8.586827080220159, 47.624498638387273 ], [ 8.586711465246452, 47.629317187149262 ], [ 8.596360165508596, 47.632120627868296 ], [ 8.601027500907803, 47.620262016714058 ], [ 8.602459465776345, 47.616208446729594 ], [ 8.603007964512424, 47.615229301580989 ], [ 8.60529337830822, 47.616323637527344 ], [ 8.613604949744692, 47.616661478039809 ], [ 8.613837181313636, 47.62041450463736 ], [ 8.613978575241042, 47.622699404251748 ], [ 8.61443866717674, 47.630133698383254 ], [ 8.606909686456198, 47.640983580315549 ], [ 8.604280480214666, 47.646611229607004 ], [ 8.605147134376587, 47.651612880385528 ], [ 8.607235171236491, 47.659680742212586 ], [ 8.588001053430659, 47.658367263517313 ], [ 8.576070979096567, 47.658817406732894 ], [ 8.557680072118707, 47.66388656967824 ], [ 8.556034577707138, 47.66353615528358 ], [ 8.550387322266781, 47.661931592887363 ], [ 8.542102722746723, 47.659710640869733 ], [ 8.53611667218852, 47.640589973913308 ], [ 8.526386344711462, 47.641387148208416 ], [ 8.521618150963739, 47.642144162168464 ], [ 8.517274285423607, 47.642833798601451 ], [ 8.509960727894747, 47.644318127444791 ], [ 8.499999999615302, 47.640755672517258 ], [ 8.493913693478129, 47.638578784661476 ], [ 8.492961431666252, 47.641811880851009 ], [ 8.492386844956034, 47.644288915020546 ], [ 8.491260259673375, 47.647587160990476 ], [ 8.488922297128402, 47.654431226864347 ], [ 8.488415717376752, 47.655914050317499 ], [ 8.47055477239909, 47.662713862131071 ], [ 8.450307254341494, 47.671842728751912 ], [ 8.43410486617794, 47.691473997652352 ], [ 8.433140171682531, 47.692642614916807 ], [ 8.433595858280095, 47.693998163768569 ], [ 8.435819987210586, 47.700613847963169 ], [ 8.440806072720335, 47.710237234939434 ], [ 8.441677299307079, 47.723068584823601 ], [ 8.442122468429259, 47.725245612599288 ], [ 8.459038153962675, 47.742261512030787 ], [ 8.460463010462394, 47.745195579418557 ], [ 8.462570482373442, 47.747261693879715 ], [ 8.46899186280651, 47.762754717929717 ], [ 8.469911203159862, 47.764647093784561 ], [ 8.473126460411313, 47.771264854127637 ], [ 8.499999999615302, 47.776606374662286 ], [ 8.504497685478119, 47.777500303685663 ], [ 8.506671792620331, 47.780322402883947 ], [ 8.514897211129471, 47.787959472948927 ], [ 8.533514087520405, 47.798221886738098 ], [ 8.559040347834323, 47.798926216538 ], [ 8.560138349622932, 47.80289981932529 ], [ 8.562923714501906, 47.812569496900522 ], [ 8.584885582837634, 47.818378081031405 ], [ 8.5891833962447, 47.8187426782956 ], [ 8.606386713348945, 47.818538207895884 ], [ 8.617102959816641, 47.814307453557312 ], [ 8.626220408097884, 47.809497524848126 ], [ 8.627711751606697, 47.799073226577519 ], [ 8.629499412496825, 47.78657493288712 ], [ 8.629643036941088, 47.785570657111698 ], [ 8.640437481754249, 47.789124709210505 ], [ 8.642040016932327, 47.792410993212407 ], [ 8.646207683319354, 47.800120329469912 ], [ 8.649553089387474, 47.803191164917223 ], [ 8.657353167287701, 47.809424727606398 ], [ 8.677274622049978, 47.806527293096849 ], [ 8.693197283817222, 47.799313307696778 ], [ 8.697896405204412, 47.797107607103669 ], [ 8.70047817860234, 47.795895719487923 ], [ 8.701608841338059, 47.795364975871664 ], [ 8.702990508635519, 47.791982818181459 ], [ 8.712851623631432, 47.767837543612572 ], [ 8.714111762345699, 47.764751238564628 ], [ 8.744081704502527, 47.75915522796528 ], [ 8.762072445258935, 47.751605482685051 ], [ 8.750589157912858, 47.726783635812055 ], [ 8.748623269473741, 47.72253305015078 ], [ 8.734405164551402, 47.710865594634484 ], [ 8.722317294849395, 47.700944154922425 ], [ 8.741492793091359, 47.684250356773056 ], [ 8.74105435414727, 47.672704309420915 ], [ 8.739920894057732, 47.663453085399254 ], [ 8.750115184311085, 47.662703910853061 ], [ 8.773106903746388, 47.649408793346794 ], [ 8.77465032888043, 47.653202641003524 ], [ 8.780370346062179, 47.666310206571929 ], [ 8.766504311560929, 47.686351969348451 ], [ 8.766820171791249, 47.687214195796372 ], [ 8.771855432876281, 47.699321281442792 ], [ 8.774389950398708, 47.700313115796185 ], [ 8.78221283652397, 47.703374330118926 ], [ 8.795351222170352, 47.707762984807687 ], [ 8.796442765970401, 47.705022162563402 ], [ 8.797426416714927, 47.702552131256923 ], [ 8.799896882560937, 47.696348059413424 ], [ 8.799962702121803, 47.695589299754566 ], [ 8.846738629346172, 47.686278998007673 ], [ 8.866747844121845, 47.682425970311961 ], [ 8.868634678121031, 47.681477264250013 ], [ 8.860560784739063, 47.658673906937594 ], [ 8.87459444487232, 47.640763030762244 ], [ 8.857555014611869, 47.640827159766012 ], [ 8.822824107450428, 47.645150666734345 ], [ 8.819390584737754, 47.642555412934477 ], [ 8.817799864202328, 47.641353011088668 ], [ 8.854966103200709, 47.635349226790389 ], [ 8.896937186312071, 47.632354379745983 ], [ 8.968571052431777, 47.642477730224051 ], [ 8.999133372433034, 47.651138712967935 ], [ 8.999999999645505, 47.651064512685743 ], [ 9.021819258633229, 47.649196324988218 ], [ 9.055826147930182, 47.640359731830145 ], [ 9.092816867800137, 47.636021217995335 ], [ 9.141413808564502, 47.634005218903198 ], [ 9.153943921575801, 47.635544397490619 ], [ 9.158784589604014, 47.630207833243645 ], [ 9.167139113087481, 47.621355858595109 ], [ 9.187005926025991, 47.619149215274042 ], [ 9.204008424748471, 47.617260642573726 ], [ 9.223365903700669, 47.622714821853826 ], [ 9.225531494813978, 47.623324964957128 ], [ 9.231850194216818, 47.620621679878028 ], [ 9.282904408168932, 47.607322390853632 ], [ 9.32072884457261, 47.601972487018521 ], [ 9.359650277550109, 47.58357982044803 ], [ 9.402345378525968, 47.562635260325685 ], [ 9.406843063490498, 47.548296834459194 ], [ 9.411318808900845, 47.539955322727778 ], [ 9.436132867789505, 47.521716419292304 ], [ 9.444705193203497, 47.517832628244754 ], [ 9.46298734025158, 47.509548723231546 ], [ 9.474000022678204, 47.500000000208502 ], [ 9.479573926184035, 47.495212488919286 ], [ 9.499999999675717, 47.492808896178083 ], [ 9.505836020801672, 47.492122134802919 ], [ 9.524726299449327, 47.49547363732318 ], [ 9.532392988309635, 47.500000000208502 ], [ 9.544998793366773, 47.507513175667349 ], [ 9.566235589215852, 47.500000000208502 ], [ 9.566775385073448, 47.499810837483672 ], [ 9.574266658111595, 47.497185577020097 ], [ 9.58086170624529, 47.500000000208502 ], [ 9.605882094679982, 47.510778800009035 ], [ 9.599251909842266, 47.507758844924005 ], [ 9.605463898372507, 47.500915747782862 ], [ 9.606295129267838, 47.500000000208502 ], [ 9.626472195152655, 47.477978535261443 ], [ 9.64759394645824, 47.470106478430779 ], [ 9.660031444062062, 47.464281461621255 ], [ 9.66106101488729, 47.463894240236954 ], [ 9.683776379303534, 47.458740827059472 ], [ 9.684967132145248, 47.458472731077237 ], [ 9.685665011729913, 47.454085317032991 ], [ 9.679534434818928, 47.421051600862668 ], [ 9.681742896232539, 47.418462202620795 ], [ 9.688944981817793, 47.408368136434625 ], [ 9.687599492371762, 47.398836677623009 ], [ 9.686862554936857, 47.396445328745678 ], [ 9.672815897079754, 47.39135254944231 ], [ 9.657113609119722, 47.385505489251834 ], [ 9.641625044738829, 47.370300696697832 ], [ 9.617510256925208, 47.346465365726594 ], [ 9.601110579860658, 47.300786967412876 ], [ 9.536727440403888, 47.258993250359119 ], [ 9.529695714922376, 47.243145074862511 ], [ 9.525099278158661, 47.232782999344408 ], [ 9.517134954986844, 47.216951037170901 ], [ 9.516017634029716, 47.214729579174268 ], [ 9.508753756929329, 47.200285249764931 ], [ 9.507156817357174, 47.197109179952577 ], [ 9.501623554533111, 47.186102885005397 ], [ 9.499999999675717, 47.180000007551719 ], [ 9.492452664577318, 47.151620606345986 ], [ 9.492887503073749, 47.147428405781895 ], [ 9.494449198144048, 47.132369644322765 ], [ 9.499999999675717, 47.119372756667509 ], [ 9.509988237962441, 47.095977814208041 ], [ 9.514473756144763, 47.085468247068746 ], [ 9.515157774724596, 47.08386540862525 ], [ 9.516188183677981, 47.081450793691374 ], [ 9.517069264783377, 47.079386019381637 ], [ 9.514436881200664, 47.069956539272702 ], [ 9.51421126482548, 47.069148280726949 ], [ 9.511540402805892, 47.063092943515791 ], [ 9.499999999675717, 47.05643397602924 ], [ 9.492880307568322, 47.052325400164627 ], [ 9.488700937031462, 47.049574955542731 ], [ 9.488334115375082, 47.04271479744817 ], [ 9.489616695801766, 47.037638423794746 ], [ 9.499999999675717, 47.040390167562251 ], [ 9.522181268044843, 47.04626808306206 ], [ 9.527174627213475, 47.044898951893003 ], [ 9.543901796792952, 47.04031226554855 ], [ 9.564918461379971, 47.049337263655012 ], [ 9.566017244702893, 47.049809062485984 ], [ 9.573966094393946, 47.051436586929348 ], [ 9.598817437858473, 47.056524568544795 ], [ 9.614241207656237, 47.058426408973716 ], [ 9.679117576102909, 47.060708527144719 ], [ 9.687403856370871, 47.057814712187728 ], [ 9.719289585228465, 47.046677795246175 ], [ 9.734823054593782, 47.035204655892223 ], [ 9.772814328806973, 47.028404938946927 ], [ 9.791252550949146, 47.041439093167163 ], [ 9.805100095426894, 47.038324501267383 ], [ 9.821507711801926, 47.034633861314973 ], [ 9.842943021854065, 47.00243986822511 ], [ 9.865556565826116, 47.009603139567851 ], [ 9.877887319319672, 47.013225478264062 ], [ 9.915542245425868, 47.01226557217079 ], [ 9.914927927128931, 47.000199177053716 ], [ 9.914931416185492, 47.000000000202057 ], [ 9.91576164456097, 46.95302511642528 ], [ 9.929825138643128, 46.936308861254957 ], [ 9.93117572513008, 46.936087757055361 ], [ 9.947925579865426, 46.933345571210303 ], [ 9.977608644137938, 46.935354892073882 ], [ 9.988053708984301, 46.93606192636117 ], [ 9.999999999705929, 46.927982899430475 ], [ 10.007548156762812, 46.922885581748702 ], [ 10.008118812445366, 46.912204912698314 ], [ 10.00855897256154, 46.903965214717445 ], [ 10.020701851498259, 46.902285653132964 ], [ 10.067600913493569, 46.893939179406743 ], [ 10.075741241782376, 46.883734587707849 ], [ 10.076371523141912, 46.882944394381241 ], [ 10.108166794345342, 46.860819603439701 ], [ 10.12176383821622, 46.851355276389313 ], [ 10.127659433815186, 46.847251080013848 ], [ 10.129414891899009, 46.847846707960912 ], [ 10.158796953177694, 46.857420434652909 ], [ 10.160378409387611, 46.858365057691785 ], [ 10.183967423146907, 46.874073271347577 ], [ 10.213083902003417, 46.889393576183124 ], [ 10.227276573823431, 46.894265830774316 ], [ 10.248690197646296, 46.901809076943607 ], [ 10.250939633016648, 46.915997336403407 ], [ 10.251923846106552, 46.923699210167356 ], [ 10.252757930051224, 46.924347680942319 ], [ 10.265042476003195, 46.933897569303078 ], [ 10.283962310122012, 46.939518905679812 ], [ 10.301967152631779, 46.930089487146489 ], [ 10.327022706516585, 46.939451678807721 ], [ 10.334063610983669, 46.957018231183937 ], [ 10.341323918179118, 46.95681937585303 ], [ 10.351027735473844, 46.95655359375926 ], [ 10.378781220312698, 46.995699615145696 ], [ 10.425652306075115, 46.999312310339157 ], [ 10.444550164707135, 46.970752257738852 ], [ 10.472916047244848, 46.963949681097617 ], [ 10.484775054060208, 46.960214297469363 ], [ 10.498808807618257, 46.944541667134558 ], [ 10.499573699726486, 46.943687317116456 ], [ 10.492080478242487, 46.923713739155296 ], [ 10.486514169094068, 46.908410321559572 ], [ 10.480622001466225, 46.89108579423015 ], [ 10.478596757743015, 46.885129741375543 ], [ 10.481025787898231, 46.871961121892589 ], [ 10.482180761740491, 46.865698464387521 ], [ 10.470738208500956, 46.856872981557856 ], [ 10.469600815587121, 46.856009352241266 ], [ 10.450188885253977, 46.820937505190052 ], [ 10.442145960393114, 46.806399473303394 ], [ 10.448354678157402, 46.797263941624635 ], [ 10.452372999628444, 46.791350534773287 ], [ 10.449234908558223, 46.781263706067129 ], [ 10.446989307197505, 46.774044457574142 ], [ 10.450663762560938, 46.751173149421156 ], [ 10.408653771617979, 46.720758940852832 ], [ 10.414463440665074, 46.706223329517094 ], [ 10.422221377696998, 46.686807070134925 ], [ 10.420571804035713, 46.685401291870349 ], [ 10.405194274118884, 46.672294681031801 ], [ 10.39013918279519, 46.666574921434432 ], [ 10.386479452615891, 46.665184417511142 ], [ 10.384560449048076, 46.664455283321963 ], [ 10.395397442564692, 46.634036992339773 ], [ 10.396620251787319, 46.632949920300142 ], [ 10.397674158871908, 46.632012982995171 ], [ 10.399408882042342, 46.630470756338333 ], [ 10.41749985681818, 46.61438464157051 ], [ 10.446165155924927, 46.618581970770194 ], [ 10.46238503518536, 46.620064845777499 ], [ 10.471669812654559, 46.616162170779539 ], [ 10.473951718529172, 46.615202972993472 ], [ 10.489883052632141, 46.606317565482101 ], [ 10.487213181454308, 46.581747188287075 ], [ 10.484345540776783, 46.555344296004293 ], [ 10.47414948623223, 46.538913204339643 ], [ 10.465730357710163, 46.530706609485783 ], [ 10.454526476960147, 46.519783627275174 ], [ 10.448418189946306, 46.510841889708473 ], [ 10.446723440009386, 46.508185666367005 ], [ 10.476259015285287, 46.503414921089764 ], [ 10.493548152940203, 46.502971796111609 ], [ 10.499683570872255, 46.502814543015411 ], [ 10.49999999973614, 46.502831829582689 ], [ 10.518965633561406, 46.50386791000237 ], [ 10.529700403290267, 46.503678499252104 ], [ 10.54211608261247, 46.499999999857828 ], [ 10.557476837389684, 46.495490521851529 ], [ 10.57088565007256, 46.486022233665935 ], [ 10.583888915625472, 46.473705654132246 ], [ 10.597274958710841, 46.459130755230504 ], [ 10.600223898718207, 46.455919382821911 ], [ 10.602849394019319, 46.430361635463228 ], [ 10.578790888353195, 46.416815175313403 ], [ 10.568964500429528, 46.413685412749864 ], [ 10.549480224274978, 46.407419596770566 ], [ 10.516120313323746, 46.401046068658751 ], [ 10.51121271451866, 46.395133207379423 ], [ 10.49999999973614, 46.38137933354519 ], [ 10.499261648352981, 46.380473526037285 ], [ 10.474523048846502, 46.36470880063731 ], [ 10.464498553656595, 46.356582334979009 ], [ 10.446274368605591, 46.34144673365401 ], [ 10.417496322845851, 46.329970327596143 ], [ 10.41440148745319, 46.328681963641444 ], [ 10.412925130538252, 46.327751178976797 ], [ 10.396151265631993, 46.316467513625781 ], [ 10.370851033121674, 46.270906233944672 ], [ 10.363434308574011, 46.250717953458413 ], [ 10.361904992379811, 46.245682898722023 ], [ 10.355186672931254, 46.236367241394319 ], [ 10.337674312911387, 46.211049160050429 ], [ 10.222518226509539, 46.159161194270418 ], [ 10.217490188777679, 46.125140096165453 ], [ 10.219762830326767, 46.11066710061958 ], [ 10.221753194264124, 46.097988610398779 ], [ 10.219989807649604, 46.086208305778818 ], [ 10.219138257760859, 46.080518619532249 ], [ 10.185095759246046, 46.06260757260204 ], [ 10.182726917113184, 46.061361017232514 ], [ 10.150220456885835, 46.052845778241284 ], [ 10.14816141405006, 46.052306356617237 ], [ 10.131704200789878, 46.053121977948017 ], [ 10.108607754860433, 46.054266619879037 ], [ 10.10028281918748, 46.061748154711317 ], [ 10.088896848132746, 46.071978958200653 ], [ 10.007570130452978, 46.068644619474561 ], [ 10.005707049706542, 46.068437426669171 ], [ 9.999999999705929, 46.06780274271113 ], [ 9.973551416631942, 46.064856681948413 ], [ 9.95660745842158, 46.064534820705454 ], [ 9.949180436485811, 46.064296290777918 ], [ 9.936138304423817, 46.061874986411809 ], [ 9.93166809263562, 46.060995349272126 ], [ 9.91347989229827, 46.053330383176416 ], [ 9.882215493986719, 46.026626293627295 ], [ 9.846946050405709, 46.03648795112349 ], [ 9.834792312633835, 46.042209675241338 ], [ 9.810961453535436, 46.040620367144527 ], [ 9.803067521450966, 46.04077460461825 ], [ 9.795706355906992, 46.040674995416246 ], [ 9.79340402413945, 46.040963417125937 ], [ 9.775499681550412, 46.043206306795206 ], [ 9.772088667025514, 46.042808540892537 ], [ 9.749239528192106, 46.039984631272176 ], [ 9.734947831485062, 46.040025746686176 ], [ 9.712356567528689, 46.04001654292189 ], [ 9.695460654812983, 46.04009275419736 ], [ 9.666940916019927, 46.040221395752639 ], [ 9.625584150307178, 46.030314425672401 ], [ 9.593727374151189, 46.017595177821349 ], [ 9.591738466382907, 46.016532069089877 ], [ 9.578372267980479, 46.009142594518721 ], [ 9.54339481100279, 46.013579178367543 ], [ 9.539293490589388, 46.014086168231735 ], [ 9.532335814135063, 46.017481536262366 ], [ 9.518795119785326, 46.024088836721049 ], [ 9.509938787502682, 46.050155837638492 ], [ 9.499999999675717, 46.051080136375923 ], [ 9.470139757086459, 46.053857018287211 ], [ 9.448243708311615, 46.065090693450422 ], [ 9.442337440727076, 46.067098720245617 ], [ 9.419765681890464, 46.074772041631356 ], [ 9.379856951906691, 46.079246528210511 ], [ 9.357043018049266, 46.102125294015387 ], [ 9.362392768535511, 46.104229675184115 ], [ 9.384442396884587, 46.107401091215046 ], [ 9.401906579357451, 46.114108688582832 ], [ 9.416255293033892, 46.119631975956587 ], [ 9.427817635718251, 46.141281394010988 ], [ 9.415186372405959, 46.151847556242807 ], [ 9.415369190346061, 46.151919418572248 ], [ 9.429913661295956, 46.179177923720943 ], [ 9.451008139749518, 46.184919380175153 ], [ 9.471851071957218, 46.209577164532931 ], [ 9.474571622490119, 46.229761991158327 ], [ 9.470907654957628, 46.237883401322911 ], [ 9.457302788557257, 46.225754258783056 ], [ 9.43096299415912, 46.222796571585185 ], [ 9.422461141579168, 46.22184186759123 ], [ 9.411647907603497, 46.220530985130608 ], [ 9.380098290595976, 46.209212485767083 ], [ 9.350803467409477, 46.214453658560863 ], [ 9.330470172818655, 46.225241472371998 ], [ 9.283057986844849, 46.220851836286023 ], [ 9.237642335336089, 46.212042330871299 ], [ 9.212946537857951, 46.177840838949649 ], [ 9.19643090176495, 46.171789544490906 ], [ 9.183011912966537, 46.166703406491159 ], [ 9.180577605209029, 46.164757350248394 ], [ 9.170703613761823, 46.156863087236047 ], [ 9.157759055807674, 46.15332948439773 ], [ 9.155696531101857, 46.152861331097725 ], [ 9.153630163403255, 46.15239230099872 ], [ 9.138781017146652, 46.149021683892357 ], [ 9.104620549173781, 46.121414505103601 ], [ 9.111290286833457, 46.092126916295349 ], [ 9.098236029311757, 46.075576306246205 ], [ 9.038537484585737, 46.06640698954682 ], [ 9.024605629625313, 46.043235569831687 ], [ 9.030575382947616, 46.027711300511584 ], [ 9.026843502779643, 46.02684583199089 ], [ 9.008699181550661, 46.018649128729692 ], [ 8.999999999645505, 46.013348288241055 ], [ 8.991498277321268, 46.008167275756222 ], [ 8.977500603698291, 46.005941820716096 ], [ 8.970523705991821, 46.010480482211115 ], [ 8.957228109780825, 46.008094071724031 ], [ 8.952159985627747, 46.002676680850598 ], [ 8.953288637933859, 46.000000000240469 ], [ 8.955648434930117, 45.994453827619957 ], [ 8.95768884760524, 45.982625348420157 ], [ 8.954595318362976, 45.971099204854916 ], [ 8.942616116962617, 45.951191326235801 ], [ 8.92686324846219, 45.938307630632224 ], [ 8.891232804307835, 45.916862015122966 ], [ 8.882566533081437, 45.928762746667743 ], [ 8.885682002776175, 45.952890529210968 ], [ 8.890245508199895, 45.96796321196711 ], [ 8.892000702179015, 45.983423669183146 ], [ 8.893810695187115, 46.000000000240469 ], [ 8.893843656171519, 46.000304574146988 ], [ 8.875216656665659, 46.000494932529371 ], [ 8.874448602487618, 46.000000000240469 ], [ 8.866945303702773, 45.995208441670499 ], [ 8.865920092401598, 45.992564109927194 ], [ 8.847937922471299, 46.000000000240469 ], [ 8.84671668979199, 46.000509575117427 ], [ 8.823899164470076, 46.004506940304346 ], [ 8.825347199300737, 46.020595956159596 ], [ 8.841999604794033, 46.029436321162201 ], [ 8.851499594350813, 46.047741890004694 ], [ 8.842416463510054, 46.065119944818029 ], [ 8.807510037220203, 46.065880474899032 ], [ 8.786413621100575, 46.088663821306092 ], [ 8.786689045465019, 46.089173905037718 ], [ 8.807137058510868, 46.106655751973101 ], [ 8.842526163077604, 46.122495683406804 ], [ 8.867735141128126, 46.13310178364474 ], [ 8.892724720043512, 46.142405994749986 ], [ 8.913808990940508, 46.150292155218963 ], [ 8.931624212568495, 46.157374126464305 ], [ 8.922321683490978, 46.172761475648912 ], [ 8.896959125866257, 46.177622042810619 ], [ 8.86723052239873, 46.168002663453237 ], [ 8.861372561718593, 46.156162225866076 ], [ 8.851170494749836, 46.148452152854738 ], [ 8.840025011679812, 46.144567500052062 ], [ 8.820827573883697, 46.149342955370692 ], [ 8.792086267422453, 46.140478093078777 ], [ 8.748601329919529, 46.108292562146325 ], [ 8.737719125093003, 46.089203143559097 ], [ 8.735987201971282, 46.089524149358631 ], [ 8.658055244699689, 46.10396660009102 ], [ 8.615689242426473, 46.117659437152298 ], [ 8.58644331813416, 46.149488987236879 ], [ 8.56981285219501, 46.180117842198079 ], [ 8.535235525506137, 46.203012570170557 ], [ 8.499999999615302, 46.227411857163261 ], [ 8.499912240500224, 46.227472614257806 ], [ 8.467243686466407, 46.240157762558866 ], [ 8.4505693414189, 46.246863659961718 ], [ 8.456822220362547, 46.263362486104349 ], [ 8.448463108284617, 46.280103977163911 ], [ 8.45824831653732, 46.303306251578441 ], [ 8.47895960872499, 46.307223298490484 ], [ 8.496994229488115, 46.346814772391035 ], [ 8.494668597218734, 46.412135790018944 ], [ 8.492694004104505, 46.425228332999431 ], [ 8.48345729368951, 46.459361587989989 ], [ 8.482426117574878, 46.463165749166478 ], [ 8.479113188299223, 46.46416756392415 ], [ 8.459235612645305, 46.468769866270719 ], [ 8.427466596502665, 46.472341098669986 ], [ 8.425864982097769, 46.472515299156889 ], [ 8.423844913568923, 46.470951466708208 ], [ 8.421367296234953, 46.471179748371583 ], [ 8.414698235904991, 46.463870014385371 ], [ 8.412108646265775, 46.461031386564763 ], [ 8.41050703186089, 46.460624831582543 ], [ 8.353814256363723, 46.431649933047858 ], [ 8.354972308732471, 46.431140667566609 ], [ 8.36922373576194, 46.42487305841194 ], [ 8.366958568196026, 46.418230318604728 ], [ 8.359859394508035, 46.408334710037856 ], [ 8.338744770435916, 46.401611908580747 ], [ 8.332679808269919, 46.399680697589211 ], [ 8.32952675575865, 46.398676672430128 ], [ 8.310680357117661, 46.388267547726279 ], [ 8.310268498424522, 46.38692951746016 ], [ 8.297648040048459, 46.345912640618586 ], [ 8.278801641407506, 46.343351669411568 ], [ 8.261907896326562, 46.314940076038809 ], [ 8.231266791379952, 46.297472521248061 ], [ 8.20819742246981, 46.285544439912591 ], [ 8.185402293944534, 46.291835541228423 ], [ 8.15274557162129, 46.300847022185764 ], [ 8.150957678067522, 46.301340340592908 ], [ 8.126885521602349, 46.286156524062939 ], [ 8.125770639571209, 46.285523096198851 ], [ 8.102580135539935, 46.249050187260281 ], [ 8.130628381878028, 46.238007589910005 ], [ 8.135424208702196, 46.23611924855647 ], [ 8.138292044314127, 46.235807118885738 ], [ 8.139439215389837, 46.235477723967243 ], [ 8.142220062641242, 46.23537959940861 ], [ 8.159327829541986, 46.233517574971899 ], [ 8.162081221583371, 46.170294535444356 ], [ 8.137003883552904, 46.135847932056777 ], [ 8.109272515236347, 46.129393169002938 ], [ 8.099947344122084, 46.12775516324028 ], [ 8.090844541973251, 46.10375985007893 ], [ 8.090030496747611, 46.101613483655775 ], [ 8.064031681271768, 46.100561126067937 ], [ 8.059957396555166, 46.095585119597281 ], [ 8.036540950958592, 46.066977374398874 ], [ 8.035845249788471, 46.05508635738309 ], [ 8.03526843525635, 46.045225419086826 ], [ 7.999999999585081, 46.019446375783886 ], [ 7.999550231088627, 46.019117544239734 ], [ 7.962691151238733, 46.021576662802893 ], [ 7.942296871819901, 46.019718361518343 ], [ 7.915783584892628, 46.017302410091879 ], [ 7.87832723497324, 46.000000000240469 ], [ 7.869161236344169, 45.995803418415299 ], [ 7.866812947664998, 45.985462620635651 ], [ 7.859770947253274, 45.960456428273709 ], [ 7.84763896667759, 45.954557761712081 ], [ 7.842117909263284, 45.952738322020515 ], [ 7.819840277715317, 45.945396215003996 ], [ 7.791471949963409, 45.958670330925095 ], [ 7.761567827367439, 45.95753765367769 ], [ 7.739320739437455, 45.958830065649302 ], [ 7.717227231980003, 45.976267396485767 ], [ 7.67362125547574, 46.000000000240469 ], [ 7.666853155885722, 46.003716275562134 ], [ 7.654094405464921, 46.000000000240469 ], [ 7.610248140401921, 45.987342531301664 ], [ 7.592103820071244, 45.999547272261076 ], [ 7.566797109809439, 46.000000000240469 ], [ 7.565337106724231, 46.000026357634283 ], [ 7.565279947821018, 46.000000000240469 ], [ 7.533963008845129, 45.985687934993528 ], [ 7.515884508075319, 45.983031767802075 ], [ 7.499999999554868, 45.977421459451122 ], [ 7.426413479875118, 45.951423699289741 ], [ 7.344994405502648, 45.906397711342002 ], [ 7.332971324095606, 45.919782945508096 ], [ 7.275225432929624, 45.932917952628308 ], [ 7.237357116519272, 45.926772204974029 ], [ 7.204491103802834, 45.899783829002416 ], [ 7.197228987400396, 45.885012384394827 ], [ 7.182638935034659, 45.874076642647566 ], [ 7.169080058783589, 45.880649980960108 ], [ 7.099267206203882, 45.871342368403639 ], [ 7.063461242921081, 45.892514911312233 ], [ 7.038734944045815, 45.922384041641955 ], [ 7.026887382665478, 45.938946802411756 ], [ 7.026029305617872, 45.94619167877093 ], [ 7.02298207464709, 45.971912210923065 ], [ 7.000000000422981, 45.97861974910564 ], [ 6.998957853183765, 45.978923890309538 ], [ 6.989479804079496, 45.991086961252066 ], [ 7.000000000422981, 45.994950457758904 ], [ 7.010542135422316, 45.998821739014481 ], [ 7.009702491804322, 46.000000000240469 ], [ 7.000000000422981, 46.013737925015789 ], [ 6.96567498175131, 46.062311743647697 ], [ 6.955933653505255, 46.065602590443206 ], [ 6.943164615577837, 46.055363751623226 ], [ 6.914686588258371, 46.05221858196937 ], [ 6.89952609760238, 46.067986502538872 ], [ 6.913896750833015, 46.0895393857462 ], [ 6.913962570393883, 46.121998928459725 ], [ 6.930812435468143, 46.135468153700224 ], [ 6.916507601798367, 46.142347574485548 ], [ 6.892044582064849, 46.143034008340969 ], [ 6.852728229925503, 46.135059158675837 ], [ 6.826839114915545, 46.166017269713386 ], [ 6.852311371209511, 46.177928550357237 ], [ 6.86246955817156, 46.221362277105129 ], [ 6.875721275274195, 46.237737605660165 ], [ 6.871113889843781, 46.268637558417339 ], [ 6.829428026326704, 46.301427715936988 ], [ 6.831819478156953, 46.318550569104353 ], [ 6.84074902942347, 46.336395695967049 ], [ 6.860121986348002, 46.352227247133968 ], [ 6.877783628401792, 46.378830734225474 ], [ 6.877959147530201, 46.379615986433414 ], [ 6.880504179833009, 46.379645069630293 ], [ 6.906305535727933, 46.379979524962636 ], [ 6.909508765436047, 46.380023149770587 ], [ 6.940641523727529, 46.391727785522896 ], [ 6.957974067078667, 46.401671106615289 ], [ 6.95022927239935, 46.431722571558929 ], [ 6.917121920095304, 46.455499074343855 ], [ 6.805096645714912, 46.485244928944702 ], [ 6.757465060606031, 46.497217044284803 ], [ 6.726902740604766, 46.497666854327143 ], [ 6.721005671768752, 46.499999999857828 ], [ 6.711830009063845, 46.503663856020175 ], [ 6.687235349310304, 46.512097687917546 ], [ 6.634930560108439, 46.512302660795811 ], [ 6.617422497628883, 46.511146019174824 ], [ 6.601252769514141, 46.515728515295869 ], [ 6.569549572932358, 46.515567476079525 ], [ 6.530145461677979, 46.505567439791712 ], [ 6.513997674015743, 46.510809271014978 ], [ 6.500394918656278, 46.512214815371799 ], [ 6.500000000392768, 46.511966895417373 ], [ 6.48093972995062, 46.499999999857828 ], [ 6.473737905775105, 46.495519342490049 ], [ 6.444338401010269, 46.467927833741292 ], [ 6.394074025381791, 46.45905666293929 ], [ 6.346003642002708, 46.455165084230877 ], [ 6.328846617779979, 46.442733392704334 ], [ 6.261710436624814, 46.373813578412687 ], [ 6.247164264265761, 46.360897721589957 ], [ 6.231916013596421, 46.354133124110916 ], [ 6.203086948020109, 46.332160555751571 ], [ 6.165261571080337, 46.287198721973496 ], [ 6.135204809446263, 46.302228649739916 ], [ 6.153765988492923, 46.326091068293685 ], [ 6.1668860655755, 46.329380611074953 ], [ 6.171756730147699, 46.351645286350099 ], [ 6.179786743522976, 46.368286899035951 ], [ 6.080596327529201, 46.404868862826326 ], [ 6.054553632046676, 46.430429597332839 ], [ 6.046106759955371, 46.430763739467231 ], [ 6.043193378860192, 46.432550359107189 ], [ 6.042245331943629, 46.433131733059362 ], [ 6.051394282345255, 46.43703942138746 ], [ 6.055228838153544, 46.44555629345863 ], [ 6.059863094889069, 46.455847583244314 ], [ 6.08447512356862, 46.499999999857828 ], [ 6.085115952946238, 46.50115980870369 ], [ 6.102163276703084, 46.519432294019815 ], [ 6.123708286322755, 46.54129843713234 ], [ 6.117038548663086, 46.551789283507226 ], [ 6.111303493683491, 46.561966370884868 ], [ 6.109058979284274, 46.565948829110702 ], [ 6.139752526978829, 46.578809090351264 ], [ 6.168750960020503, 46.590179785797126 ], [ 6.182880273663538, 46.622099843903705 ], [ 6.198442736154658, 46.630747728610665 ], [ 6.250136158025267, 46.659463200588156 ], [ 6.339070624302921, 46.708921757319722 ] ], [ [ 10.384522764721906, 46.778568586502999 ], [ 10.384878252334342, 46.783475725979692 ], [ 10.380914649043888, 46.793390909366018 ], [ 10.380561134131815, 46.7968412763584 ], [ 10.375792721195165, 46.811970667586969 ], [ 10.342652188717782, 46.822076863576314 ], [ 10.341223613192808, 46.822512463989014 ], [ 10.339257846924559, 46.821269731689924 ], [ 10.301563687796646, 46.799127705031069 ], [ 10.300377077985024, 46.731702563888348 ], [ 10.321208671657208, 46.708921757319722 ], [ 10.379220704895779, 46.712845645901446 ], [ 10.369639929845517, 46.728727899196663 ], [ 10.356938810841786, 46.738744861556818 ], [ 10.347009167864414, 46.758016792853454 ], [ 10.358995314140254, 46.762258870431737 ], [ 10.361370247749058, 46.76309935507728 ], [ 10.363640957920284, 46.763902943011864 ], [ 10.383725427262243, 46.767560520873523 ], [ 10.384522764721906, 46.778568586502999 ] ], [ [ 8.686995457927772, 47.662505791543467 ], [ 8.695429761689928, 47.663588923254757 ], [ 8.712927005758536, 47.66420778109778 ], [ 8.713571900012781, 47.66591865634129 ], [ 8.715526566697386, 47.684074811612682 ], [ 8.699828868230133, 47.690948951299831 ], [ 8.683325681888654, 47.685494175491897 ], [ 8.674970929334808, 47.682732471544156 ], [ 8.679027277390132, 47.670792824689634 ], [ 8.682016780824153, 47.661991619414131 ], [ 8.686995457927772, 47.662505791543467 ] ] ], [ [ [ 9.036756699400794, 46.011632236859327 ], [ 9.040226859003997, 46.002603469505388 ], [ 9.036049966020688, 46.000000000240469 ], [ 9.027940499353468, 45.994990765398711 ], [ 9.007207266713319, 45.967222742723244 ], [ 9.02668992320541, 45.927251685341041 ], [ 9.039239561997725, 45.909304661550749 ], [ 9.086958906221684, 45.884430750314593 ], [ 9.109337633273411, 45.879995590865072 ], [ 9.117214067972778, 45.863604221003463 ], [ 9.088692160646628, 45.844603344731546 ], [ 9.073465850429779, 45.848692140136009 ], [ 9.060367712901394, 45.850554551290337 ], [ 9.045097522677864, 45.822568116160255 ], [ 9.027019021908062, 45.771754684650631 ], [ 9.00102020643221, 45.769029919189265 ], [ 8.999999999645505, 45.769319554940012 ], [ 8.955648434930117, 45.781909447995346 ], [ 8.920237389910907, 45.781414136455723 ], [ 8.913041093069326, 45.791523433245295 ], [ 8.923111520916331, 45.815842275706096 ], [ 8.942769696536851, 45.823630782909611 ], [ 8.935770859276197, 45.839990354614294 ], [ 8.917889818087314, 45.872215023776945 ], [ 8.901430127273596, 45.900008676870748 ], [ 8.899908628218983, 45.902577157228663 ], [ 8.911987976502187, 45.91022031910321 ], [ 8.926161171050202, 45.920712960604057 ], [ 8.94452489051598, 45.925595281503 ], [ 8.961089536894237, 45.901542762762546 ], [ 8.972322779977633, 45.887905921418565 ], [ 8.982919766108235, 45.891308177934079 ], [ 8.981318150805016, 45.902313187366758 ], [ 8.977544482806652, 45.919550439595987 ], [ 8.965433642284566, 45.934210942439016 ], [ 8.967320476283708, 45.953602145535498 ], [ 8.973244257423048, 45.969386045782947 ], [ 8.98030891424456, 45.989621148525302 ], [ 8.99816801587926, 45.996572525475017 ], [ 8.999999999645505, 45.997633346375274 ], [ 9.004087218305578, 46.000000000240469 ], [ 9.01490818138595, 46.006322497153 ], [ 9.036756699400794, 46.011632236859327 ] ] ], [ [ [ 6.171138611078804, 46.234947363896225 ], [ 6.215022269413811, 46.23419465214505 ], [ 6.232288992305756, 46.23186171755907 ], [ 6.194179337206092, 46.183620525415982 ], [ 6.196461089468791, 46.168323823411704 ], [ 6.170747493587242, 46.162776251059931 ], [ 6.167237104730661, 46.150759447707699 ], [ 6.144792558118048, 46.148641996984864 ], [ 6.121558174080116, 46.152949827398182 ], [ 6.095690997726008, 46.15622063075115 ], [ 6.093233726334891, 46.1781328879744 ], [ 6.089350358768973, 46.177359320420358 ], [ 6.083031659366133, 46.188713610098318 ], [ 6.087112485614635, 46.203362701901113 ], [ 6.100737181426608, 46.218707931693075 ], [ 6.124980158831271, 46.215061739341024 ], [ 6.122084732363685, 46.197337206731916 ], [ 6.147688628677684, 46.199277693219891 ], [ 6.164011935468373, 46.233348975287441 ], [ 6.171138611078804, 46.234947363896225 ] ] ], [ [ [ 6.052206060223118, 46.184671286960892 ], [ 6.045360802536699, 46.185984709843609 ], [ 6.035663353399003, 46.173038816715021 ], [ 6.050823844054992, 46.160352661247003 ], [ 6.034105619000801, 46.1488172374236 ], [ 6.022828495910719, 46.127652900670554 ], [ 6.018308870493681, 46.112925054555653 ], [ 6.003872397702215, 46.109680889792564 ], [ 6.003740757682155, 46.114956213501678 ], [ 6.003367778972819, 46.129902639311247 ], [ 6.008655301362705, 46.146495256976905 ], [ 6.010278856220098, 46.153621526449861 ], [ 6.000000000362556, 46.152811761594606 ], [ 5.99354105777418, 46.152302922263253 ], [ 5.978334320949039, 46.166265447640825 ], [ 5.968834331392297, 46.186787341682567 ], [ 5.991344698464074, 46.206338730312808 ], [ 6.000000000362556, 46.204470861248588 ], [ 6.008852760943622, 46.202560313673281 ], [ 6.010783474949492, 46.215645064876071 ], [ 6.036365431709315, 46.216782721425346 ], [ 6.05558480905964, 46.212436163435584 ], [ 6.064821518576265, 46.203639887616497 ], [ 6.052206060223118, 46.184671286960892 ] ] ], [ [ [ 7.389225198914601, 47.454762215355608 ], [ 7.398001272116493, 47.461150459271018 ], [ 7.41013281700928, 47.46506591110056 ], [ 7.414969623180107, 47.466626906346853 ], [ 7.416855281284559, 47.466328261020152 ], [ 7.447804909920555, 47.461426295537223 ], [ 7.453158252769632, 47.459814809862074 ], [ 7.463097040596613, 47.453629727891588 ], [ 7.461606005209934, 47.44430192970092 ], [ 7.455045086768819, 47.435375114358663 ], [ 7.42002896091141, 47.432775092366235 ], [ 7.402608657546905, 47.426775665685327 ], [ 7.400400323694052, 47.427822081958574 ], [ 7.390322297896366, 47.434009755466477 ], [ 7.388172184755395, 47.446529048540896 ], [ 7.38891357873244, 47.453631103083033 ], [ 7.389225198914601, 47.454762215355608 ] ] ], [ [ [ 7.463053160589921, 47.489220227150987 ], [ 7.481351060494805, 47.482661322104278 ], [ 7.495251249841453, 47.483521463015158 ], [ 7.499999999554868, 47.483815311396619 ], [ 7.502457271844309, 47.483967364431308 ], [ 7.516430690954612, 47.498451610570022 ], [ 7.515505940048313, 47.500000000208502 ], [ 7.513235890138803, 47.503837334461473 ], [ 7.525208977605356, 47.506151218558912 ], [ 7.527622369888104, 47.505990124139856 ], [ 7.532936970195598, 47.508561011972361 ], [ 7.537429797969386, 47.506511417009314 ], [ 7.536129211711145, 47.500000000208502 ], [ 7.534687026709626, 47.492847586356469 ], [ 7.535295009188873, 47.486996870593373 ], [ 7.533100494120036, 47.472662316811551 ], [ 7.505133943268843, 47.463981342073644 ], [ 7.501367076415502, 47.463738697835758 ], [ 7.499999999554868, 47.463701382332808 ], [ 7.480473463954407, 47.463168386357005 ], [ 7.477874162628675, 47.467612991832958 ], [ 7.477599332948948, 47.468539466649482 ], [ 7.466190569838842, 47.469918438987314 ], [ 7.449911143054845, 47.480469999713733 ], [ 7.463053160589921, 47.489220227150987 ] ] ], [ [ [ 6.250850172250751, 46.233523944118218 ], [ 6.264935605887102, 46.233523944118218 ], [ 6.280205796110605, 46.231934623606861 ], [ 6.295805085935133, 46.244764511253926 ], [ 6.302562583608178, 46.235725586323461 ], [ 6.304910156330031, 46.226976812767809 ], [ 6.30050023048058, 46.215309597830696 ], [ 6.283365145812027, 46.206003205431195 ], [ 6.26820465605437, 46.208906153146785 ], [ 6.251925228372075, 46.219043377844521 ], [ 6.250850172250751, 46.233523944118218 ] ] ], [ [ [ 6.137197089490104, 46.247302950694241 ], [ 6.118552403952929, 46.255973612089399 ], [ 6.124278724613008, 46.267384410413555 ], [ 6.148143559792092, 46.263509156518694 ], [ 6.137197089490104, 46.247302950694241 ] ] ] ] } }
]
}
