{
"type": "FeatureCollection",
"name": "Tarki",
"crs": { "type": "name", "properties": { "name": "urn:ogc:def:crs:OGC:1.3:CRS84" } },
"features": [
{ "type": "Feature", "properties": { "OBJECTID": 2.0, "YEAR": 1700.0, "OWNER_ID": 1317.0, "SHORT_NAME": "Tarki", "LONG_NAME": "Khanate of Tarki", "VARIANTS": "Shamkhal of Tarki", "SHAPE_LENG": 753514.1, "Shape__Are": 20336318689.357422, "Shape__Len": 755095.68530980998 }, "geometry": { "type": "MultiPolygon", "coordinates": [ [ [ [ 46.423083974547438, 43.509480587790087 ], [ 46.447833640399899, 43.612041021745156 ], [ 46.493273503302206, 43.712619036320859 ], [ 46.500000000114795, 43.716494074237993 ], [ 46.552856033304224, 43.74693489398706 ], [ 46.577343798030554, 43.825489990404698 ], [ 46.622128907668341, 43.846287412915039 ], [ 46.682300715428752, 43.840090802362141 ], [ 46.744043929946002, 43.857053489241814 ], [ 46.834727230130582, 43.875089118032029 ], [ 46.884946790606122, 43.893858997715363 ], [ 46.973251154288988, 43.910002440414218 ], [ 47.000000000145008, 43.908150335009111 ], [ 47.051035819295045, 43.904616423627608 ], [ 47.145407561612025, 43.921753509039952 ], [ 47.208874959366483, 43.921287368365867 ], [ 47.279959317942058, 43.942709940371763 ], [ 47.315708835583941, 43.97570445301492 ], [ 47.401616797719342, 44.000000000164377 ], [ 47.407110832013267, 44.001566660130194 ], [ 47.408247417341656, 44.000000000164377 ], [ 47.409600425686605, 43.998150730675476 ], [ 47.376971897886882, 43.955691482642628 ], [ 47.406654036894658, 43.864889446098289 ], [ 47.500000000175213, 43.832723848111691 ], [ 47.502444411284728, 43.831881306717939 ], [ 47.523090958296585, 43.769049094395619 ], [ 47.568028844414748, 43.772545994237419 ], [ 47.607423154151078, 43.886203793904855 ], [ 47.660458152406356, 43.916947266542138 ], [ 47.609038210945883, 43.982095608410781 ], [ 47.666200923015928, 44.000000000164377 ], [ 47.698739382132011, 44.010276029703782 ], [ 47.705733181640539, 44.000000000164377 ], [ 47.736605934251159, 43.955000704947381 ], [ 47.727985018963444, 43.865951323716281 ], [ 47.606855700962505, 43.688127861772607 ], [ 47.502175288602018, 43.499999999890157 ], [ 47.500000000175213, 43.496116891514184 ], [ 47.498188516862079, 43.492883018554906 ], [ 47.479986380959716, 43.373278948961655 ], [ 47.477214593217958, 43.351235056228582 ], [ 47.473678926667603, 43.327331652811516 ], [ 47.480248282085853, 43.31596415262262 ], [ 47.48993862824458, 43.305142105005594 ], [ 47.500000000175213, 43.303027518943601 ], [ 47.513771639706405, 43.30013303061984 ], [ 47.522130653867976, 43.309941407227562 ], [ 47.524815141533793, 43.334350739015413 ], [ 47.548866404083789, 43.335863921770667 ], [ 47.571433559952879, 43.329633874771389 ], [ 47.572983142139883, 43.295993385345056 ], [ 47.565737207988981, 43.267636435831093 ], [ 47.552663971760275, 43.248020465514756 ], [ 47.523221909308816, 43.24908443647594 ], [ 47.534112634655841, 43.231091136886491 ], [ 47.530096815891177, 43.220495805007204 ], [ 47.501309505805906, 43.179435496645795 ], [ 47.500000000175213, 43.177577762790186 ], [ 47.48472242849499, 43.155899999894025 ], [ 47.468593677930244, 43.084802277291146 ], [ 47.464556033697441, 43.027505007104295 ], [ 47.467677023539594, 43.00308514007331 ], [ 47.469387979084246, 43.00000000005209 ], [ 47.474508280083988, 42.990841688787384 ], [ 47.486839462972249, 42.985365954589021 ], [ 47.500000000175213, 42.988715187223022 ], [ 47.502488061322694, 42.989348355217544 ], [ 47.514688294097056, 42.977753707241106 ], [ 47.534854688894605, 42.971441567485513 ], [ 47.563576523473763, 42.959040247669414 ], [ 47.597798283498463, 42.936367598295249 ], [ 47.632238295509659, 42.893538191830764 ], [ 47.664626746753065, 42.889356539108284 ], [ 47.695705693264109, 42.879190714859597 ], [ 47.731127834273742, 42.852175527899263 ], [ 47.738570194044669, 42.822910398254308 ], [ 47.747103809256444, 42.790103347871579 ], [ 47.649567426161013, 42.741738599083618 ], [ 47.503710267775766, 42.687704370406948 ], [ 47.500000000175213, 42.686330239157584 ], [ 47.419792748629476, 42.656617268591148 ], [ 47.352942459906728, 42.643409389075259 ], [ 47.220267663294266, 42.566156219504677 ], [ 47.143029200930407, 42.5507071333613 ], [ 47.108786334089778, 42.555184755698889 ], [ 47.047035553961216, 42.559344096448342 ], [ 47.000000000145008, 42.562828867821352 ], [ 46.990898481688717, 42.563503158603886 ], [ 46.923533993704069, 42.605078415680097 ], [ 46.878624335347077, 42.650778940189568 ], [ 46.844942091803915, 42.717192095859815 ], [ 46.844942091803915, 42.795964829443641 ], [ 46.835951586252115, 42.811888143734777 ], [ 46.888918959332813, 42.896754653860164 ], [ 46.810588666606336, 42.978058858172517 ], [ 46.704264839434138, 43.00000000005209 ], [ 46.652705876496931, 43.01072447978791 ], [ 46.633237885001854, 43.175174602431738 ], [ 46.656307017655074, 43.286037745644578 ], [ 46.500000000114795, 43.420934163930227 ], [ 46.445913031542673, 43.467542085571232 ], [ 46.437488541874991, 43.483425582821717 ], [ 46.428298285139981, 43.499999999890157 ], [ 46.423083974547438, 43.509480587790087 ] ] ] ] } }
]
}
