{
"type": "FeatureCollection",
"name": "Timbuktu",
"crs": { "type": "name", "properties": { "name": "urn:ogc:def:crs:OGC:1.3:CRS84" } },
"features": [
{ "type": "Feature", "properties": { "OBJECTID": 16.0, "YEAR": 1700.0, "OWNER_ID": 1837.0, "SHORT_NAME": "Timbuktu", "LONG_NAME": "Pasha of Timbuktu", "VARIANTS": null, "SHAPE_LENG": 2324662.0, "Shape__Are": 238533428837.75793, "Shape__Len": 2328015.8309283354 }, "geometry": { "type": "MultiPolygon", "coordinates": [ [ [ [ -6.569145081322882, 19.670066605830318 ], [ -6.500000000392768, 19.831263680967268 ], [ -6.427544881863881, 20.000000000030731 ], [ -6.408707760124857, 20.043838736521636 ], [ -6.392887846761524, 20.499999999651138 ], [ -6.390852108020832, 20.558794546883046 ], [ -6.373664519518895, 20.99999999958332 ], [ -6.366846906587056, 21.175237524163396 ], [ -6.000000000362556, 21.464827699498798 ], [ -5.955394418135979, 21.49999999987325 ], [ -5.773701017852988, 21.643678026230731 ], [ -5.500000000332335, 21.887589533271314 ], [ -5.373701434826782, 22.000000000301405 ], [ -5.294168032033522, 22.07099421172088 ], [ -5.000000000302123, 22.228188421414458 ], [ -4.741295412320463, 22.366246445292699 ], [ -4.509651991961284, 22.499999999656861 ], [ -4.500000000271902, 22.505590741706609 ], [ -4.161297125947603, 22.701633151442174 ], [ -4.000000000241688, 22.694623374829838 ], [ -3.520137700123903, 22.673767000188558 ], [ -3.500000000211477, 22.661588398892064 ], [ -3.232979104875176, 22.499999999656861 ], [ -3.000000000181255, 22.359371255430673 ], [ -2.500000000151079, 22.057081373364756 ], [ -2.482133873690832, 22.046267711104857 ], [ -2.395391404504281, 22.000000000301405 ], [ -2.000000000120858, 21.789660479638382 ], [ -1.782537440532293, 21.673841738393307 ], [ -1.500000000090646, 21.759230514283587 ], [ -1.000000000060433, 21.910215118536545 ], [ -0.702414747343817, 22.000000000301405 ], [ -0.618059232122881, 22.025531467511001 ], [ -0.500000000030215, 22.012416111269012 ], [ -0.388245284738688, 22.000000000301405 ], [ 0.0, 21.957010461617156 ], [ 0.035714756433659, 21.953055679949294 ], [ 0.500000000030215, 21.682051362515619 ], [ 0.659135550990458, 21.589044473350498 ], [ 0.784624632017067, 21.49999999987325 ], [ 1.000000000060433, 21.347576798448294 ], [ 1.051305769241558, 21.31124351205063 ], [ 1.161309609653842, 20.99999999958332 ], [ 1.188869651279404, 20.922182817266844 ], [ 1.18908936751981, 20.527907687549682 ], [ 1.198758284367434, 20.499999999651138 ], [ 1.329158005894701, 20.124366895911866 ], [ 1.500000000090646, 20.008780257357309 ], [ 1.512972396835424, 20.000000000030731 ], [ 1.999905522505796, 19.670066605830318 ], [ 1.500000000090646, 19.670066605830318 ], [ 1.000000000060433, 19.670066605830318 ], [ 0.500000000030215, 19.670066605830318 ], [ 0.0, 19.670066605830318 ], [ -0.500000000030215, 19.670066605830318 ], [ -1.000000000060433, 19.670066605830318 ], [ -1.500000000090646, 19.670066605830318 ], [ -2.000000000120858, 19.670066605830318 ], [ -2.500000000151079, 19.670066605830318 ], [ -3.000000000181255, 19.670066605830318 ], [ -3.500000000211477, 19.670066605830318 ], [ -4.000000000241688, 19.670066605830318 ], [ -4.500000000271902, 19.670066605830318 ], [ -5.000000000302123, 19.670066605830318 ], [ -5.500000000332335, 19.670066605830318 ], [ -6.000000000362556, 19.670066605830318 ], [ -6.500000000392768, 19.670066605830318 ], [ -6.569145081322882, 19.670066605830318 ] ] ] ] } }
]
}
