{
"type": "FeatureCollection",
"name": "Trier",
"crs": { "type": "name", "properties": { "name": "urn:ogc:def:crs:OGC:1.3:CRS84" } },
"features": [
{ "type": "Feature", "properties": { "OBJECTID": 70.0, "YEAR": 1700.0, "OWNER_ID": 3674.0, "SHORT_NAME": "Trier", "LONG_NAME": "Electorate of Trier", "VARIANTS": "Archbishopric of Trier", "SHAPE_LENG": 1443669.0, "Shape__Are": 13507544784.394043, "Shape__Len": 1445731.2077007117 }, "geometry": { "type": "MultiPolygon", "coordinates": [ [ [ [ 7.044632929163427, 50.379007419425371 ], [ 7.073575549876471, 50.36817939102604 ], [ 7.113374580292696, 50.353281236459054 ], [ 7.152142433695963, 50.34157036075586 ], [ 7.158066214835292, 50.374809534847707 ], [ 7.129610127070009, 50.396920853746074 ], [ 7.179018846610526, 50.418534592023647 ], [ 7.224566138139346, 50.431569164864882 ], [ 7.287489853025987, 50.42039125128386 ], [ 7.4159261942104, 50.421668485068203 ], [ 7.457941157328454, 50.434175646691138 ], [ 7.499999999554868, 50.427343521353592 ], [ 7.511672041806795, 50.425447314441335 ], [ 7.54273898053742, 50.471861348111887 ], [ 7.598093419873144, 50.471019539538524 ], [ 7.634469821446163, 50.445889869008234 ], [ 7.718631387702304, 50.485998854929626 ], [ 7.752287237844131, 50.49944855260533 ], [ 7.75273860983333, 50.499999999891088 ], [ 7.793841462239473, 50.550725555764195 ], [ 7.850183198581452, 50.554295478520579 ], [ 7.918526075878039, 50.563743180339692 ], [ 7.950097632439724, 50.555609247683947 ], [ 7.993670330854315, 50.55862148842872 ], [ 7.999999999585081, 50.553950176001109 ], [ 8.01389894476506, 50.543691084715839 ], [ 7.999999999585081, 50.533771607014678 ], [ 7.999967089804647, 50.533748117211118 ], [ 7.991427424439438, 50.511642881614002 ], [ 7.999999999585081, 50.505340409966195 ], [ 8.007263086168019, 50.499999999891088 ], [ 8.01750892624395, 50.492545176671662 ], [ 8.031499142053418, 50.47448483903635 ], [ 8.033651483016286, 50.44738132020391 ], [ 8.014280415248786, 50.438343343622137 ], [ 8.012128074285918, 50.434469393919876 ], [ 7.999999999585081, 50.432195385984606 ], [ 7.994909348379593, 50.431240858811499 ], [ 7.984147643565271, 50.414448907912899 ], [ 7.993833177449011, 50.400881808093658 ], [ 7.999999999585081, 50.401172210072879 ], [ 8.009491994135821, 50.401619193766294 ], [ 8.04871786885804, 50.403466318970374 ], [ 8.051660429030267, 50.401156026756354 ], [ 8.077044211150207, 50.382289925873948 ], [ 8.07992681057384, 50.380847046461561 ], [ 8.131582990089418, 50.376968366973045 ], [ 8.134811501084581, 50.39506614136539 ], [ 8.169248954693833, 50.393127426364778 ], [ 8.190772362525905, 50.369856627196953 ], [ 8.223057475172288, 50.352395993987592 ], [ 8.240276201078578, 50.346574347881251 ], [ 8.24888556493006, 50.34204590436574 ], [ 8.240276201078578, 50.331693546501228 ], [ 8.221981304241696, 50.327163676996776 ], [ 8.218362102454742, 50.305394584936167 ], [ 8.219761293188474, 50.30507395400079 ], [ 8.22305120044002, 50.294050552474921 ], [ 8.18969619249361, 50.286375307293298 ], [ 8.170325124726119, 50.304507813878871 ], [ 8.156334909814948, 50.309039855102938 ], [ 8.118668945210533, 50.30774503041205 ], [ 8.119745115242818, 50.320044432295518 ], [ 8.106831070363897, 50.33298771542821 ], [ 8.099297877443043, 50.33428184891163 ], [ 8.091764684522142, 50.329105102890409 ], [ 8.074545958615847, 50.336870008974131 ], [ 8.014280415248786, 50.337517027269257 ], [ 7.999999999585081, 50.375523889181935 ], [ 7.999214029407033, 50.37761483598679 ], [ 7.979842962537831, 50.376968366973045 ], [ 7.956347190311778, 50.375043651953028 ], [ 7.950997169432631, 50.377089667258709 ], [ 7.949285855460185, 50.401136376645155 ], [ 7.949220035899327, 50.402018953909852 ], [ 7.925963711408849, 50.408183361638393 ], [ 7.902093069519798, 50.402954204629566 ], [ 7.887094974504258, 50.391267635123334 ], [ 7.875633515321252, 50.382334871977527 ], [ 7.888687772842926, 50.349747178832004 ], [ 7.879736282022262, 50.329513566099244 ], [ 7.852593492574787, 50.322959035898833 ], [ 7.832740955662801, 50.340950447345286 ], [ 7.840397990328751, 50.357276512670502 ], [ 7.816593168000529, 50.37165934419253 ], [ 7.793424603523454, 50.377709106305183 ], [ 7.751958138243145, 50.374493207087262 ], [ 7.749246300470167, 50.373466563035748 ], [ 7.724790575056782, 50.378907746865572 ], [ 7.678515247499226, 50.371796298838923 ], [ 7.663448861657464, 50.347868109226859 ], [ 7.662372690726846, 50.333634786312871 ], [ 7.654839498704289, 50.331046449033863 ], [ 7.635468430936789, 50.340105010119281 ], [ 7.615021193137005, 50.336870008974131 ], [ 7.605335659253273, 50.32069168098058 ], [ 7.576279058500349, 50.301270376354644 ], [ 7.594573955337256, 50.290261429316097 ], [ 7.613945023104755, 50.292204370669225 ], [ 7.629011408048186, 50.298680266113557 ], [ 7.650688381081435, 50.299146096425027 ], [ 7.662134453021921, 50.288053072629751 ], [ 7.680317205975417, 50.270425810505415 ], [ 7.675084954230019, 50.26657542010323 ], [ 7.669905883647745, 50.25721921918587 ], [ 7.69358163334098, 50.242310285764596 ], [ 7.70972418921502, 50.24684828389239 ], [ 7.73662844990342, 50.237123470446484 ], [ 7.739862575369061, 50.231834268272458 ], [ 7.744161641925984, 50.224802509763023 ], [ 7.732323767977674, 50.213127068163239 ], [ 7.719409723098751, 50.194310589874142 ], [ 7.664525031689722, 50.176135877652932 ], [ 7.650534816778543, 50.170941825496307 ], [ 7.633316089973921, 50.153407707947565 ], [ 7.630087578978794, 50.12871910408812 ], [ 7.656991838768859, 50.119620072378268 ], [ 7.683514914637766, 50.119148905980765 ], [ 7.685721494979183, 50.119638091259816 ], [ 7.693166977294038, 50.127174674642681 ], [ 7.703379823147881, 50.120492804625634 ], [ 7.714429035565527, 50.106190389283356 ], [ 7.698644446654121, 50.097606878125873 ], [ 7.651290679021548, 50.080435216000737 ], [ 7.607093829350947, 50.075664211882227 ], [ 7.582946462336892, 50.079472274786362 ], [ 7.571960010716588, 50.076944425505459 ], [ 7.499999999554868, 50.08192970320323 ], [ 7.495083807465782, 50.082270270459304 ], [ 7.489751519330335, 50.082094646922258 ], [ 7.453187193793124, 50.094287172536333 ], [ 7.420577458749164, 50.130979960805902 ], [ 7.362502467982204, 50.111699825262427 ], [ 7.323361635869611, 50.085251481681041 ], [ 7.276641276632095, 50.041434445948184 ], [ 7.286687579323847, 50.021677524649157 ], [ 7.271942713098658, 50.000000000210534 ], [ 7.264883171284383, 49.988667364257466 ], [ 7.283572663889614, 49.955708608006894 ], [ 7.271113002152806, 49.945404341057973 ], [ 7.246193678679151, 49.94334322209901 ], [ 7.224389270639686, 49.970130856566129 ], [ 7.204454575608427, 49.979358461873609 ], [ 7.20209965107426, 49.977431673663645 ], [ 7.180176396821031, 49.958710306674661 ], [ 7.156238540287456, 49.950421994453897 ], [ 7.155072447098626, 49.951152783373779 ], [ 7.122369951120079, 49.971642835914466 ], [ 7.098981987507877, 49.97680784737063 ], [ 7.082219881548704, 49.979825349000329 ], [ 7.069758002769755, 49.997737846222492 ], [ 7.070087169744379, 50.000000000210534 ], [ 7.071798416343168, 50.01077267547214 ], [ 7.06188156807037, 50.025592758148775 ], [ 7.047467034833079, 50.031939021922199 ], [ 7.021073301093691, 50.031939021922199 ], [ 7.000493648027793, 50.027756955095413 ], [ 7.000000000422981, 50.024570948379314 ], [ 6.996698040475251, 50.003254639762162 ], [ 6.999618266732867, 50.000000000210534 ], [ 7.000000000422981, 49.999535591975651 ], [ 7.009094100591665, 49.988470598011169 ], [ 7.019910484959, 49.980942356819092 ], [ 7.023771912072409, 49.962326995500234 ], [ 7.052315759851058, 49.952994826993056 ], [ 7.056177186964467, 49.936488547320309 ], [ 7.071666776323109, 49.927383706359905 ], [ 7.07019680103995, 49.91136253985551 ], [ 7.065896574758014, 49.89520522854005 ], [ 7.084742973399003, 49.876876368690624 ], [ 7.112433188095765, 49.874619459739087 ], [ 7.092553588537485, 49.785039677160825 ], [ 7.060652932374821, 49.755724496031505 ], [ 7.042135632436511, 49.72803938653766 ], [ 7.009730358442786, 49.703417063034095 ], [ 7.000000000422981, 49.693093423640789 ], [ 6.994065249057392, 49.68679573544032 ], [ 6.982875885980685, 49.677059608881443 ], [ 6.985420917385169, 49.664956052473364 ], [ 6.991915135916428, 49.647897892316784 ], [ 6.97815880098273, 49.633989875662934 ], [ 6.972959037707924, 49.627224343611829 ], [ 6.972300840302628, 49.602726092379548 ], [ 6.921970644214994, 49.591656891354212 ], [ 6.905581517863437, 49.578420250060205 ], [ 6.879955681096931, 49.589741093034988 ], [ 6.870718971580271, 49.587093949025295 ], [ 6.883729349095297, 49.57246624117063 ], [ 6.882742052089024, 49.560951134093095 ], [ 6.87703767098312, 49.545642202436326 ], [ 6.858213211896306, 49.532978685507757 ], [ 6.846519230090241, 49.545700754207367 ], [ 6.831205159860007, 49.543519646514795 ], [ 6.828550428887981, 49.525906175536996 ], [ 6.804153228715322, 49.512754137064903 ], [ 6.796307739180889, 49.499999999800124 ], [ 6.791230610315375, 49.491828912778466 ], [ 6.816637047946778, 49.48573668808919 ], [ 6.854329845228722, 49.488579821316883 ], [ 6.874934948464961, 49.483466849547341 ], [ 6.908612227917874, 49.473837415672854 ], [ 6.90731477228839, 49.473027594379381 ], [ 6.908316341727879, 49.465335161214391 ], [ 6.892834419490204, 49.46376933992925 ], [ 6.888117334492275, 49.459502404630811 ], [ 6.842284824267496, 49.453856123770564 ], [ 6.835527326594451, 49.44696067787109 ], [ 6.824034331155082, 49.445514058786848 ], [ 6.821573532079835, 49.454073858768687 ], [ 6.749149827636453, 49.460866703623267 ], [ 6.718719146756948, 49.428345361865809 ], [ 6.683000943487523, 49.418860725966091 ], [ 6.660775796010047, 49.423741259146453 ], [ 6.650420149467046, 49.43212127370041 ], [ 6.648643015035455, 49.447236514271708 ], [ 6.595570328860708, 49.481935914048641 ], [ 6.568847465875974, 49.486621500535577 ], [ 6.570248223271555, 49.499999999800124 ], [ 6.570317470803538, 49.500668114810289 ], [ 6.583305908764388, 49.502265106731024 ], [ 6.580673117346539, 49.520897689178277 ], [ 6.500000000392768, 49.530557440500068 ], [ 6.464610823062467, 49.534794314290735 ], [ 6.45401390969542, 49.546242356643866 ], [ 6.438107461620795, 49.553194821675 ], [ 6.444491980584467, 49.567813705949625 ], [ 6.457787577693787, 49.57161769879643 ], [ 6.46274600138102, 49.580043944103977 ], [ 6.47494460191648, 49.582208785175546 ], [ 6.472728669214649, 49.56184376201228 ], [ 6.470666315188755, 49.544266211117723 ], [ 6.489183615127065, 49.545012764248675 ], [ 6.492233265260934, 49.565297054670431 ], [ 6.500000000392768, 49.567347516400403 ], [ 6.504980363634175, 49.568662314825033 ], [ 6.518999977709658, 49.575392135282051 ], [ 6.517837161574968, 49.592197980697847 ], [ 6.500000000392768, 49.600142168924748 ], [ 6.499188222514905, 49.600503681254338 ], [ 6.472794488775552, 49.60145406696865 ], [ 6.440696373031963, 49.600942323174401 ], [ 6.460442308665821, 49.621992463723295 ], [ 6.460924986942707, 49.62083786683138 ], [ 6.481680160035348, 49.617753934377511 ], [ 6.500000000392768, 49.619728163608322 ], [ 6.507042716761773, 49.620487097622018 ], [ 6.530408740819763, 49.623190877276457 ], [ 6.533151231805165, 49.633726870409319 ], [ 6.526262094112062, 49.647561926409416 ], [ 6.519811755587495, 49.66172889935482 ], [ 6.528521906820585, 49.677964698672525 ], [ 6.536859080242664, 49.688007140517271 ], [ 6.552019570000329, 49.69472040003631 ], [ 6.55392834445199, 49.712301801727506 ], [ 6.550483775156303, 49.714285690610843 ], [ 6.534972246243486, 49.721447435737637 ], [ 6.543726277483268, 49.736802953458529 ], [ 6.537100418931949, 49.756015986846535 ], [ 6.516871805021204, 49.758872506619056 ], [ 6.511013844341065, 49.778455513218262 ], [ 6.517376423750562, 49.795846242673214 ], [ 6.528412207253034, 49.811207199391554 ], [ 6.528302507685484, 49.827625625357442 ], [ 6.511189363469475, 49.841594340529049 ], [ 6.501228636088317, 49.851791850275589 ], [ 6.512396059610849, 49.863426878900249 ], [ 6.544779394050408, 49.883839543283948 ], [ 6.558820948578363, 49.880365350426835 ], [ 6.565139647981204, 49.890961578838201 ], [ 6.555486078850228, 49.896454998883819 ], [ 6.579225081617555, 49.924333851888385 ], [ 6.601099190838203, 49.934992974626446 ], [ 6.634206542243944, 49.929620143640001 ], [ 6.635106079236858, 49.905740064057184 ], [ 6.623302397863206, 49.877297967493305 ], [ 6.606342833221396, 49.865244597384006 ], [ 6.611498716489554, 49.849275404930566 ], [ 6.63082779340743, 49.850890018103115 ], [ 6.639340485957891, 49.837564200529485 ], [ 6.663737686130552, 49.826592361119665 ], [ 6.738706421978409, 49.871511564389117 ], [ 6.810888786834191, 49.887909407030584 ], [ 6.82675135490217, 49.906088763985593 ], [ 6.810077008956363, 49.919206753825058 ], [ 6.792678646044359, 49.927543455257634 ], [ 6.769904999830805, 49.91696983069469 ], [ 6.731641765156897, 49.912873377073957 ], [ 6.701276903838259, 49.931217534704651 ], [ 6.691820794288164, 49.96225443518928 ], [ 6.677362381942515, 49.976619247634744 ], [ 6.681267689062606, 49.987049171142445 ], [ 6.721768796890817, 49.986164384351454 ], [ 6.738365111577784, 50.000000000210534 ], [ 6.74436692307763, 50.004583000667985 ], [ 6.764266438285758, 50.013681279933294 ], [ 6.758781456314956, 50.029443102014184 ], [ 6.762620943874182, 50.042956681374463 ], [ 6.756521643606442, 50.0574350635275 ], [ 6.777825314536828, 50.050256140125477 ], [ 6.803122051702393, 50.06205235864109 ], [ 6.789760635032206, 50.079641750973863 ], [ 6.765495074879614, 50.095275739324961 ], [ 6.742677548659368, 50.090064979647281 ], [ 6.717205291467097, 50.074097680483575 ], [ 6.708977818510893, 50.065528303585175 ], [ 6.668345071560955, 50.084919955487713 ], [ 6.649191513771497, 50.081684140341821 ], [ 6.629291998563403, 50.054675087863409 ], [ 6.647502139353237, 50.032430224680262 ], [ 6.626725026706412, 50.015819456337624 ], [ 6.584951403175959, 50.019936172184131 ], [ 6.562616556130905, 50.032947973625944 ], [ 6.574573817078791, 50.048132776378353 ], [ 6.589778187741474, 50.051755708757717 ], [ 6.600046074271063, 50.063511755843628 ], [ 6.589076109431153, 50.074535393315507 ], [ 6.609940981193019, 50.087837305354277 ], [ 6.600879790804804, 50.107060826801003 ], [ 6.573038022234764, 50.115993809429902 ], [ 6.536815200235981, 50.083554044200298 ], [ 6.533853309217154, 50.053295039588257 ], [ 6.517881041581652, 50.042770862498038 ], [ 6.500000000392768, 50.040623254052406 ], [ 6.499978059940259, 50.040620618794847 ], [ 6.469766778195849, 50.049499702344264 ], [ 6.450459641730489, 50.066907997477735 ], [ 6.430231027819707, 50.089441771644232 ], [ 6.415202176285479, 50.108320027906686 ], [ 6.384047478439803, 50.108558609895667 ], [ 6.365486298494782, 50.087916866819569 ], [ 6.346223041137809, 50.080172249815 ], [ 6.324129533680357, 50.091536778485455 ], [ 6.300544110487263, 50.107074081801855 ], [ 6.286085697243252, 50.125812855103831 ], [ 6.258287807781599, 50.122990583686693 ], [ 6.257563789917111, 50.141855547048905 ], [ 6.238081133425, 50.139524327319819 ], [ 6.222810943201496, 50.131125691803838 ], [ 6.208835209132696, 50.151073341781668 ], [ 6.230182759171477, 50.176360124877085 ], [ 6.250630773115649, 50.185055139987938 ], [ 6.251464490547696, 50.196672477409479 ], [ 6.266120362474292, 50.204490747869379 ], [ 6.28312380712275, 50.199384544514217 ], [ 6.318161872534334, 50.211765477222649 ], [ 6.318337392561078, 50.242293949459054 ], [ 6.300434410919713, 50.287316964600379 ], [ 6.353814256242893, 50.305958328590826 ], [ 6.369435485621557, 50.343891665485387 ], [ 6.343897408868427, 50.363657704672121 ], [ 6.404736830174927, 50.429146850300732 ], [ 6.427510476388517, 50.421497311563911 ], [ 6.453267952276749, 50.38462781831435 ], [ 6.45757708086316, 50.384445311276259 ], [ 6.47327585102052, 50.365469199255585 ], [ 6.500000000392768, 50.33744151851316 ], [ 6.503356808776783, 50.333919797364558 ], [ 6.527205511111652, 50.300981855948081 ], [ 6.503707847931943, 50.259948916829472 ], [ 6.500000000392768, 50.255398441642249 ], [ 6.487472301154628, 50.240020526846223 ], [ 6.490368371714264, 50.218536587349497 ], [ 6.500000000392768, 50.215911306071476 ], [ 6.527095811544109, 50.208525053963371 ], [ 6.573805919207611, 50.207982757138282 ], [ 6.616522959737654, 50.19661955718226 ], [ 6.64458412834112, 50.172481926554184 ], [ 6.700772285108864, 50.170800834466235 ], [ 6.708868118943342, 50.118816495643081 ], [ 6.739386559836222, 50.119518828166406 ], [ 6.748030891508445, 50.143842291650586 ], [ 6.768742183696105, 50.158104682284559 ], [ 6.792590886030982, 50.177061608206195 ], [ 6.807992716274557, 50.206395512098211 ], [ 6.79858048673118, 50.217796044051326 ], [ 6.709548256801146, 50.240998640575029 ], [ 6.683571381777787, 50.255945410398503 ], [ 6.665778099703963, 50.273991546591326 ], [ 6.699455889399939, 50.301747501599614 ], [ 6.729250312428323, 50.30535114828794 ], [ 6.762050505583928, 50.286379421385341 ], [ 6.767952445983727, 50.281227369030496 ], [ 6.813164562605296, 50.241741204991214 ], [ 6.815693630947189, 50.239531461838006 ], [ 6.848669343231212, 50.241791691008132 ], [ 6.874975317855523, 50.269526890631496 ], [ 6.884870225675776, 50.279974581610794 ], [ 6.920325149803416, 50.306671096222978 ], [ 6.918863016812679, 50.307380012390858 ], [ 6.961353993606527, 50.314683062796327 ], [ 7.000000000422981, 50.344259523680392 ], [ 7.007241382810311, 50.349799420668447 ], [ 7.044632929163427, 50.379007419425371 ] ], [ [ 6.815013493089386, 50.112269727991588 ], [ 6.82938414632002, 50.041032092686173 ], [ 6.846628929657792, 50.027119655474216 ], [ 6.866747844000987, 50.021901446673553 ], [ 6.878244367124495, 50.034076380728735 ], [ 6.863873713893859, 50.044509568982434 ], [ 6.866747844000987, 50.05320215036236 ], [ 6.872496106011908, 50.061893149246025 ], [ 6.892615020355103, 50.065369105212227 ], [ 6.909859803692864, 50.067106988507319 ], [ 6.901237411574818, 50.093167637982631 ], [ 6.849503060663216, 50.119214043605147 ], [ 6.815013493089386, 50.112269727991588 ] ], [ [ 7.050670264541192, 49.869752242762246 ], [ 7.05113319694981, 49.871405716021783 ], [ 7.049113407797013, 49.880805234943793 ], [ 7.048203119766779, 49.883691132230176 ], [ 7.045273042583757, 49.891993459789099 ], [ 7.024210711240936, 49.906350287268424 ], [ 7.023771912072409, 49.924609798707941 ], [ 7.000000000422981, 49.93067145165692 ], [ 6.982480966818842, 49.935138177758375 ], [ 6.976623006138703, 49.923622190890526 ], [ 6.975964808733408, 49.912481145252308 ], [ 6.982020228994472, 49.899172410214227 ], [ 7.000000000422981, 49.872134800038609 ], [ 7.004135676904433, 49.865913500529629 ], [ 7.035443954324334, 49.857929678848365 ], [ 7.050670264541192, 49.869752242762246 ] ], [ [ 6.586158099317342, 49.667555141233059 ], [ 6.566894841960333, 49.663291394267013 ], [ 6.558316329849004, 49.649022631004051 ], [ 6.564766669271868, 49.630468410159921 ], [ 6.594670790969505, 49.631871182128968 ], [ 6.616062221913276, 49.624740001563431 ], [ 6.635303538817776, 49.611863224831694 ], [ 6.656673029309029, 49.617593155336706 ], [ 6.671636060384111, 49.630453797634772 ], [ 6.656673029309029, 49.636166919181782 ], [ 6.639581824647204, 49.64044766570477 ], [ 6.626746967158921, 49.65042486554993 ], [ 6.611783935185515, 49.657566868839943 ], [ 6.598949077697231, 49.663291394267013 ], [ 6.586158099317342, 49.667555141233059 ] ] ] ] } }
]
}
