{
"type": "FeatureCollection",
"name": "TurkmenKhanate",
"crs": { "type": "name", "properties": { "name": "urn:ogc:def:crs:OGC:1.3:CRS84" } },
"features": [
{ "type": "Feature", "properties": { "OBJECTID": 89.0, "YEAR": 1700.0, "OWNER_ID": 7430.0, "SHORT_NAME": "Turkmenistan", "LONG_NAME": "Turkmen Khanate", "VARIANTS": null, "SHAPE_LENG": 485674.3, "Shape__Are": 5269481668.1386719, "Shape__Len": 486756.12014127121 }, "geometry": { "type": "MultiPolygon", "coordinates": [ [ [ [ 50.285210438082956, 44.486834874997328 ], [ 50.289520798259609, 44.500000000095532 ], [ 50.327572961181069, 44.617098566046572 ], [ 50.809471221025078, 44.625887669940653 ], [ 50.986865653565843, 44.530590237317966 ], [ 50.986363250980268, 44.500000000095532 ], [ 50.978117854837514, 44.000000000164377 ], [ 50.975516600574345, 43.842714381665864 ], [ 50.827289405296902, 44.000000000164377 ], [ 50.814643770736694, 44.013513222580052 ], [ 50.800173727903037, 44.232757295501742 ], [ 50.388552296889721, 44.296336397476608 ], [ 50.314237823826225, 44.356531616737335 ], [ 50.285210438082956, 44.486834874997328 ] ] ], [ [ [ 50.152295564015873, 45.022952057051839 ], [ 50.223358097123302, 45.040569673370605 ], [ 50.273097505384548, 45.001024842964661 ], [ 50.272497303213981, 45.000000000297035 ], [ 50.236082132149932, 44.931794636436933 ], [ 50.185142342903774, 44.897621141399171 ], [ 50.19027124257741, 44.952006194892981 ], [ 50.168075113378542, 44.984750414569795 ], [ 50.162121748920285, 45.000000000297035 ], [ 50.152295564015873, 45.022952057051839 ] ] ], [ [ [ 49.998123041507014, 44.982213770924147 ], [ 50.007795926213255, 45.000000000297035 ], [ 50.023920311864039, 45.027035030599762 ], [ 50.023499960498192, 45.02739033802608 ], [ 50.023552122971793, 45.027416239368875 ], [ 50.036608771808787, 45.021697837564815 ], [ 50.037119261028558, 45.02145957674005 ], [ 50.049717583119374, 45.015502436059847 ], [ 50.041050289610176, 45.000000000297035 ], [ 50.036818947940858, 44.991701521472294 ], [ 50.028219857222979, 44.966397340988024 ], [ 50.045418037760435, 44.934751305210753 ], [ 50.045418037760435, 44.893585196834607 ], [ 50.079814399733657, 44.855559363143833 ], [ 50.109911215449621, 44.855559363143833 ], [ 50.127109395987063, 44.839707799566611 ], [ 50.07551485437471, 44.823851844261895 ], [ 50.045418037760435, 44.849219264207839 ], [ 50.015321222044477, 44.890417343848249 ], [ 50.015321222044477, 44.931585735231558 ], [ 49.998123041507014, 44.982213770924147 ] ] ] ] } }
]
}
