{
"type": "FeatureCollection",
"name": "Tuscany",
"crs": { "type": "name", "properties": { "name": "urn:ogc:def:crs:OGC:1.3:CRS84" } },
"features": [
{ "type": "Feature", "properties": { "OBJECTID": 81.0, "YEAR": 1700.0, "OWNER_ID": 4973.0, "SHORT_NAME": "Tuscany", "LONG_NAME": "Grand-Duchy of Tuscany", "VARIANTS": null, "SHAPE_LENG": 1389056.0, "Shape__Are": 39850108595.841309, "Shape__Len": 1391532.1388074865 }, "geometry": { "type": "MultiPolygon", "coordinates": [ [ [ [ 11.919927051805905, 43.105516417700485 ], [ 11.919154518627868, 43.102031039384819 ], [ 11.959872813040635, 43.071125696067199 ], [ 11.977693933905122, 43.072710138721149 ], [ 11.984615824173476, 43.055570103095242 ], [ 11.967695647961945, 43.036791375120131 ], [ 11.956642597941395, 43.001256088468224 ], [ 11.956713970887352, 43.00000000005209 ], [ 11.958664228640535, 42.965948029298822 ], [ 11.936228514263812, 42.935049723352151 ], [ 11.938905489318911, 42.932345866494416 ], [ 11.950072295698833, 42.921065637872339 ], [ 11.953588175956739, 42.895532417982523 ], [ 11.929921903489751, 42.867140741587932 ], [ 11.898806358715724, 42.863536550989423 ], [ 11.841145913502944, 42.804069020690754 ], [ 11.810030368728917, 42.776150613163075 ], [ 11.782650446504334, 42.770849032640179 ], [ 11.756457134989688, 42.769688747307036 ], [ 11.711014375918912, 42.779244333140113 ], [ 11.694511709701983, 42.767223068696936 ], [ 11.695083040917629, 42.755602428583316 ], [ 11.746634643059407, 42.728871461943449 ], [ 11.757358079642643, 42.701241570072689 ], [ 11.739097473296761, 42.678360517508452 ], [ 11.717408884148581, 42.672598576016725 ], [ 11.720331459500676, 42.654486114593375 ], [ 11.736736091672334, 42.642578721827654 ], [ 11.759994989836073, 42.625692186843359 ], [ 11.747953097706962, 42.613220882088953 ], [ 11.716200299748479, 42.612009157781316 ], [ 11.675855567949982, 42.565153766804791 ], [ 11.639641995005363, 42.54875651114309 ], [ 11.575499145005628, 42.558685939318309 ], [ 11.565698627663826, 42.541801729207663 ], [ 11.564951502435283, 42.521418107279736 ], [ 11.54941570463675, 42.502953824400791 ], [ 11.563880266848862, 42.499999999702688 ], [ 11.598000782249473, 42.493087564324433 ], [ 11.603340526401769, 42.469076728268718 ], [ 11.57051098887912, 42.423117094494813 ], [ 11.500632858422653, 42.436571034401844 ], [ 11.499999999796566, 42.436216975966531 ], [ 11.460441946048569, 42.414081873372695 ], [ 11.45370024075822, 42.405448952347911 ], [ 11.391179094188077, 42.428486160484709 ], [ 11.330837790503223, 42.438805038787365 ], [ 11.306070772792731, 42.427460089456069 ], [ 11.307281389182005, 42.468594810414132 ], [ 11.311952112128139, 42.499999999702688 ], [ 11.314313150596128, 42.515997524517225 ], [ 11.299985936299382, 42.538453451297485 ], [ 11.255553993027334, 42.540168051020956 ], [ 11.220790721362837, 42.543257445742832 ], [ 11.171260750818512, 42.563116473798104 ], [ 11.131399452780055, 42.620022255110023 ], [ 11.096790000539976, 42.666787670287775 ], [ 11.065872224367324, 42.670387268290291 ], [ 11.013594275927842, 42.653848576601497 ], [ 11.009477778477716, 42.652546090288396 ], [ 10.999999999766354, 42.685352350671081 ], [ 10.990324735422933, 42.718824196138897 ], [ 10.973712198958548, 42.744898537281451 ], [ 10.94738704170965, 42.769801554273471 ], [ 10.880211744313737, 42.80289325596776 ], [ 10.82896778102079, 42.804648841972416 ], [ 10.779481758755109, 42.812475887917444 ], [ 10.726457881643046, 42.816582272833415 ], [ 10.703956245297517, 42.837753974793159 ], [ 10.746915913599278, 42.843854576641327 ], [ 10.765198493635324, 42.886686564899648 ], [ 10.765354950513412, 42.900581862456065 ], [ 10.781371545516627, 42.899375945215112 ], [ 10.797083137328055, 42.87034250129404 ], [ 10.817848808133116, 42.869650677791029 ], [ 10.834922804667377, 42.845689467373155 ], [ 10.860720579877588, 42.859578133147707 ], [ 10.892781017583216, 42.87613420363332 ], [ 10.872147192512406, 42.914828025632573 ], [ 10.848920404628499, 42.940128208534226 ], [ 10.822463401645352, 42.969755007273911 ], [ 10.8246608272557, 42.981881140542882 ], [ 10.804891243471969, 43.00000000005209 ], [ 10.798731206311238, 43.005691039473305 ], [ 10.783371202525601, 43.021372640342257 ], [ 10.765967592554029, 43.043326576531413 ], [ 10.743487929898663, 43.043941237676606 ], [ 10.684750746020033, 43.048162820892884 ], [ 10.67894438726476, 43.078315073644163 ], [ 10.6778068811632, 43.084220358219191 ], [ 10.587470719648817, 43.083024172510477 ], [ 10.572176637831989, 43.056896202447575 ], [ 10.556047535127643, 43.046933577603987 ], [ 10.519944234875728, 43.049393678516395 ], [ 10.528294050288791, 43.080049771552133 ], [ 10.53156821456499, 43.191199820052901 ], [ 10.520251473075941, 43.282332153545894 ], [ 10.49999999973614, 43.299525346223994 ], [ 10.479379359238756, 43.317026927569074 ], [ 10.464876350929114, 43.355000788192569 ], [ 10.426729043842649, 43.411956929466108 ], [ 10.406380883930504, 43.420750489249095 ], [ 10.352543959621091, 43.476889606928204 ], [ 10.321538285992835, 43.483104420984709 ], [ 10.315485200453201, 43.499999999890157 ], [ 10.295762484472789, 43.555478254655661 ], [ 10.319494679806901, 43.568172757694704 ], [ 10.320109959301192, 43.577534238084276 ], [ 10.296443686834204, 43.585132289887561 ], [ 10.277523852715385, 43.645042205182683 ], [ 10.269195610343871, 43.680591330657037 ], [ 10.245419466731114, 43.698357943642179 ], [ 10.250649338839324, 43.731295252595892 ], [ 10.234814951820134, 43.79114186862833 ], [ 10.287917675861314, 43.798017196148088 ], [ 10.317934508279324, 43.802366024065826 ], [ 10.35533469013725, 43.804588635544029 ], [ 10.442660378843934, 43.811094931682774 ], [ 10.476808371014139, 43.778008482072842 ], [ 10.499925287752276, 43.774189627266523 ], [ 10.49999999973614, 43.774205384918524 ], [ 10.529722376980432, 43.780473687775498 ], [ 10.567210456293962, 43.819725945481359 ], [ 10.661084473553045, 43.820096277989336 ], [ 10.697803126062789, 43.824865063754402 ], [ 10.69802544562088, 43.823946089025668 ], [ 10.722326721890852, 43.828049819187378 ], [ 10.756408791193934, 43.870311257068991 ], [ 10.744931854038583, 43.888828635311128 ], [ 10.729929814520622, 43.913024826475358 ], [ 10.711295646458785, 43.949988310303027 ], [ 10.698616501145221, 43.982850296860043 ], [ 10.713903406321243, 44.000000000164377 ], [ 10.719667837108943, 44.006520662828713 ], [ 10.712745946840592, 44.040375059143756 ], [ 10.703406888670349, 44.072690098018427 ], [ 10.62482695232978, 44.086707165525652 ], [ 10.598567717948008, 44.109415150951364 ], [ 10.603211932508424, 44.132874110649965 ], [ 10.606340339739884, 44.152974554226077 ], [ 10.608687881919044, 44.152943707567871 ], [ 10.651547646781427, 44.170787774980916 ], [ 10.668863359297394, 44.167736812394445 ], [ 10.714020453209503, 44.161408383453171 ], [ 10.753771881000505, 44.153351563313485 ], [ 10.784931374053176, 44.149799105877676 ], [ 10.813673700102278, 44.149976734089435 ], [ 10.84373451583323, 44.139625041910804 ], [ 10.928862744793584, 44.109269718698286 ], [ 10.960967130777858, 44.133858842199118 ], [ 10.999999999766354, 44.140940039081485 ], [ 11.004146542269474, 44.141692238577157 ], [ 11.028120454483609, 44.135490213210019 ], [ 11.042777282217667, 44.118382790156311 ], [ 11.063784669902745, 44.11374564176311 ], [ 11.0788809831182, 44.097100592945381 ], [ 11.113732151339985, 44.101512798366308 ], [ 11.151791560970844, 44.085915055439095 ], [ 11.168691699361649, 44.087854439126545 ], [ 11.207716039744838, 44.092332452640029 ], [ 11.215011492627459, 44.110578597945825 ], [ 11.216088231293313, 44.130321357441339 ], [ 11.239798452038947, 44.140787817507544 ], [ 11.258564465835033, 44.169560952152551 ], [ 11.283681039582143, 44.186637307567729 ], [ 11.316840189643788, 44.195270431327764 ], [ 11.362986125664456, 44.203095620317441 ], [ 11.40686871230934, 44.175468836545093 ], [ 11.432468719816491, 44.165040855903641 ], [ 11.455168124763397, 44.163491028588759 ], [ 11.476285384492563, 44.151155524385644 ], [ 11.499999999796566, 44.142475461732232 ], [ 11.504566250471786, 44.140803967913619 ], [ 11.546295360683281, 44.140448656009745 ], [ 11.547974125998037, 44.138186542662872 ], [ 11.563962661225037, 44.116637843389583 ], [ 11.548822399730939, 44.088356012419368 ], [ 11.550074932409688, 44.070571888373458 ], [ 11.590661381088205, 44.060513392066312 ], [ 11.679371448207887, 44.065251772516653 ], [ 11.733516012264445, 44.076554421439326 ], [ 11.765158939975473, 44.095080241917827 ], [ 11.800251825077281, 44.124247369334796 ], [ 11.877491331283498, 44.150606501797405 ], [ 11.930053749224001, 44.164411243946148 ], [ 11.963037106171065, 44.156467859427295 ], [ 11.979957282382594, 44.129400606804211 ], [ 11.962817362981209, 44.092720383283051 ], [ 11.962905260436814, 44.016361805441903 ], [ 11.973222310863616, 44.000000000164377 ], [ 11.975408610839168, 43.996561469018296 ], [ 11.980924149004363, 43.983588919513068 ], [ 11.984725695319245, 43.969682001841868 ], [ 11.999999999826779, 43.959531051515114 ], [ 12.022477465202959, 43.944589870269816 ], [ 12.04829721500165, 43.949249267463095 ], [ 12.083895508451979, 43.96285581370082 ], [ 12.107012424291801, 43.953554865476669 ], [ 12.090861346998977, 43.936218098606105 ], [ 12.078072330539641, 43.922444675142053 ], [ 12.11063817659379, 43.913732171133972 ], [ 12.134809856510985, 43.92074085459835 ], [ 12.152184979108265, 43.913016829715382 ], [ 12.153685741452843, 43.912349625713006 ], [ 12.148874258789894, 43.899547009371851 ], [ 12.14410496640258, 43.886814959553021 ], [ 12.12226255693167, 43.859048780021588 ], [ 12.110835944296852, 43.838062679472813 ], [ 12.100024611156323, 43.785661564205242 ], [ 12.109847103086604, 43.7758009882659 ], [ 12.18530669457539, 43.776542199460856 ], [ 12.202644381679836, 43.763166746408871 ], [ 12.234309283081028, 43.78002254663285 ], [ 12.288234104846048, 43.781085945411284 ], [ 12.315416258469254, 43.768162750430662 ], [ 12.355365453963319, 43.761361635979625 ], [ 12.371956016737538, 43.746483498077922 ], [ 12.368747775328464, 43.72892476256154 ], [ 12.335808366660045, 43.731601635985939 ], [ 12.328073429194342, 43.722909420990767 ], [ 12.356310346894919, 43.709376712362598 ], [ 12.345235322285889, 43.697163986942677 ], [ 12.270237189968666, 43.6974866806205 ], [ 12.257426199819166, 43.685416756866559 ], [ 12.215960780177857, 43.673667209726503 ], [ 12.237781215958604, 43.650145017701718 ], [ 12.212943686786513, 43.608832656439681 ], [ 12.195612620265713, 43.554604902953287 ], [ 12.163662053705853, 43.549865940570498 ], [ 12.113560751945885, 43.526521479569446 ], [ 12.104946844415704, 43.514028536232829 ], [ 12.113681601402742, 43.499999999890157 ], [ 12.118834573231055, 43.491791234637191 ], [ 12.169507205308356, 43.47417544249857 ], [ 12.177901370546996, 43.43515178557039 ], [ 12.162629263318648, 43.418998310263866 ], [ 12.120790281961382, 43.411217376247407 ], [ 12.120043157631159, 43.400492827973615 ], [ 12.147510976413029, 43.39742142821423 ], [ 12.156454498278835, 43.386051060008612 ], [ 12.149181019086377, 43.356642187840734 ], [ 12.152191492792392, 43.340789549561009 ], [ 12.168364543775379, 43.340177892082146 ], [ 12.180560255328905, 43.363722222544588 ], [ 12.199655883460618, 43.364719796398013 ], [ 12.223058464459104, 43.360053580907092 ], [ 12.229496920967417, 43.343187830683078 ], [ 12.218158205788205, 43.321229535835336 ], [ 12.173550468503262, 43.313532581919191 ], [ 12.098552336186037, 43.284781091904961 ], [ 12.06251455815263, 43.301582644853646 ], [ 12.036365194916629, 43.289098716110502 ], [ 12.027421673050821, 43.251695922682977 ], [ 12.013358149324258, 43.23178452637903 ], [ 11.999999999826779, 43.227776674600051 ], [ 11.968640540893547, 43.218366838741083 ], [ 11.945567573332369, 43.201461479712911 ], [ 11.93868963134266, 43.131176283828822 ], [ 11.923219755512937, 43.120369616971338 ], [ 11.919927051805905, 43.105516417700485 ] ] ], [ [ [ 9.693422409772666, 44.42328688608805 ], [ 9.700991684425249, 44.425472704663505 ], [ 9.719903903525404, 44.429667317564302 ], [ 9.746231817703904, 44.434279434190103 ], [ 9.762204085339427, 44.435757804862178 ], [ 9.787171723802322, 44.457013258662954 ], [ 9.814113956277762, 44.480524956596973 ], [ 9.839125474747339, 44.491169534679273 ], [ 9.8820399748583, 44.493256477511054 ], [ 9.936889795464637, 44.492694615757948 ], [ 9.999967089925494, 44.482628338866895 ], [ 9.999999999705929, 44.481895631307815 ], [ 10.002098541464745, 44.435227524487729 ], [ 10.028401724125166, 44.412710219154363 ], [ 10.059758986677528, 44.40367512789404 ], [ 10.09153375922449, 44.402131625952094 ], [ 10.106652046130106, 44.400957894812237 ], [ 10.108102347410227, 44.396809447871178 ], [ 10.127945099872168, 44.386710439741471 ], [ 10.154687768013979, 44.366281924990531 ], [ 10.184836445267926, 44.35546960311909 ], [ 10.179584598571235, 44.337750429986222 ], [ 10.143678666272077, 44.303874267287547 ], [ 10.121264925585519, 44.238239589616846 ], [ 10.110695309325012, 44.174661783812752 ], [ 10.160906482230752, 44.176259738169705 ], [ 10.168179960524897, 44.148717178374902 ], [ 10.173079699071248, 44.140837307626924 ], [ 10.171585969637031, 44.140335601741221 ], [ 10.157786137378968, 44.12646057119391 ], [ 10.088589209283915, 44.114989790538822 ], [ 10.080920193787021, 44.121791749238504 ], [ 10.045519668938068, 44.115959239111518 ], [ 10.041639577528001, 44.113412780331423 ], [ 10.037784731472366, 44.112049032098717 ], [ 10.02144273433389, 44.113060643988433 ], [ 10.008449101415771, 44.116460114825983 ], [ 9.999999999705929, 44.122424059298574 ], [ 9.990313521692816, 44.129271377658327 ], [ 9.966201540216144, 44.142741996001249 ], [ 9.9285087429342, 44.179616913399634 ], [ 9.912382895724447, 44.218081566215616 ], [ 9.863347155791564, 44.244011567224092 ], [ 9.845246714569262, 44.277793602232038 ], [ 9.819401478667645, 44.283593893487094 ], [ 9.810669386982056, 44.304164165476088 ], [ 9.772823011024196, 44.352154709480388 ], [ 9.74204129098953, 44.36333769708861 ], [ 9.728877333900279, 44.388608158280519 ], [ 9.709175278273085, 44.412758445770457 ], [ 9.693422409772666, 44.42328688608805 ] ] ], [ [ [ 10.158987467883152, 43.948475004411435 ], [ 10.200416192243418, 43.974210942220154 ], [ 10.218967511381548, 43.989437785628802 ], [ 10.220627452499524, 43.99080006620175 ], [ 10.228587187076872, 43.997332025320461 ], [ 10.233598532314124, 44.000000000164377 ], [ 10.245924874181318, 44.006617787479961 ], [ 10.265108398870321, 44.006731099262524 ], [ 10.262653996698223, 44.000000000164377 ], [ 10.253857580248397, 43.976073809933268 ], [ 10.235069592762146, 43.957828022452745 ], [ 10.220165245031332, 43.94444169233126 ], [ 10.218967511381548, 43.943365816671673 ], [ 10.215563832499262, 43.940308323194095 ], [ 10.194093519592078, 43.921018088525621 ], [ 10.182934487232624, 43.910810812614095 ], [ 10.158987467883152, 43.948475004411435 ] ] ], [ [ [ 10.319710112880024, 42.84050573439788 ], [ 10.285412610503821, 42.834131957647344 ], [ 10.25911529204558, 42.839939161998082 ], [ 10.258406250893508, 42.852754894845233 ], [ 10.276337242903764, 42.849149858370225 ], [ 10.324702578224947, 42.856585013546393 ], [ 10.329492965750077, 42.851966311061126 ], [ 10.319710112880024, 42.84050573439788 ] ] ], [ [ [ 9.886581539829512, 43.443652716154716 ], [ 9.886581539829512, 43.463783393204359 ], [ 9.90369468404554, 43.458755373003477 ], [ 9.907139252442931, 43.443652716154716 ], [ 9.886581539829512, 43.443652716154716 ] ] ] ] } }
]
}
