{
"type": "FeatureCollection",
"name": "Ulm",
"crs": { "type": "name", "properties": { "name": "urn:ogc:def:crs:OGC:1.3:CRS84" } },
"features": [
{ "type": "Feature", "properties": { "OBJECTID": 100.0, "YEAR": 1700.0, "OWNER_ID": 9664.0, "SHORT_NAME": "Ulm", "LONG_NAME": "Imperial City of Ulm", "VARIANTS": null, "SHAPE_LENG": 143957.4, "Shape__Are": 568440212.26464844, "Shape__Len": 144164.2485561709 }, "geometry": { "type": "MultiPolygon", "coordinates": [ [ [ [ 9.81612933470252, 48.521445473687081 ], [ 9.789236257141113, 48.559322857768997 ], [ 9.798408013072839, 48.577669619939194 ], [ 9.824619129196417, 48.586405851993241 ], [ 9.844266793629789, 48.592953473409658 ], [ 9.880953818255009, 48.559322857768997 ], [ 9.940570232709549, 48.513426658176925 ], [ 9.938654831386021, 48.500000000192749 ], [ 9.932401637133697, 48.456574413812049 ], [ 9.968085501403044, 48.452639103021802 ], [ 9.999999999705929, 48.457918455668811 ], [ 10.004779992824906, 48.458707887539632 ], [ 10.011939333873997, 48.448301868002169 ], [ 10.01880935631616, 48.4383143520595 ], [ 10.045836242430717, 48.440749939072141 ], [ 10.110420211049034, 48.446569589373354 ], [ 10.114850232211417, 48.436811268980868 ], [ 10.069669375165097, 48.428221305957457 ], [ 10.098646090536446, 48.395933099943605 ], [ 10.07826883958214, 48.379756768278568 ], [ 10.02591910407336, 48.390776351921595 ], [ 10.0190845992209, 48.387950644404867 ], [ 10.013966098444982, 48.385834310898318 ], [ 9.999999999705929, 48.382754404414975 ], [ 9.945156110675411, 48.370639086536606 ], [ 9.905101515849065, 48.356341980164792 ], [ 9.885539696220873, 48.349358106938247 ], [ 9.876067461911445, 48.354068485742957 ], [ 9.848852671595651, 48.367599494289806 ], [ 9.828802815239905, 48.385869616788241 ], [ 9.823285651124051, 48.390895890117825 ], [ 9.847265187690178, 48.390107480729135 ], [ 9.835615085890767, 48.408550429897957 ], [ 9.856874876814487, 48.416992120594919 ], [ 9.849678579972926, 48.430574324522574 ], [ 9.862030760082639, 48.454171074212987 ], [ 9.8586739508003, 48.486752751990544 ], [ 9.858432611212701, 48.49991007174696 ], [ 9.85817889733206, 48.500000000192749 ], [ 9.832938414466234, 48.509034774533511 ], [ 9.81979639782948, 48.519608441527751 ], [ 9.81612933470252, 48.521445473687081 ] ] ] ] } }
]
}
