{
"type": "FeatureCollection",
"name": "Waldeck-Pyrmont",
"crs": { "type": "name", "properties": { "name": "urn:ogc:def:crs:OGC:1.3:CRS84" } },
"features": [
{ "type": "Feature", "properties": { "OBJECTID": 12.0, "YEAR": 1700.0, "OWNER_ID": 2746.0, "SHORT_NAME": "Waldeck", "LONG_NAME": "Principality of Waldeck-Pyrmont", "VARIANTS": null, "SHAPE_LENG": 470641.8, "Shape__Are": 2990957480.7426758, "Shape__Len": 471278.47912801005 }, "geometry": { "type": "MultiPolygon", "coordinates": [ [ [ [ 8.883709874639083, 51.486702945083088 ], [ 8.88655335512704, 51.489197028908301 ], [ 8.89013580773401, 51.492339088634658 ], [ 8.923254907307037, 51.500000000093614 ], [ 8.947640361109041, 51.50570240963561 ], [ 8.974867812280442, 51.514085635189517 ], [ 8.999999999645505, 51.514624878513928 ], [ 9.000252309459356, 51.514630292325684 ], [ 9.034939335715798, 51.514218479270468 ], [ 9.063566516610095, 51.500000000093614 ], [ 9.072149454720853, 51.49578294602113 ], [ 9.115919611818036, 51.49268085738624 ], [ 9.14266438471256, 51.492838595941386 ], [ 9.175837556577473, 51.491537237014356 ], [ 9.203767086059187, 51.494718269816374 ], [ 9.234044187364466, 51.49448167158495 ], [ 9.243258957326942, 51.493482688786557 ], [ 9.24104302462511, 51.476812196447632 ], [ 9.204030365200971, 51.465831042670352 ], [ 9.158856052381497, 51.459951416360774 ], [ 9.15900963195573, 51.440807763587884 ], [ 9.144244059563269, 51.438636324509254 ], [ 9.12930296804239, 51.448216195930293 ], [ 9.085576690951891, 51.437767719708404 ], [ 9.089130959815146, 51.421945680370079 ], [ 9.063746461737917, 51.415270340068147 ], [ 9.077458917563238, 51.401890376986643 ], [ 9.05233769952611, 51.393986975134311 ], [ 9.061486649927717, 51.381075134144105 ], [ 9.041433555145373, 51.360289920134235 ], [ 9.034544417452278, 51.334680891194218 ], [ 9.052754558242128, 51.325103481405748 ], [ 9.033162202182485, 51.302959568487722 ], [ 9.050582505546981, 51.267504314923904 ], [ 9.035092915290033, 51.252891653283207 ], [ 9.022850435646186, 51.236450132003789 ], [ 9.027984378461836, 51.213363882292711 ], [ 9.081715263838483, 51.184125760209291 ], [ 9.126253318806837, 51.145757181099732 ], [ 9.137069703174205, 51.142366282053395 ], [ 9.159031571509916, 51.151995252010813 ], [ 9.181805217723477, 51.138869154477263 ], [ 9.162300620778886, 51.113493762640999 ], [ 9.140887250280933, 51.100542275490255 ], [ 9.125902279651683, 51.06358995227324 ], [ 9.101614779046594, 51.055335955731088 ], [ 9.094484301765899, 51.037163989837786 ], [ 9.070657539883509, 51.031773409368732 ], [ 9.056879264497322, 51.026408757739993 ], [ 9.033995919614522, 51.035544226433977 ], [ 9.029805392900146, 51.057737994902872 ], [ 9.003477478721644, 51.09444307553926 ], [ 8.999999999645505, 51.094561199357543 ], [ 8.982788126088176, 51.095145850630075 ], [ 8.966333180175759, 51.107621636794327 ], [ 8.959378222023501, 51.152644174521903 ], [ 8.962998310447633, 51.223665542970274 ], [ 8.909201606408436, 51.222792834763524 ], [ 8.874624278821194, 51.214831911332695 ], [ 8.878617345954661, 51.146273741826249 ], [ 8.859310208590996, 51.140008399697052 ], [ 8.831863358284505, 51.097996621185935 ], [ 8.778439632056308, 51.12126025342274 ], [ 8.744717962353647, 51.118821769599606 ], [ 8.700618705655488, 51.105924810467158 ], [ 8.660923832201522, 51.086216503030762 ], [ 8.657265407274334, 51.101496859808982 ], [ 8.68517299630353, 51.139452027944522 ], [ 8.719311524722208, 51.171008852194397 ], [ 8.717139472027061, 51.194592770377881 ], [ 8.712510147042508, 51.228927884777498 ], [ 8.66648017723681, 51.291791160968067 ], [ 8.584380965006572, 51.29305863571102 ], [ 8.54835560258868, 51.270014157095552 ], [ 8.526130455111202, 51.302075172385884 ], [ 8.515796748122376, 51.318242392459112 ], [ 8.55594681769376, 51.344032096183895 ], [ 8.64605410374511, 51.360817246743139 ], [ 8.654391276268864, 51.37166562878101 ], [ 8.687498628572913, 51.372548676303502 ], [ 8.710601373489116, 51.3719555867564 ], [ 8.752111717877813, 51.373919342770542 ], [ 8.791450009571333, 51.366182443530278 ], [ 8.842021545246542, 51.362570562149308 ], [ 8.896125408434209, 51.367988277121022 ], [ 8.89184712260478, 51.405393778980944 ], [ 8.903870203113534, 51.430831446922774 ], [ 8.89792448242002, 51.438544200485218 ], [ 8.873790561389184, 51.448703030865936 ], [ 8.86747186198634, 51.456452217400908 ], [ 8.872539985241124, 51.476904242864727 ], [ 8.883709874639083, 51.486702945083088 ] ] ], [ [ [ 9.303593759904082, 51.892678548241896 ], [ 9.300697689344446, 51.899844153316685 ], [ 9.290471927513448, 51.918904863481899 ], [ 9.280161916285214, 51.93781321202944 ], [ 9.270526338612729, 51.944171979360235 ], [ 9.264841264997226, 51.946783097050911 ], [ 9.250038394554169, 51.951839376295403 ], [ 9.235595779082763, 51.951839376295403 ], [ 9.220595010680929, 51.951839376295403 ], [ 9.190845994795204, 51.953037159747737 ], [ 9.190144583933154, 51.954574227655435 ], [ 9.189890738898486, 51.966800537732858 ], [ 9.18991443465905, 51.970162139428659 ], [ 9.192533842077482, 51.989790529496673 ], [ 9.199173742194997, 51.995967223387169 ], [ 9.204076877271437, 51.999360793880221 ], [ 9.205144116253161, 51.999999999749583 ], [ 9.215724347007063, 52.006407905106933 ], [ 9.250016454999987, 52.018139608643423 ], [ 9.281039513723936, 52.015163795149896 ], [ 9.309780820185189, 52.011045153808112 ], [ 9.330140261140672, 51.999999999749583 ], [ 9.333932042768417, 51.997965596716547 ], [ 9.33281774464222, 51.950063323567299 ], [ 9.405724127362491, 51.918595738918832 ], [ 9.387952784842843, 51.909563302780043 ], [ 9.388511267454982, 51.900182156334942 ], [ 9.385649093025961, 51.90012074336196 ], [ 9.35144474414809, 51.897828943070103 ], [ 9.303593759904082, 51.892678548241896 ] ] ] ] } }
]
}
