{
"type": "FeatureCollection",
"name": "Wetzlar",
"crs": { "type": "name", "properties": { "name": "urn:ogc:def:crs:OGC:1.3:CRS84" } },
"features": [
{ "type": "Feature", "properties": { "OBJECTID": 105.0, "YEAR": 1700.0, "OWNER_ID": 15023.0, "SHORT_NAME": "Wetzlar", "LONG_NAME": "Imperial City of Wetzlar", "VARIANTS": null, "SHAPE_LENG": 19169.6, "Shape__Are": 23711235.917480469, "Shape__Len": 19192.40475784822 }, "geometry": { "type": "MultiPolygon", "coordinates": [ [ [ [ 8.500099059536627, 50.53361549553027 ], [ 8.499999999615302, 50.533642137268437 ], [ 8.495438271957537, 50.53486897486971 ], [ 8.477830852214277, 50.541083649310956 ], [ 8.482232706700946, 50.550847903142241 ], [ 8.497919405297537, 50.562060777831519 ], [ 8.499999999615302, 50.561417605641779 ], [ 8.518144320844268, 50.555808300545067 ], [ 8.535160189193114, 50.558263750249949 ], [ 8.537989536486714, 50.550847903142241 ], [ 8.533587682000082, 50.541971393066618 ], [ 8.530653111443973, 50.541083649310956 ], [ 8.524783972128459, 50.53486897486971 ], [ 8.50864383721412, 50.53131736252594 ], [ 8.500099059536627, 50.53361549553027 ] ] ] ] } }
]
}
