{
"type": "FeatureCollection",
"name": "Wittelsbach",
"crs": { "type": "name", "properties": { "name": "urn:ogc:def:crs:OGC:1.3:CRS84" } },
"features": [
{ "type": "Feature", "properties": { "OBJECTID": 33.0, "YEAR": 1700.0, "OWNER_ID": 923.0, "SHORT_NAME": "Wittelsbach", "LONG_NAME": "House of Wittelsbach", "VARIANTS": "Dominions of Johann Wilhelm II, Elector Palatine", "SHAPE_LENG": 5470287.0, "Shape__Are": 37080545949.461914, "Shape__Len": 5477539.0860400535 }, "geometry": { "type": "MultiPolygon", "coordinates": [ [ [ [ 5.870455639377458, 51.137725440095089 ], [ 5.877783628341358, 51.130337166682104 ], [ 5.921531845884358, 51.128800180465745 ], [ 5.938864389235505, 51.102332104762546 ], [ 5.989019066194683, 51.101523375772913 ], [ 5.995754623415229, 51.117390425489099 ], [ 6.000000000362556, 51.123867054902732 ], [ 6.006022509944854, 51.13305326632419 ], [ 6.056528226059195, 51.140458790833122 ], [ 6.072171394992071, 51.147055193877875 ], [ 6.086695627796948, 51.163118369814519 ], [ 6.087441585215621, 51.165488304925006 ], [ 6.046018999941994, 51.170902948588818 ], [ 6.0251541281801, 51.181624439936449 ], [ 6.000559468426551, 51.184496314905566 ], [ 6.002292722851504, 51.196365705601352 ], [ 6.024737269464081, 51.206419863861896 ], [ 6.044329625523733, 51.20597011938014 ], [ 6.103984291141368, 51.193203481403309 ], [ 6.110478509672626, 51.19185384665716 ], [ 6.158110094781552, 51.207967479125472 ], [ 6.165657429879952, 51.205573282911857 ], [ 6.194245156766959, 51.167513906374104 ], [ 6.222416024937977, 51.149412713832007 ], [ 6.275159613308332, 51.135769205937144 ], [ 6.308069506031453, 51.112499662953752 ], [ 6.329066016915081, 51.11910008155315 ], [ 6.353601077042799, 51.124491294022398 ], [ 6.395434301097409, 51.108337466530493 ], [ 6.421498936134145, 51.105314998368364 ], [ 6.422990850971487, 51.097837512971765 ], [ 6.415289936298846, 51.086115035813393 ], [ 6.436220627621608, 51.082587099674377 ], [ 6.44477720017876, 51.090968822099214 ], [ 6.45508896671507, 51.085637586781637 ], [ 6.476063538044523, 51.092626418712783 ], [ 6.467331446358925, 51.137226472963007 ], [ 6.485651286716308, 51.134709346074075 ], [ 6.500000000392768, 51.129682365745204 ], [ 6.502896070952404, 51.128667679148961 ], [ 6.549913336866049, 51.12686562443097 ], [ 6.567553039365664, 51.103034759312422 ], [ 6.579159262056688, 51.110418611847486 ], [ 6.658932842017553, 51.134590110245441 ], [ 6.653820838756078, 51.159728753086888 ], [ 6.697547115846577, 51.183119954924152 ], [ 6.733769937845352, 51.155557591383506 ], [ 6.739562078964632, 51.12775341021284 ], [ 6.767930406716538, 51.103750660463291 ], [ 6.778088593678613, 51.08325026617478 ], [ 6.764463897866685, 51.070781135763596 ], [ 6.718346168047613, 51.078515047219376 ], [ 6.675365848375785, 51.082016768919239 ], [ 6.652109523885308, 51.072903779444694 ], [ 6.645900524050045, 51.060790129039241 ], [ 6.648599135927059, 51.04449204345859 ], [ 6.604719278364037, 51.038558002770728 ], [ 6.570054191661753, 51.055468668440746 ], [ 6.542760920929495, 51.040496274933332 ], [ 6.557429858851878, 50.999999999968175 ], [ 6.558184690727243, 50.997937654971594 ], [ 6.538723973789343, 50.978689914688161 ], [ 6.573564580518334, 50.970522977982874 ], [ 6.637409771952057, 50.987512791671215 ], [ 6.68433927875066, 50.979478914153361 ], [ 6.759702933760335, 50.98075443467576 ], [ 6.78632419189657, 50.999999999968175 ], [ 6.809857609821226, 51.017191785074587 ], [ 6.856830996626512, 51.039513873195339 ], [ 6.880899098096529, 51.029157556071034 ], [ 6.863369095164464, 51.01314051594138 ], [ 6.857797273055145, 50.999999999968175 ], [ 6.857116216220806, 50.998410858502211 ], [ 6.840683208964277, 50.988919562491091 ], [ 6.799940762446789, 50.978979215811343 ], [ 6.789080497174401, 50.965748399807772 ], [ 6.794675179611088, 50.944618586700493 ], [ 6.824842581348807, 50.936498275812369 ], [ 6.882347133825514, 50.94206551430586 ], [ 6.909728164571138, 50.942999902827687 ], [ 6.888951051924313, 50.920753709440852 ], [ 6.857533074038503, 50.888168094865279 ], [ 6.785899207918805, 50.87470040796314 ], [ 6.735722591405406, 50.849876407268852 ], [ 6.705818468809473, 50.815670572267891 ], [ 6.690526339031748, 50.768376777618997 ], [ 6.733440839142708, 50.759168568448381 ], [ 6.75943965461855, 50.738790417454567 ], [ 6.763827640015564, 50.725504137309073 ], [ 6.765846113136469, 50.709449786976649 ], [ 6.758232958477212, 50.688163300156774 ], [ 6.816724807061821, 50.68997613901179 ], [ 6.833311392994297, 50.699978566276116 ], [ 6.846804449684498, 50.717649569404109 ], [ 6.832916474730776, 50.727170087971878 ], [ 6.844829855671979, 50.736133464639494 ], [ 6.863193576036046, 50.730858765930478 ], [ 6.879758222414346, 50.741500089121409 ], [ 6.907687750997726, 50.734282760990709 ], [ 6.898100002325904, 50.717966951222458 ], [ 6.906130015701191, 50.70332546028277 ], [ 6.930110358056119, 50.694011767640617 ], [ 6.916573422257559, 50.66645669796403 ], [ 6.921071107222088, 50.65720185292809 ], [ 6.938842449741718, 50.655334772972502 ], [ 6.929781259353477, 50.625742860956976 ], [ 6.940005265876408, 50.623636008068566 ], [ 6.940685403734222, 50.610661532976756 ], [ 6.966859738338473, 50.598982754074136 ], [ 7.000000000422981, 50.597279021612316 ], [ 7.024627569956955, 50.596012883727418 ], [ 7.062364246347294, 50.599460037194582 ], [ 7.073202571167136, 50.622059118767822 ], [ 7.097775291366501, 50.626113869394644 ], [ 7.115414993866118, 50.609919268012206 ], [ 7.200295355181686, 50.631164217028136 ], [ 7.201792491925792, 50.630645233012807 ], [ 7.228230105671828, 50.634964194902309 ], [ 7.264869786386669, 50.640276235247562 ], [ 7.26605454297383, 50.65338816412067 ], [ 7.239726628795337, 50.657837437177051 ], [ 7.202845608492932, 50.652527392713225 ], [ 7.181958797176855, 50.678661286437972 ], [ 7.163244037657627, 50.697610460411937 ], [ 7.156047741714379, 50.707029252526887 ], [ 7.156727878673859, 50.740125446166672 ], [ 7.138539678336535, 50.750883586907221 ], [ 7.107933478328577, 50.750896801548784 ], [ 7.067344610486998, 50.766355619384406 ], [ 7.055014370829777, 50.776671853192404 ], [ 7.050604444980324, 50.792042891473649 ], [ 7.033140261609128, 50.804148628927756 ], [ 7.000000000422981, 50.809841492678345 ], [ 6.996566401353516, 50.810431279490572 ], [ 6.986254634817207, 50.823680136524715 ], [ 6.997685337481523, 50.836753739058942 ], [ 7.000000000422981, 50.837319424619672 ], [ 7.027370060942364, 50.844007933828884 ], [ 7.070218741492458, 50.859897252514259 ], [ 7.066181794352308, 50.873487860790448 ], [ 7.036935869161669, 50.884518237297797 ], [ 7.000000000422981, 50.887657044391283 ], [ 6.997707277035699, 50.887851872679413 ], [ 6.984214221243795, 50.906610628729091 ], [ 7.000000000422981, 50.913999519447714 ], [ 7.01330656686019, 50.920227042941342 ], [ 7.022499396370167, 50.93744593787396 ], [ 7.008216503152934, 50.954303187037809 ], [ 7.000000000422981, 50.956570324475784 ], [ 6.980703833285538, 50.961894178874608 ], [ 6.998628754481113, 50.971193747224852 ], [ 6.994460168219236, 50.984501894993038 ], [ 6.971181904174585, 50.991470047383658 ], [ 6.971977442308759, 50.999999999968175 ], [ 6.972235020741725, 51.002791559739784 ], [ 6.979409377130796, 51.0208708269233 ], [ 6.936429057458969, 51.063178614737119 ], [ 6.909267425848436, 51.07933744516049 ], [ 6.885023805250011, 51.083237002927078 ], [ 6.880131201123673, 51.095464085131212 ], [ 6.885045744804222, 51.111386246278094 ], [ 6.902158889020231, 51.12083617827917 ], [ 6.904594220857164, 51.135689717253385 ], [ 6.888380613634061, 51.139849436865603 ], [ 6.857357554910084, 51.130310667335912 ], [ 6.843272121273742, 51.136497845229783 ], [ 6.843008842131956, 51.176197825413844 ], [ 6.819862217209066, 51.180420051357615 ], [ 6.796803352299553, 51.173497514848336 ], [ 6.777693674516778, 51.184562485071858 ], [ 6.751585159473385, 51.223506869885533 ], [ 6.760975449462612, 51.235815614164622 ], [ 6.779514688955089, 51.242015006272204 ], [ 6.801871475554335, 51.228121384160083 ], [ 6.824008863916768, 51.231545608120641 ], [ 6.818458061486766, 51.252415936852287 ], [ 6.77587266097679, 51.270106622416122 ], [ 6.742589789544326, 51.277252299873744 ], [ 6.764771057015118, 51.329430714400807 ], [ 6.759834572882097, 51.348291600000252 ], [ 6.739671778532182, 51.36394152888797 ], [ 6.718280348486744, 51.370004925939568 ], [ 6.678108339361186, 51.368172810943726 ], [ 6.65796748546378, 51.382998966937556 ], [ 6.658494043747349, 51.395580938352772 ], [ 6.685809254033828, 51.406407871563871 ], [ 6.71738081149384, 51.411333141347122 ], [ 6.724248008734433, 51.422222152828859 ], [ 6.756017025775372, 51.417219061188895 ], [ 6.772064547078855, 51.415606105414589 ], [ 6.777999517633364, 51.415936206768031 ], [ 6.794148621327518, 51.421432227619363 ], [ 6.801476557290815, 51.44445291587207 ], [ 6.802222514709486, 51.457701962151084 ], [ 6.809309111983481, 51.473551005138987 ], [ 6.819598938067282, 51.48020463820518 ], [ 6.836843619895417, 51.489854559779054 ], [ 6.863039996461812, 51.489486535842445 ], [ 6.885923342242917, 51.475628727002778 ], [ 6.894238575212496, 51.463213584887882 ], [ 6.914269729542352, 51.460490743023506 ], [ 6.901018012439715, 51.454939322236143 ], [ 6.90402378256691, 51.441018322021229 ], [ 6.897551503589862, 51.417232227950805 ], [ 6.885879462236269, 51.405248906686253 ], [ 6.916288202663265, 51.389112526850823 ], [ 6.915278966102808, 51.383723677462889 ], [ 6.944020272564052, 51.379203930601328 ], [ 6.96275697163749, 51.379849636113711 ], [ 6.98805370880302, 51.382102945115832 ], [ 7.000000000422981, 51.386528681323405 ], [ 7.000537528034475, 51.386727809054335 ], [ 7.007711884423539, 51.38468554834548 ], [ 7.023223414234662, 51.387347057051436 ], [ 7.039766120160446, 51.391615687456827 ], [ 7.066905812216803, 51.39816277697691 ], [ 7.090206015815631, 51.397016774664898 ], [ 7.085379231250124, 51.388835853096353 ], [ 7.096766054806045, 51.380205429425615 ], [ 7.122567410701006, 51.356150197636111 ], [ 7.136345685188879, 51.361964159920717 ], [ 7.155784462572594, 51.353552790780142 ], [ 7.162366441117229, 51.32842809973193 ], [ 7.176364114740204, 51.311063533924518 ], [ 7.207101954768176, 51.307024929399667 ], [ 7.237752034782782, 51.310575224575814 ], [ 7.276344369057631, 51.314626711452966 ], [ 7.291000240984236, 51.305282675871311 ], [ 7.312567191056416, 51.304385125923538 ], [ 7.316494438629015, 51.295606680504257 ], [ 7.336174553803709, 51.29470894034182 ], [ 7.342098334943013, 51.311921361459611 ], [ 7.359365058733292, 51.317661791569755 ], [ 7.377421619948917, 51.302761570722666 ], [ 7.378079817354213, 51.290444431043227 ], [ 7.378450821566573, 51.281722600897467 ], [ 7.378738015657852, 51.268930979109726 ], [ 7.390592597372098, 51.243027977963784 ], [ 7.396909980743064, 51.233580454867564 ], [ 7.414039360211212, 51.213734200082392 ], [ 7.449231005197031, 51.207663250971727 ], [ 7.462351083177905, 51.175893386331289 ], [ 7.495019636313452, 51.154816011898767 ], [ 7.499999999554868, 51.132307396770507 ], [ 7.505901841139988, 51.105619905145971 ], [ 7.530342921319329, 51.086619005013617 ], [ 7.503049649688738, 51.073248699508156 ], [ 7.499999999554868, 51.072481677053887 ], [ 7.464545075427264, 51.063563414442108 ], [ 7.469240219972712, 51.046443339902538 ], [ 7.476839333964078, 51.041759559530519 ], [ 7.480007898583692, 51.039474576871491 ], [ 7.484438667144366, 51.034264307449114 ], [ 7.480714802643685, 51.032516975169166 ], [ 7.479136883101031, 51.032490685093379 ], [ 7.457005199938957, 51.034216641808051 ], [ 7.448896860657419, 51.035192518197185 ], [ 7.429243730873861, 51.037894192373791 ], [ 7.415531275048557, 51.010961981372866 ], [ 7.421543673194024, 50.999999999968175 ], [ 7.431657123156617, 50.981753787539652 ], [ 7.453991970201679, 50.937551233027676 ], [ 7.463448078853441, 50.878667325215304 ], [ 7.4931108627601, 50.841739471117037 ], [ 7.499999999554868, 50.843438731251361 ], [ 7.544976853691758, 50.854531095608003 ], [ 7.612595713123811, 50.83720221304393 ], [ 7.638353189012043, 50.850799470424498 ], [ 7.624969832787716, 50.884136105735962 ], [ 7.65410605751247, 50.901012778202237 ], [ 7.642543715726436, 50.942315564076317 ], [ 7.616764299385689, 50.954500541874737 ], [ 7.619901709532934, 50.972890355032128 ], [ 7.600462932149219, 50.986605598652808 ], [ 7.62687415069727, 50.999999999968175 ], [ 7.627317404611274, 51.000227210944772 ], [ 7.62805614765989, 50.999999999968175 ], [ 7.631507931325659, 50.99894977951346 ], [ 7.641863577868624, 50.998910346578938 ], [ 7.683198403128875, 50.984002250998728 ], [ 7.706586366741077, 50.99868689189087 ], [ 7.717428737572986, 50.995322447957825 ], [ 7.803889949633971, 50.968484306814617 ], [ 7.829076987231984, 50.924637691704952 ], [ 7.825605753243684, 50.924106837824951 ], [ 7.795157857948408, 50.919450198418176 ], [ 7.779404989447971, 50.899932644826457 ], [ 7.805162465336212, 50.874489532521679 ], [ 7.796737532799119, 50.819418217424229 ], [ 7.765911932757771, 50.816238017121563 ], [ 7.739123280754862, 50.795475590867227 ], [ 7.714857719703972, 50.798868433190101 ], [ 7.699894688628901, 50.78614069653468 ], [ 7.725301125361971, 50.762484790270598 ], [ 7.725498584942898, 50.722700975629039 ], [ 7.67082428346497, 50.721616688245383 ], [ 7.592696197915682, 50.680792128704269 ], [ 7.553687004924813, 50.675709709836589 ], [ 7.503334869283031, 50.669766283252642 ], [ 7.499999999554868, 50.669364970220101 ], [ 7.479683626529043, 50.666920054344786 ], [ 7.458186387519525, 50.646915747284574 ], [ 7.435803768965986, 50.665887425944632 ], [ 7.364499001548934, 50.664735620868811 ], [ 7.329768095285827, 50.642686987137296 ], [ 7.348329274332486, 50.634964194902309 ], [ 7.325796967706534, 50.611364022432163 ], [ 7.302123785398371, 50.622284392167778 ], [ 7.268797033959232, 50.607758680925365 ], [ 7.234294543221725, 50.605442471560771 ], [ 7.243330267269986, 50.571554567585714 ], [ 7.246571886481756, 50.559391104668876 ], [ 7.269741766990704, 50.549738537145153 ], [ 7.288915948302463, 50.541540715115843 ], [ 7.3243050528692, 50.508542749467409 ], [ 7.309210381774068, 50.506629882157931 ], [ 7.298519756156592, 50.499999999891088 ], [ 7.296507163407546, 50.498764985457704 ], [ 7.288550323202035, 50.499999999891088 ], [ 7.260767019685649, 50.504358251889798 ], [ 7.25704916132092, 50.499999999891088 ], [ 7.245365190340381, 50.486445925010806 ], [ 7.208045371767774, 50.494137499336766 ], [ 7.208227090169951, 50.499999999891088 ], [ 7.208462230483793, 50.507666028097873 ], [ 7.178558107887851, 50.511279076333899 ], [ 7.159119331402433, 50.514161345172766 ], [ 7.147433196380348, 50.499999999891088 ], [ 7.143849141178892, 50.495701955896756 ], [ 7.098938107501193, 50.499133061179442 ], [ 7.098403897368051, 50.499999999891088 ], [ 7.0907325740992, 50.512580767763644 ], [ 7.088692160525778, 50.542297337416578 ], [ 7.055738388694272, 50.552663168701798 ], [ 7.031165668494906, 50.566847767910055 ], [ 7.000000000422981, 50.559026875189211 ], [ 6.988338928397313, 50.556100242754802 ], [ 6.935836679614531, 50.55099098703662 ], [ 6.888534193208295, 50.534212788537467 ], [ 6.833070054305019, 50.532075261644742 ], [ 6.771726014269088, 50.522395424611211 ], [ 6.759680993307863, 50.501342525200009 ], [ 6.760163835976447, 50.499999999891088 ], [ 6.768062045838301, 50.478266494166355 ], [ 6.721088659033014, 50.478937208877213 ], [ 6.702308080851216, 50.476793519519184 ], [ 6.666743456257737, 50.483618791121707 ], [ 6.661741152563821, 50.493979736341458 ], [ 6.640525241646793, 50.494242674563608 ], [ 6.64091813959923, 50.499999999891088 ], [ 6.642258496071737, 50.51984567091489 ], [ 6.655510213174338, 50.533071015863214 ], [ 6.663562167002133, 50.532659439770725 ], [ 6.692457053037619, 50.543385791219805 ], [ 6.680828890792376, 50.559722832206042 ], [ 6.682145286501301, 50.569580696024602 ], [ 6.700245726825294, 50.592393099394442 ], [ 6.645571425347365, 50.609415582039887 ], [ 6.626001008841924, 50.624338302719806 ], [ 6.605991794066271, 50.603530003093496 ], [ 6.593749314422424, 50.594024026272898 ], [ 6.560400623429074, 50.592631775155198 ], [ 6.563055354401099, 50.573600199191013 ], [ 6.589558787708039, 50.570283802623749 ], [ 6.593244695693029, 50.552570271125887 ], [ 6.543704337929084, 50.55107061589645 ], [ 6.551975690891979, 50.530057133660215 ], [ 6.518275960743469, 50.524400602697085 ], [ 6.508227473348971, 50.548827679648362 ], [ 6.500000000392768, 50.549091395432299 ], [ 6.485453827135381, 50.549557641575092 ], [ 6.471982710897689, 50.520031594951583 ], [ 6.435584369770487, 50.521253364386318 ], [ 6.427159437233365, 50.54712881642984 ], [ 6.456273722403944, 50.562907294834062 ], [ 6.444338401010269, 50.589131076348195 ], [ 6.367460892507337, 50.587022574552293 ], [ 6.3656618176232, 50.575444013932163 ], [ 6.359562518253776, 50.563172657145046 ], [ 6.345477083719137, 50.548535692154005 ], [ 6.333322363190335, 50.523789763199929 ], [ 6.33463875889926, 50.514280882774905 ], [ 6.32474385107897, 50.513683192866303 ], [ 6.30775258309417, 50.499999999891088 ], [ 6.306928629450971, 50.499343389032141 ], [ 6.304397185065161, 50.494928628239144 ], [ 6.301566704995995, 50.496425556186459 ], [ 6.296243513201133, 50.499999999891088 ], [ 6.295322407658246, 50.500625099687895 ], [ 6.297428640792527, 50.520549522927375 ], [ 6.289837424789111, 50.535327981975456 ], [ 6.245409070286631, 50.557095487613687 ], [ 6.223469141505116, 50.60272134122841 ], [ 6.211862919712391, 50.607069392764529 ], [ 6.219103095662322, 50.650170122408703 ], [ 6.220891069166167, 50.650526769283175 ], [ 6.236896377736135, 50.653719226043719 ], [ 6.247603062535954, 50.665106319888132 ], [ 6.26021852178747, 50.689671798663646 ], [ 6.291109941389686, 50.692794500198978 ], [ 6.301224248345076, 50.709185253670832 ], [ 6.283321266703676, 50.740548417375344 ], [ 6.268599574317918, 50.752878988358873 ], [ 6.264562627177765, 50.76564224835893 ], [ 6.243631935855003, 50.763224632555421 ], [ 6.226496851186487, 50.762788655469066 ], [ 6.203547686742811, 50.767267132639432 ], [ 6.180115843123961, 50.770846962277645 ], [ 6.183692051541374, 50.79028683580411 ], [ 6.177483051706103, 50.812767258711048 ], [ 6.162914938894549, 50.833442811735523 ], [ 6.148061607387019, 50.852223589178692 ], [ 6.128447310874885, 50.868426450781058 ], [ 6.105563965992078, 50.885229784517136 ], [ 6.104401149857387, 50.886086261891776 ], [ 6.106002764262309, 50.886890018305344 ], [ 6.099881524440393, 50.908507158404653 ], [ 6.103852651121344, 50.913116455474992 ], [ 6.131014282731877, 50.916355858696271 ], [ 6.131036223184386, 50.925704083861724 ], [ 6.121799512769392, 50.932707431704848 ], [ 6.10473024856004, 50.936169221589445 ], [ 6.113725619387423, 50.94888216581888 ], [ 6.113901138515833, 50.96424884350084 ], [ 6.098521248724776, 50.975717895492906 ], [ 6.082197941934095, 50.977716796992553 ], [ 6.059753395321517, 50.974455386966724 ], [ 6.021471512520636, 50.968931006648184 ], [ 6.018133350466974, 50.973837271316761 ], [ 6.016382914863906, 50.973568140855754 ], [ 6.019405867067505, 50.983029245233993 ], [ 6.016685315636323, 50.994388470161432 ], [ 6.000000000362556, 50.993352984360037 ], [ 5.998892033562474, 50.993284223873495 ], [ 5.978092981361465, 50.998976068306767 ], [ 5.944700410361431, 50.998568592312253 ], [ 5.907621931376425, 50.988604028950981 ], [ 5.892373680707095, 50.995019456018476 ], [ 5.870609271952294, 50.9994886942319 ], [ 5.870722562984334, 50.999999999968175 ], [ 5.871596568958568, 51.003987321832973 ], [ 5.836690142668719, 51.022012996390998 ], [ 5.830130103678258, 51.023553552652515 ], [ 5.797286394333695, 51.022664704914213 ], [ 5.808234054903434, 51.051288037231103 ], [ 5.828309090138271, 51.060246067931196 ], [ 5.824140502978061, 51.0750661220818 ], [ 5.857116216160382, 51.120226563969496 ], [ 5.870455639377458, 51.137725440095089 ] ] ], [ [ [ 9.133737814954481, 49.434559417510059 ], [ 9.133135196315804, 49.430171796658961 ], [ 9.181958796399398, 49.419035039316825 ], [ 9.199864993111181, 49.401355371314196 ], [ 9.208814138430665, 49.42031882312056 ], [ 9.226594685987029, 49.415817594113804 ], [ 9.269655865712528, 49.419956255126912 ], [ 9.271928330293502, 49.419830877497709 ], [ 9.292250356417401, 49.41870964220989 ], [ 9.296844773768356, 49.400454774456904 ], [ 9.291910469846501, 49.399769946411809 ], [ 9.278727906851087, 49.397940302167747 ], [ 9.26772197706045, 49.396412706363897 ], [ 9.268937106585712, 49.393683166207218 ], [ 9.266339761790658, 49.393665929424813 ], [ 9.257651550111753, 49.39272123514985 ], [ 9.208133131901981, 49.369461456111701 ], [ 9.175398758307271, 49.3631503323708 ], [ 9.176715154016195, 49.336398994095191 ], [ 9.162695539940721, 49.331480625928684 ], [ 9.138210579754713, 49.328817516369661 ], [ 9.12164593337644, 49.338392393532061 ], [ 9.088363061943975, 49.326285244904319 ], [ 9.101658658154962, 49.303998519001901 ], [ 9.083163298669142, 49.296761522937544 ], [ 9.073729129571564, 49.303008409457085 ], [ 9.050604445101165, 49.303561708589321 ], [ 9.031779986014376, 49.292916888842001 ], [ 9.015544439237072, 49.283245718770011 ], [ 8.999999999645505, 49.278191178947687 ], [ 8.999506352040683, 49.27803065194459 ], [ 8.990708439895911, 49.278278307516594 ], [ 8.971664582572338, 49.287091111430961 ], [ 8.952620724350458, 49.288110672253183 ], [ 8.933335527439265, 49.285299545697931 ], [ 8.921970644335817, 49.275058689876914 ], [ 8.92749950631331, 49.260735385962981 ], [ 8.936275478005593, 49.248244617325206 ], [ 8.948583777210306, 49.236304727990742 ], [ 8.967605695878003, 49.230034758648365 ], [ 8.973968275287536, 49.21151180571924 ], [ 8.985223457925109, 49.200511410446609 ], [ 8.999999999645505, 49.191404420841735 ], [ 9.00227078258027, 49.190004756575995 ], [ 8.999999999645505, 49.183813334131351 ], [ 8.998935913750431, 49.180911771040982 ], [ 8.973814695713301, 49.184633822522279 ], [ 8.962669211744945, 49.195827470953304 ], [ 8.937547993707835, 49.195827470953304 ], [ 8.90964040467863, 49.205822253376304 ], [ 8.876796331516369, 49.212416238041804 ], [ 8.849876039493417, 49.208025209117523 ], [ 8.843184361381233, 49.215144021362065 ], [ 8.856611597612279, 49.219534414376604 ], [ 8.856611597612279, 49.230034758648365 ], [ 8.883992628357912, 49.233767674258829 ], [ 8.886634634693957, 49.240894129117201 ], [ 8.888468373768257, 49.247705270891068 ], [ 8.912229316089798, 49.24935244510317 ], [ 8.907161192835014, 49.258855415073725 ], [ 8.899153119013903, 49.269114224844948 ], [ 8.871728208261587, 49.26351877649612 ], [ 8.852662410485504, 49.270250722448559 ], [ 8.855865640193606, 49.282371724069819 ], [ 8.843096601367856, 49.284585813954209 ], [ 8.829230566866645, 49.272392511316006 ], [ 8.794060861434973, 49.265806575791913 ], [ 8.755797625862812, 49.257645783860013 ], [ 8.704348493647172, 49.25636325012902 ], [ 8.687301168991993, 49.249002607607871 ], [ 8.679402794738433, 49.242107381028099 ], [ 8.655203054146737, 49.254220760836013 ], [ 8.600813971364767, 49.266739151641517 ], [ 8.586860176850152, 49.278569665135358 ], [ 8.573608459747552, 49.289887571255164 ], [ 8.552085390580352, 49.287309590535024 ], [ 8.536376401188312, 49.288693268917044 ], [ 8.525735535949359, 49.298902154032717 ], [ 8.518824458702072, 49.308628470895989 ], [ 8.505331402910167, 49.305993237289186 ], [ 8.503071590201642, 49.314437131115831 ], [ 8.510333706604083, 49.325310139873935 ], [ 8.548158143007752, 49.323767396390643 ], [ 8.54458193459034, 49.336908264237238 ], [ 8.546227429001917, 49.347136198701165 ], [ 8.552392548830532, 49.358234653112362 ], [ 8.546095789880155, 49.36281584886752 ], [ 8.521391430559063, 49.357172917700098 ], [ 8.509499989172046, 49.362539535090612 ], [ 8.499999999615302, 49.361765394197782 ], [ 8.485585467276309, 49.360590750183391 ], [ 8.484773689398436, 49.382749960597785 ], [ 8.491750587104915, 49.400045772429515 ], [ 8.452960793249147, 49.399900455023392 ], [ 8.442012768861709, 49.388520756784231 ], [ 8.432776059345048, 49.399246520757522 ], [ 8.403376554580177, 49.394116469607205 ], [ 8.371629478890044, 49.37031935735758 ], [ 8.391923912361685, 49.35072928983142 ], [ 8.412635204549344, 49.325019060051531 ], [ 8.385363873371261, 49.299790415695313 ], [ 8.342405494151915, 49.310128015636842 ], [ 8.324107593348707, 49.301188303012509 ], [ 8.311601834563074, 49.287061980575103 ], [ 8.335955154729042, 49.276471851173206 ], [ 8.364082142893349, 49.263139894900291 ], [ 8.428958511339999, 49.258680530795779 ], [ 8.446181355123596, 49.250474824182504 ], [ 8.408686017422569, 49.222422232631132 ], [ 8.403222975904276, 49.202743785096473 ], [ 8.402411198026412, 49.202072624276497 ], [ 8.400568244033918, 49.132309537558932 ], [ 8.379308453110207, 49.091337206704701 ], [ 8.355636820395899, 49.078817943293579 ], [ 8.336306193884168, 49.099408655395564 ], [ 8.314607604690261, 49.128174382253029 ], [ 8.328385879178136, 49.144362338997489 ], [ 8.315814300831635, 49.162968996068514 ], [ 8.217896399641768, 49.141864363930623 ], [ 8.192424142449498, 49.127867519399459 ], [ 8.196987647873218, 49.112741199719324 ], [ 8.222613484639725, 49.103429264539322 ], [ 8.216053445649274, 49.093793874636127 ], [ 8.116950788770568, 49.080865753056777 ], [ 8.047861954055319, 49.077691703284898 ], [ 7.999999999585081, 49.074386424468628 ], [ 7.97245441993726, 49.072484065182181 ], [ 7.936955615802973, 49.074824644305075 ], [ 7.90215893938633, 49.071855019410542 ], [ 7.903255885654488, 49.08099739111573 ], [ 7.846212071002197, 49.079724873802881 ], [ 7.865716667946779, 49.112668114466366 ], [ 7.859046929388778, 49.124974147327116 ], [ 7.911702757745793, 49.132572538941574 ], [ 7.937482174086542, 49.12886116300534 ], [ 7.940882862477239, 49.104014053627836 ], [ 7.969997147647817, 49.108224327161061 ], [ 7.999999999585081, 49.110911472929224 ], [ 8.000844687243378, 49.110987123758633 ], [ 8.041740714233434, 49.104657312853128 ], [ 8.062561705988609, 49.114407514578168 ], [ 8.06688387182472, 49.136342075542721 ], [ 8.064733758683756, 49.153257606678558 ], [ 8.026075604848041, 49.170590729606033 ], [ 8.017892011898521, 49.191420367075736 ], [ 8.01547861961577, 49.219607341159886 ], [ 8.034171438682517, 49.236042279929627 ], [ 8.113001601643793, 49.238870809578721 ], [ 8.149970381061239, 49.227424465964368 ], [ 8.157386056376652, 49.209090229137736 ], [ 8.147227890075838, 49.210446888189033 ], [ 8.132089338974058, 49.210446888189033 ], [ 8.111015060202011, 49.213578162951116 ], [ 8.096229095846438, 49.207547715002207 ], [ 8.097617832830108, 49.194416939323418 ], [ 8.106858421369362, 49.173525220565033 ], [ 8.116950788770568, 49.158412913198475 ], [ 8.14470479822554, 49.151694843500763 ], [ 8.172458807680536, 49.150015182598679 ], [ 8.202735908985806, 49.165130067139522 ], [ 8.197689725285208, 49.185276030052869 ], [ 8.180269421920729, 49.200350908925252 ], [ 8.219278614911596, 49.197315873739925 ], [ 8.211972619400772, 49.206653844485281 ], [ 8.193652779043379, 49.220249092068038 ], [ 8.21930055536407, 49.221707586546046 ], [ 8.238739331849489, 49.19645494061924 ], [ 8.273689638146029, 49.192062486018003 ], [ 8.258704666618451, 49.213116431864023 ], [ 8.274413655112193, 49.210344771395683 ], [ 8.298657276608916, 49.190836615201682 ], [ 8.373494372436751, 49.194951918998775 ], [ 8.377487439570183, 49.203269035025649 ], [ 8.333454003331214, 49.206916448971747 ], [ 8.324568332071419, 49.217507006006045 ], [ 8.281412492372848, 49.221007514528658 ], [ 8.236238179553364, 49.248623613929531 ], [ 8.250279734081355, 49.254993233799638 ], [ 8.216031506095097, 49.277156564287914 ], [ 8.171186291978303, 49.314859287393801 ], [ 8.132550077696763, 49.324451448950562 ], [ 8.135731367850664, 49.333343261363837 ], [ 8.079433510617044, 49.332732091805745 ], [ 8.055036310444384, 49.348343623214276 ], [ 8.06793698839186, 49.360139900812648 ], [ 8.077436977948638, 49.374724950495356 ], [ 8.115371113919858, 49.377211100220769 ], [ 8.125924219145444, 49.369984922900322 ], [ 8.177943789651348, 49.38093281862016 ], [ 8.235228942992908, 49.380409469079353 ], [ 8.259340924469569, 49.383927433219363 ], [ 8.270223129296141, 49.392038136902954 ], [ 8.310702296671836, 49.387168968918637 ], [ 8.333059084169408, 49.407993977160842 ], [ 8.315551021689851, 49.428171082361033 ], [ 8.285317799492939, 49.449486701833337 ], [ 8.23854187226857, 49.449660905173879 ], [ 8.216448364811118, 49.424728926795666 ], [ 8.169080058844015, 49.423334566449086 ], [ 8.134217512560813, 49.423363616249183 ], [ 8.110522389800177, 49.414139508344284 ], [ 8.091522411584954, 49.432135795400796 ], [ 8.116139011791038, 49.450343197207424 ], [ 8.150716338479912, 49.460634485178382 ], [ 8.194574255590471, 49.451780334263972 ], [ 8.231652734575468, 49.462245477151427 ], [ 8.251947168945405, 49.469835291749511 ], [ 8.249709295791101, 49.483096487542873 ], [ 8.234921783844438, 49.487883558965571 ], [ 8.221033809789015, 49.497949380394012 ], [ 8.218338926818717, 49.499999999800124 ], [ 8.208988788827789, 49.507187614727528 ], [ 8.222196625923706, 49.516840730067614 ], [ 8.24117466368642, 49.546022788563505 ], [ 8.245738169110142, 49.566657818493617 ], [ 8.261732377198143, 49.573504954023107 ], [ 8.25030167363553, 49.583378929039029 ], [ 8.26355339073814, 49.599450925039747 ], [ 8.269411351418277, 49.619157074538059 ], [ 8.267826764579604, 49.619927795619375 ], [ 8.259935575949992, 49.623765777422157 ], [ 8.249818995358652, 49.628685661808824 ], [ 8.212806335934513, 49.622679362936644 ], [ 8.190625068463685, 49.59692129163988 ], [ 8.158965751888633, 49.587752092073238 ], [ 8.131540841136315, 49.593748096328795 ], [ 8.086676709397905, 49.606245379930535 ], [ 8.092816867739701, 49.611877842964553 ], [ 8.081100945481131, 49.645838238842948 ], [ 8.063900041251717, 49.655931165499332 ], [ 8.065084797838917, 49.685876215152312 ], [ 8.025746506145396, 49.70839213435405 ], [ 8.009554838476468, 49.689160136034971 ], [ 7.999999999585081, 49.686643390530563 ], [ 7.994372408266292, 49.685161020872918 ], [ 7.970765045518998, 49.699929831193991 ], [ 7.943054916070713, 49.695741901366056 ], [ 7.944590710914738, 49.647854071087878 ], [ 7.925524913138656, 49.614260522758691 ], [ 7.927060884950802, 49.612206613489377 ], [ 7.907665810605643, 49.601644141992864 ], [ 7.888731652849619, 49.593821213678901 ], [ 7.848932622433386, 49.56962795479248 ], [ 7.816637048007212, 49.558756077002812 ], [ 7.812271002164409, 49.544632170208999 ], [ 7.792963864800752, 49.535174907635913 ], [ 7.791252550828307, 49.51405778266772 ], [ 7.772647490876604, 49.516108391113079 ], [ 7.752484696526716, 49.514658326967712 ], [ 7.740922354740674, 49.524383181680015 ], [ 7.730347309062579, 49.529698808549242 ], [ 7.727231839367843, 49.540987096503713 ], [ 7.759549354246534, 49.546535111761294 ], [ 7.768040106344522, 49.564111842236393 ], [ 7.734428136209414, 49.560482863838423 ], [ 7.724445468375758, 49.570608206710546 ], [ 7.722602514383254, 49.573285509185283 ], [ 7.753713333120607, 49.586011649840792 ], [ 7.823701704828726, 49.595649113942464 ], [ 7.824337962679845, 49.599538655645944 ], [ 7.826154525067619, 49.600829986240662 ], [ 7.858893349814545, 49.624096974919688 ], [ 7.877542288874606, 49.621685548409474 ], [ 7.892987999124863, 49.63090678036324 ], [ 7.884058447858374, 49.648905776048544 ], [ 7.881008797724505, 49.66919045164537 ], [ 7.912690054752075, 49.68818228092222 ], [ 7.900688913797505, 49.730620502872888 ], [ 7.905976436187381, 49.743990515209653 ], [ 7.905976436187381, 49.746075144971513 ], [ 7.910079202888399, 49.746075144971513 ], [ 7.908478340373416, 49.748716726314925 ], [ 7.911790517759169, 49.749602774921286 ], [ 7.931295113805419, 49.751701738082232 ], [ 7.949724653730389, 49.748392914723404 ], [ 7.960606858556951, 49.731451680250316 ], [ 7.977917462353886, 49.734411722375619 ], [ 7.98958950370748, 49.741978689115477 ], [ 7.983687663020649, 49.75036074439339 ], [ 7.993121832118236, 49.759659477446164 ], [ 7.999999999585081, 49.762471241188656 ], [ 8.018967068019844, 49.770224042657681 ], [ 8.033293841243797, 49.765634205794413 ], [ 8.051876960742964, 49.782694535637248 ], [ 8.031034028535272, 49.796749107261093 ], [ 8.043013229935667, 49.809664044958858 ], [ 8.03116566855533, 49.832704304591729 ], [ 8.037703767093282, 49.858176920884766 ], [ 8.043649487786787, 49.878882564252827 ], [ 8.043583668225892, 49.896513126769378 ], [ 8.035202614797159, 49.909067138764748 ], [ 8.009861997624936, 49.900799877446879 ], [ 7.999999999585081, 49.902280479849225 ], [ 7.996215362258789, 49.90284866390472 ], [ 7.991849316415995, 49.918509542165154 ], [ 7.990219413164479, 49.921902261729691 ], [ 7.984850479155341, 49.933076250078841 ], [ 7.999999999585081, 49.933167650792853 ], [ 8.008918580625346, 49.933221459018512 ], [ 8.027084841408497, 49.940655576551571 ], [ 8.018374690175406, 49.959061669156242 ], [ 8.001349305972736, 49.976169505555532 ], [ 8.03063911027176, 49.98884770446756 ], [ 8.05039146706328, 50.000000000210534 ], [ 8.056967024450255, 50.003400761517582 ], [ 8.065369756921777, 50.000000000210534 ], [ 8.090184076321853, 49.989036256001647 ], [ 8.109995831516606, 49.979317609605303 ], [ 8.129959255568968, 49.969062218593258 ], [ 8.135950766985765, 49.965983896433031 ], [ 8.135424208702196, 49.953154490520731 ], [ 8.121645933316024, 49.949583705284468 ], [ 8.11214594465757, 49.929605621558693 ], [ 8.109218209382485, 49.916038680731106 ], [ 8.107582439233848, 49.908456950115465 ], [ 8.090359595450261, 49.903168324675121 ], [ 8.070701419829769, 49.902020441209238 ], [ 8.076471620496541, 49.889028559345093 ], [ 8.074409267368944, 49.875320782202422 ], [ 8.068661006256356, 49.862016281920894 ], [ 8.065150617399775, 49.842190830807112 ], [ 8.078599794083329, 49.831409219824238 ], [ 8.07225915422798, 49.812400925802116 ], [ 8.079762610218021, 49.806868771566769 ], [ 8.09663441484642, 49.816112936129024 ], [ 8.133712893831452, 49.826301296543392 ], [ 8.151812338822095, 49.826957644359879 ], [ 8.162607779866939, 49.827349120078424 ], [ 8.186412602195126, 49.824118258118752 ], [ 8.220660831079678, 49.807087158482133 ], [ 8.22294200123409, 49.803328857075677 ], [ 8.228888304035891, 49.793530754382211 ], [ 8.209076548841129, 49.787777957953523 ], [ 8.192928761178893, 49.776430556247789 ], [ 8.213091555528772, 49.753436229369839 ], [ 8.319368568796575, 49.754806287516629 ], [ 8.319368568796575, 49.79061803168883 ], [ 8.339246144450495, 49.790472391104579 ], [ 8.357478224794539, 49.776095483237029 ], [ 8.386789968647737, 49.778382674594368 ], [ 8.406382325605698, 49.791171462823016 ], [ 8.433894995473056, 49.78668557726705 ], [ 8.453860330242053, 49.792278305432532 ], [ 8.433543956317896, 49.803447252828903 ], [ 8.433960815033915, 49.811673047282021 ], [ 8.400129445763714, 49.808877890560701 ], [ 8.356052129518062, 49.811876854679575 ], [ 8.308574123983382, 49.813274365960666 ], [ 8.281785471082182, 49.822852050394097 ], [ 8.274216196429601, 49.839586587424719 ], [ 8.303286601593497, 49.838015244030359 ], [ 8.344599486401238, 49.823536097846556 ], [ 8.358970139631882, 49.824511212741363 ], [ 8.347956295683586, 49.844271214831736 ], [ 8.334178020297415, 49.855020853313569 ], [ 8.32448835416333, 49.870517012376496 ], [ 8.343151451570586, 49.867905613314988 ], [ 8.350742666675668, 49.888970422393569 ], [ 8.361665546319982, 49.893877027058345 ], [ 8.369896224465128, 49.897573951359597 ], [ 8.3951650446866, 49.899734533840224 ], [ 8.402770860109968, 49.892971421105294 ], [ 8.406813669655646, 49.889263319412954 ], [ 8.412938459619596, 49.883645059683438 ], [ 8.418608852068393, 49.87217892417182 ], [ 8.413427286864586, 49.851571869734627 ], [ 8.424082480232311, 49.841266228681498 ], [ 8.469613198742445, 49.856737081472637 ], [ 8.479091247846714, 49.84002306274914 ], [ 8.456471182105728, 49.825791929733008 ], [ 8.463162860217869, 49.814802847804444 ], [ 8.47674367602316, 49.806213606038895 ], [ 8.499999999615302, 49.80078166823062 ], [ 8.509346409597802, 49.798598470891747 ], [ 8.520667412694577, 49.785942744343352 ], [ 8.499999999615302, 49.766669592268357 ], [ 8.494734416779593, 49.761758002943054 ], [ 8.465053925282046, 49.760046821831352 ], [ 8.439489677011411, 49.745841904277107 ], [ 8.430032856893952, 49.742207940966367 ], [ 8.41074784952732, 49.738712940073654 ], [ 8.3888743376863, 49.721267061276713 ], [ 8.33093673885219, 49.677479958014978 ], [ 8.33200320887601, 49.671802824495167 ], [ 8.364813475739203, 49.661612725257271 ], [ 8.384499635677436, 49.648508015164488 ], [ 8.3888743376863, 49.635399756353301 ], [ 8.367000826743622, 49.628115857039191 ], [ 8.349502017809835, 49.631029548095917 ], [ 8.353876719818699, 49.600427048054087 ], [ 8.353876719818699, 49.591679927004876 ], [ 8.367000826743622, 49.562511461639815 ], [ 8.373562879756932, 49.53186570203502 ], [ 8.391061689589051, 49.528946049551287 ], [ 8.406373147518419, 49.514345158226554 ], [ 8.415122551536182, 49.505582518909662 ], [ 8.456682223315392, 49.515805444840382 ], [ 8.441370765386022, 49.545001966296731 ], [ 8.450120170302084, 49.56542909696914 ], [ 8.436996063377158, 49.578556287107361 ], [ 8.445745467394921, 49.597511516533615 ], [ 8.474181032249215, 49.598969303914252 ], [ 8.499999999615302, 49.594667333996043 ], [ 8.509178650116816, 49.593137890272011 ], [ 8.522302757041741, 49.584389454429889 ], [ 8.5354268639667, 49.569805221503948 ], [ 8.539801565975564, 49.545001966296731 ], [ 8.54417626888276, 49.515805444840382 ], [ 8.563862428820993, 49.511424454042015 ], [ 8.581361237754814, 49.521646152246795 ], [ 8.581361237754814, 49.5420831029544 ], [ 8.581361237754814, 49.571263842211465 ], [ 8.592297993675286, 49.596053684744042 ], [ 8.607609451604656, 49.612087421779684 ], [ 8.629482962547343, 49.610630028807009 ], [ 8.65354382539277, 49.610630028807009 ], [ 8.668855283322142, 49.617916557214137 ], [ 8.679792039242646, 49.623744991535013 ], [ 8.695103497172015, 49.613544771515009 ], [ 8.695103497172015, 49.598969303914252 ], [ 8.686354092255954, 49.577097885556356 ], [ 8.668855283322142, 49.559593650388642 ], [ 8.668855283322142, 49.5362448513578 ], [ 8.671042634326586, 49.521646152246795 ], [ 8.66010587840608, 49.512884828350472 ], [ 8.703852901189743, 49.509964035885524 ], [ 8.767286084809971, 49.507043068612226 ], [ 8.797909000668717, 49.514345158226554 ], [ 8.811033106695335, 49.534785178563872 ], [ 8.821969862615813, 49.559593650388642 ], [ 8.80665840468648, 49.574180951546495 ], [ 8.796750990520797, 49.593052128837058 ], [ 8.80665840468648, 49.60625758579058 ], [ 8.828531916527457, 49.60625758579058 ], [ 8.850405427470143, 49.596053684744042 ], [ 8.865716885399511, 49.581472958135301 ], [ 8.883215694333298, 49.577097885556356 ], [ 8.894152450253804, 49.574180951546495 ], [ 8.901042606636413, 49.558557785468324 ], [ 8.885403045337744, 49.552298356306672 ], [ 8.846030725461242, 49.552298356306672 ], [ 8.828531916527457, 49.5362448513578 ], [ 8.821969862615813, 49.518725886528053 ], [ 8.835093969540765, 49.515805444840382 ], [ 8.854780129479007, 49.501200607288659 ], [ 8.85418084808161, 49.499999999800124 ], [ 8.848218076465688, 49.488174663028559 ], [ 8.826344564624714, 49.475157512680838 ], [ 8.808845755690889, 49.457795898544681 ], [ 8.821969862615813, 49.433189686330621 ], [ 8.828531916527457, 49.414364790887099 ], [ 8.828531916527457, 49.404225300123791 ], [ 8.835093969540765, 49.391185717183234 ], [ 8.861342183390612, 49.383939999924479 ], [ 8.88977774824494, 49.401327915918415 ], [ 8.90508920617431, 49.427398184414706 ], [ 8.910631024553139, 49.435193165030164 ], [ 8.921083318142594, 49.430869222171793 ], [ 8.940977081437943, 49.428047395161208 ], [ 8.965133794524169, 49.430398928712926 ], [ 8.974370184240597, 49.448736999725988 ], [ 8.976501659136055, 49.475996248523529 ], [ 8.999237389258097, 49.491499015106214 ], [ 8.999999999645505, 49.491492108347622 ], [ 9.045798248125349, 49.491077349930201 ], [ 9.051641731556368, 49.485282263694515 ], [ 9.062634503723036, 49.486047336635508 ], [ 9.064602611899231, 49.471297466420175 ], [ 9.102258664492792, 49.444975906399961 ], [ 9.133737814954481, 49.434559417510059 ] ], [ [ 8.201485332837748, 49.732530731271389 ], [ 8.21686522262884, 49.717961505470264 ], [ 8.250367494094695, 49.722380864029347 ], [ 8.292952894604714, 49.725749806482455 ], [ 8.327047543915034, 49.725195624557024 ], [ 8.343063691557211, 49.732034954084 ], [ 8.343985169002625, 49.74528795303555 ], [ 8.312084512839963, 49.742037003918753 ], [ 8.266098422142615, 49.740185468832657 ], [ 8.242820158097999, 49.736802953458529 ], [ 8.201485332837748, 49.732530731271389 ] ], [ [ 8.29690208173149, 49.458544469958326 ], [ 8.348526733973838, 49.463014671042586 ], [ 8.337315430444622, 49.477931724454173 ], [ 8.292426336321146, 49.471968353361618 ], [ 8.29690208173149, 49.458544469958326 ] ] ], [ [ [ 11.90212392958645, 49.337520915527378 ], [ 11.903816488532394, 49.336471747297068 ], [ 11.920648768186634, 49.363295759114209 ], [ 11.917638295378936, 49.379653509781562 ], [ 11.934580445280631, 49.372471313741201 ], [ 11.952357617866472, 49.358321918099904 ], [ 11.999999999826779, 49.367926165632504 ], [ 12.026300986106325, 49.373227384144094 ], [ 12.07222717893714, 49.382459222422675 ], [ 12.075237651744839, 49.404390563569152 ], [ 12.091608471329204, 49.405305972174673 ], [ 12.122811913558834, 49.386398578890777 ], [ 12.175110640030837, 49.391587577548862 ], [ 12.21185159501414, 49.372354994450312 ], [ 12.227936749439841, 49.326168815149714 ], [ 12.266128004804951, 49.321686071677952 ], [ 12.264457961233289, 49.303780114282389 ], [ 12.242241989148109, 49.298450736139856 ], [ 12.227848851984236, 49.284469285647667 ], [ 12.239187568061762, 49.27514610320037 ], [ 12.26096405466555, 49.26845854137666 ], [ 12.272061052964744, 49.245547826486849 ], [ 12.255756156247504, 49.230472224807698 ], [ 12.222553057008898, 49.226870308105411 ], [ 12.205654854487534, 49.246611983389769 ], [ 12.175967636405147, 49.246058041409796 ], [ 12.154366943814258, 49.239031185336231 ], [ 12.14795046099611, 49.225980725344186 ], [ 12.156915957450396, 49.213058082857877 ], [ 12.140830803024697, 49.204421647360689 ], [ 12.229409024410126, 49.193901235843278 ], [ 12.261513411292714, 49.183218016724304 ], [ 12.278455561194411, 49.171948500927002 ], [ 12.259469805106784, 49.161304322400674 ], [ 12.260063110012593, 49.139950625270174 ], [ 12.289926122107875, 49.131725083904307 ], [ 12.309043723929753, 49.133799861744443 ], [ 12.322777633320689, 49.150292696114882 ], [ 12.349981761532378, 49.13569922891574 ], [ 12.341688730425052, 49.118779990666432 ], [ 12.340620728773654, 49.119011512836636 ], [ 12.312955141390407, 49.1131943259889 ], [ 12.295639428874443, 49.09883843359416 ], [ 12.253668601782927, 49.096674453625482 ], [ 12.234550999961048, 49.051062610959953 ], [ 12.181636993994756, 49.037801239113506 ], [ 12.148488136829638, 49.024884681655386 ], [ 12.147133168360726, 49.025175248640444 ], [ 12.114263927997465, 49.032223374611512 ], [ 12.111482607333908, 49.032625897526962 ], [ 12.09767422131771, 49.034624247351033 ], [ 12.097783237267331, 49.040465509008492 ], [ 12.056735328518936, 49.03648369037947 ], [ 12.026213088650721, 49.028870497517147 ], [ 12.004436602046933, 49.021461150740947 ], [ 11.999999999826779, 49.020184542812821 ], [ 11.951456673213517, 49.006214320153127 ], [ 11.937197374247193, 49.000000000276607 ], [ 11.913573057595549, 48.989806075084466 ], [ 11.846925142238321, 48.979984388049047 ], [ 11.771443577059371, 48.96535705674701 ], [ 11.72518776989293, 48.962686522565427 ], [ 11.67932749992924, 48.977358171228587 ], [ 11.651090582228662, 48.998683088521609 ], [ 11.644736665273422, 49.000000000276607 ], [ 11.632126799831198, 49.002639936318594 ], [ 11.647003370755112, 49.014490079752022 ], [ 11.63599426901321, 49.024199516608917 ], [ 11.609888854055853, 49.017477802097147 ], [ 11.613009198009323, 49.035019705583224 ], [ 11.585057946365723, 49.051165057665543 ], [ 11.556864976943791, 49.050008857213221 ], [ 11.545218622017432, 49.082386884393465 ], [ 11.559633732871466, 49.09683529328651 ], [ 11.573631333730905, 49.11282890199795 ], [ 11.572356826463679, 49.12554406766256 ], [ 11.556733131209539, 49.151767870910824 ], [ 11.547416047627777, 49.187976130172892 ], [ 11.542977248128437, 49.226389060125513 ], [ 11.569588070536, 49.229757695222595 ], [ 11.621403364146275, 49.23766068582696 ], [ 11.638477359782222, 49.258724251776684 ], [ 11.717013346945832, 49.269026800771236 ], [ 11.727055582065969, 49.281322909630042 ], [ 11.694291967410443, 49.291780916465996 ], [ 11.681744667831129, 49.30037287354147 ], [ 11.700159093601425, 49.313665594155985 ], [ 11.727560989516173, 49.325426571083497 ], [ 11.738855756416742, 49.341767890917815 ], [ 11.752721511541928, 49.345434116204572 ], [ 11.761247522514816, 49.305803961196467 ], [ 11.765202888254118, 49.296586773198086 ], [ 11.818644276259098, 49.296586773198086 ], [ 11.828114009658773, 49.272919704821966 ], [ 11.820973547603696, 49.270818961082497 ], [ 11.814776807077088, 49.243929681111666 ], [ 11.840574583185612, 49.204173619005687 ], [ 11.886676570029323, 49.206347470419132 ], [ 11.911331683706559, 49.183831050584629 ], [ 11.943194353709126, 49.197651488052422 ], [ 11.93341581005749, 49.24180122795962 ], [ 11.93143812673868, 49.241961594146709 ], [ 11.947325513461321, 49.258403628385395 ], [ 11.919594004109262, 49.263679071743013 ], [ 11.915638637471648, 49.29922251274688 ], [ 11.90212392958645, 49.337520915527378 ] ] ], [ [ [ 10.854521556731843, 48.6802596142646 ], [ 10.850150962718764, 48.679713402367611 ], [ 10.851952852024677, 48.662617609755344 ], [ 10.878387880419345, 48.653417629497213 ], [ 10.870477148940745, 48.635816138359282 ], [ 10.810948892453242, 48.623717922006811 ], [ 10.801543932077129, 48.609278099797223 ], [ 10.787326568264902, 48.607991725217154 ], [ 10.779723475635132, 48.621920473853791 ], [ 10.759397290311467, 48.625924456664023 ], [ 10.754980464502291, 48.641747289659783 ], [ 10.738389902626388, 48.643208056506005 ], [ 10.72322766654381, 48.658003227461244 ], [ 10.757705272151325, 48.671538516434765 ], [ 10.793281591013173, 48.681392008480692 ], [ 10.777218411175953, 48.698116609843716 ], [ 10.716943029459911, 48.690937098690746 ], [ 10.702681738030288, 48.703982030484163 ], [ 10.698067144518054, 48.716498465643568 ], [ 10.713185432321986, 48.722959688251606 ], [ 10.7438834662031, 48.719969835485976 ], [ 10.769285705108873, 48.718307108624003 ], [ 10.768296863000311, 48.741055417826779 ], [ 10.760913513560398, 48.770773017547363 ], [ 10.752057889150199, 48.792434291656249 ], [ 10.727512646618734, 48.812179079782425 ], [ 10.715492729078104, 48.836645356704992 ], [ 10.719514017684528, 48.841214168530605 ], [ 10.722700284505123, 48.844822360418867 ], [ 10.743663723911558, 48.837067334767411 ], [ 10.757815144195408, 48.839264472067697 ], [ 10.777701844935994, 48.88027929720932 ], [ 10.751772223991532, 48.892344598059928 ], [ 10.741642092314105, 48.910872940976041 ], [ 10.761924329359124, 48.930018899772698 ], [ 10.801587859694521, 48.939414859332082 ], [ 10.847997486285378, 48.932197410269524 ], [ 10.864038692432432, 48.947168453881211 ], [ 10.876124532840185, 48.933533516214183 ], [ 10.907833382520025, 48.935595696021352 ], [ 10.907943253665794, 48.930149613086755 ], [ 10.908558533160084, 48.896196155471443 ], [ 10.927522314659232, 48.878505596256254 ], [ 10.964329191611347, 48.866233344052759 ], [ 10.996367655626811, 48.879595993668033 ], [ 10.999999999766354, 48.878130310872393 ], [ 11.00526722921397, 48.876004862012564 ], [ 11.000301047675944, 48.863397500163522 ], [ 11.046776596235611, 48.867527598940214 ], [ 11.045721832158238, 48.851179707522036 ], [ 11.086637895172384, 48.851296081440864 ], [ 11.11729198077485, 48.840734026402316 ], [ 11.084726134720702, 48.833866033438774 ], [ 11.045875652480969, 48.840763126308588 ], [ 11.050841834018994, 48.811349256953243 ], [ 11.066619348697548, 48.783593199268608 ], [ 11.08028733522136, 48.7831853350744 ], [ 11.08986811027162, 48.800982589738503 ], [ 11.141375764134754, 48.800560306016727 ], [ 11.157790532896076, 48.780548704083763 ], [ 11.191059555001809, 48.771865775213463 ], [ 11.227734586219672, 48.777780820643734 ], [ 11.24428119981693, 48.764521984816128 ], [ 11.269727387001351, 48.763108472633938 ], [ 11.294734089602693, 48.765381730251399 ], [ 11.302754692227062, 48.752236206883175 ], [ 11.32283916156902, 48.746784609024836 ], [ 11.341738240113198, 48.740107347468957 ], [ 11.336463199814187, 48.73598169179742 ], [ 11.350306980350892, 48.727334759957493 ], [ 11.395310254838586, 48.714047942030916 ], [ 11.438379794286119, 48.710984617931885 ], [ 11.499999999796566, 48.712379912265924 ], [ 11.505379297669137, 48.712501716341635 ], [ 11.513136209723323, 48.703048278181065 ], [ 11.499999999796566, 48.694070141422102 ], [ 11.441851726265376, 48.654308495183166 ], [ 11.424316271457872, 48.65432309953357 ], [ 11.417658071759702, 48.667465173025107 ], [ 11.402254118797105, 48.672224674368913 ], [ 11.372479003259114, 48.670297568590911 ], [ 11.304358812931598, 48.661989728128553 ], [ 11.254235537481463, 48.663143271766579 ], [ 11.223383683277621, 48.668268188572291 ], [ 11.190576121241767, 48.660003818485563 ], [ 11.188136978751398, 48.645501374924258 ], [ 11.143727009169515, 48.635407067544051 ], [ 11.116610778413433, 48.648159739810488 ], [ 11.095998927931104, 48.654542162493968 ], [ 11.058203208870427, 48.663406100704286 ], [ 11.060071021043468, 48.679727999314331 ], [ 11.025241826511845, 48.69284881722799 ], [ 11.005508946093991, 48.686515058493441 ], [ 10.999999999766354, 48.689442113601885 ], [ 10.988918383319771, 48.695329564100845 ], [ 10.994521818042253, 48.703982030484163 ], [ 10.986369369683633, 48.717140250016996 ], [ 10.951979660633407, 48.714893969570866 ], [ 10.923905055029939, 48.714178655998218 ], [ 10.902405741810437, 48.714791863814362 ], [ 10.846788901885276, 48.700538732745997 ], [ 10.854521556731843, 48.6802596142646 ] ] ], [ [ [ 8.02486695487095, 49.47716768471502 ], [ 8.025395466990236, 49.474246418032081 ], [ 8.037462427505673, 49.462579279964295 ], [ 8.074826126084963, 49.456004400221659 ], [ 8.058788037990242, 49.422085418645182 ], [ 8.027764979266301, 49.41059466262903 ], [ 7.999999999585081, 49.408746842608288 ], [ 7.983885122601575, 49.407674330102694 ], [ 7.965916321399308, 49.39600578649889 ], [ 7.999330831953526, 49.386732900450831 ], [ 7.999999999585081, 49.386485347335693 ], [ 8.043298448631635, 49.370464762776564 ], [ 8.035224555249666, 49.357216550867264 ], [ 8.01681695487887, 49.343339163965439 ], [ 7.999999999585081, 49.341606183354067 ], [ 7.985333157432227, 49.340094721002792 ], [ 7.967452116243336, 49.322617584896776 ], [ 7.987417451012333, 49.296776084898106 ], [ 7.998189956271344, 49.2812063735687 ], [ 7.999999999585081, 49.276695947687848 ], [ 8.003784637809707, 49.267263717619656 ], [ 8.004508655674156, 49.245941421558641 ], [ 7.999999999585081, 49.244667234569185 ], [ 7.978356260624081, 49.238550057080509 ], [ 7.948320498906421, 49.227803623281787 ], [ 7.910452181597734, 49.21018430256116 ], [ 7.889016871545579, 49.208535814467098 ], [ 7.873176243031812, 49.233811417431411 ], [ 7.879802101583131, 49.25512440706872 ], [ 7.87644529319908, 49.27412627218343 ], [ 7.872825204774985, 49.306590181034771 ], [ 7.855536540532197, 49.333314158588038 ], [ 7.882039974737433, 49.367512947686691 ], [ 7.915191206149866, 49.390657377120881 ], [ 7.947245441886772, 49.395380866535433 ], [ 7.958522564976846, 49.412163724341923 ], [ 7.956482152301757, 49.423915555062734 ], [ 7.999999999585081, 49.436917226499922 ], [ 8.009028280192899, 49.439614139736008 ], [ 8.003631058235461, 49.454480295180737 ], [ 7.999999999585081, 49.454005700221025 ], [ 7.982086048615764, 49.451664203236732 ], [ 7.903760503485551, 49.441211307587636 ], [ 7.905669277937246, 49.423000495434913 ], [ 7.866440685811276, 49.376426013723744 ], [ 7.834561969202787, 49.372136894593964 ], [ 7.785372649695661, 49.379391828567655 ], [ 7.700026327750627, 49.373561796416908 ], [ 7.682364685696837, 49.390555635777503 ], [ 7.665558700629295, 49.413514820448803 ], [ 7.605421356734747, 49.408473443823596 ], [ 7.538285175579572, 49.394349004906218 ], [ 7.499999999554868, 49.382356134452529 ], [ 7.496292152015695, 49.381194490995362 ], [ 7.48145002699137, 49.384564491544722 ], [ 7.495941112860543, 49.399522627626148 ], [ 7.488020799052808, 49.410710891477969 ], [ 7.463162860157471, 49.404724762574183 ], [ 7.459608591294207, 49.405988884848362 ], [ 7.46136378617166, 49.42031331682918 ], [ 7.469569319573662, 49.435635512763689 ], [ 7.483237894493984, 49.461069893635106 ], [ 7.498837183420178, 49.477452940349025 ], [ 7.499999999554868, 49.477925106680956 ], [ 7.502633621914366, 49.478994481738013 ], [ 7.505090063262158, 49.479991891981975 ], [ 7.514831391508179, 49.476814554805031 ], [ 7.543090019692571, 49.474304456966777 ], [ 7.572686983140037, 49.490958641813641 ], [ 7.556346584104445, 49.499999999800124 ], [ 7.525165097598663, 49.517426593407755 ], [ 7.515511529365983, 49.520370450535985 ], [ 7.516390842586897, 49.521080346818934 ], [ 7.527139691611226, 49.529757380118205 ], [ 7.531198578305553, 49.546213080801273 ], [ 7.535016125412269, 49.560658465274884 ], [ 7.543287479273499, 49.559004855094209 ], [ 7.55774589161914, 49.564199636763902 ], [ 7.560890365219464, 49.565184614723883 ], [ 7.574837096281001, 49.546491198840002 ], [ 7.601230830020362, 49.535145625124379 ], [ 7.609765462125035, 49.520809816370807 ], [ 7.613714649251819, 49.509253161890534 ], [ 7.627356062711201, 49.499999999800124 ], [ 7.627580683753059, 49.499849179693811 ], [ 7.628271602292597, 49.499999999800124 ], [ 7.658406283794408, 49.506645577596636 ], [ 7.676265385429088, 49.50024321819145 ], [ 7.678720817070511, 49.499999999800124 ], [ 7.694607165340682, 49.498442464902709 ], [ 7.697294444072082, 49.499999999800124 ], [ 7.71384848314348, 49.509692628756937 ], [ 7.735393492763189, 49.508344918174892 ], [ 7.793731762671932, 49.502279757892374 ], [ 7.837392220201556, 49.505297782594859 ], [ 7.841876929900113, 49.499999999800124 ], [ 7.844895675293271, 49.496470096304982 ], [ 7.869874734936688, 49.499999999800124 ], [ 7.910781281198713, 49.505839834742844 ], [ 7.934235064371746, 49.504448066504473 ], [ 7.939457477768172, 49.50474828015038 ], [ 7.940069759584359, 49.499999999800124 ], [ 7.941563000335043, 49.488536304882551 ], [ 7.966201540095304, 49.478265419204163 ], [ 7.990840079855539, 49.47125734281294 ], [ 7.999999999585081, 49.472848457733839 ], [ 8.02486695487095, 49.47716768471502 ] ] ], [ [ [ 7.868087414508028, 50.100947345450919 ], [ 7.865121424476577, 50.101158182798187 ], [ 7.862501845479935, 50.086910809691915 ], [ 7.852023531289949, 50.070283490348061 ], [ 7.840235427601667, 50.069491568406889 ], [ 7.819278799221715, 50.078993761551857 ], [ 7.812729853526717, 50.077410194375361 ], [ 7.817969010621705, 50.049689251364903 ], [ 7.790463435648422, 50.022744908727951 ], [ 7.834996270506678, 50.005302232242578 ], [ 7.843753493460647, 50.000000000210534 ], [ 7.862501845479935, 49.987607142218486 ], [ 7.870360581571564, 49.966821107598484 ], [ 7.895665577847843, 49.955836647614277 ], [ 7.912273838331474, 49.94862592004305 ], [ 7.912273838331474, 49.946284493399808 ], [ 7.912273838331474, 49.940067928543698 ], [ 7.912273838331474, 49.922620800030593 ], [ 7.883458473859885, 49.902673983364835 ], [ 7.740691442796873, 49.933024541307411 ], [ 7.722373748514694, 49.949509761176756 ], [ 7.717183351973355, 49.950135307174456 ], [ 7.676967462841104, 49.958814946592319 ], [ 7.646317382826471, 49.960338801234904 ], [ 7.641446719152605, 49.949046612656772 ], [ 7.611805875698457, 49.946767531887993 ], [ 7.58027819824512, 49.935704466232778 ], [ 7.560181223456071, 49.910621631234896 ], [ 7.544516114969047, 49.914064580665716 ], [ 7.535235525445705, 49.906568221958274 ], [ 7.517661642506956, 49.904534124027279 ], [ 7.499999999554868, 49.91123733643974 ], [ 7.486616643330506, 49.916316164856788 ], [ 7.477752912523181, 49.941831571558964 ], [ 7.477336053807162, 49.955447781640324 ], [ 7.489183615187498, 49.976851370682105 ], [ 7.46208780403612, 49.974675171676658 ], [ 7.441727550105315, 49.968305593850609 ], [ 7.403595954553179, 49.967725180198265 ], [ 7.39023453788299, 49.978055491244525 ], [ 7.383477040209947, 49.978374651216022 ], [ 7.375425086382188, 49.985540671915984 ], [ 7.385692972911778, 49.988267539947017 ], [ 7.38633634092839, 50.000000000210534 ], [ 7.386438930330449, 50.001713695401257 ], [ 7.374942408105301, 50.00081035987801 ], [ 7.372199916221576, 50.008408473522756 ], [ 7.391880032294568, 50.013415660924665 ], [ 7.425974681604888, 50.016377225450427 ], [ 7.457743697747538, 50.009205408451244 ], [ 7.484247131054441, 50.007571677315354 ], [ 7.477840672536549, 50.035510083778334 ], [ 7.482996555804708, 50.050587906762019 ], [ 7.497169749454424, 50.054077956705783 ], [ 7.497674367285487, 50.064838441673778 ], [ 7.499999999554868, 50.065362164575497 ], [ 7.50097557624161, 50.065581858396364 ], [ 7.499999999554868, 50.07442959991085 ], [ 7.499758623136341, 50.076618450898081 ], [ 7.495083807465782, 50.082270270459304 ], [ 7.499999999554868, 50.08192970320323 ], [ 7.571960010716588, 50.076944425505459 ], [ 7.582946462336892, 50.079472274786362 ], [ 7.607093829350947, 50.075664211882227 ], [ 7.651290679021548, 50.080435216000737 ], [ 7.698644446654121, 50.097606878125873 ], [ 7.714429035565527, 50.106190389283356 ], [ 7.703379823147881, 50.120492804625634 ], [ 7.693166977294038, 50.127174674642681 ], [ 7.709087518138868, 50.143286011179477 ], [ 7.746451216718167, 50.162407720439539 ], [ 7.790396881265661, 50.169199083231128 ], [ 7.78765440195836, 50.163586022828483 ], [ 7.796605892779059, 50.145219719123766 ], [ 7.819533118566847, 50.132543230639008 ], [ 7.85042453727073, 50.118710482254123 ], [ 7.859034572163739, 50.114409917014733 ], [ 7.864870860987637, 50.105731149999265 ], [ 7.868087414508028, 50.100947345450919 ] ] ], [ [ [ 11.259751075646653, 49.294547982350714 ], [ 11.26785957572663, 49.278525961250246 ], [ 11.308204307525129, 49.275699716317789 ], [ 11.307852719499335, 49.241553388811369 ], [ 11.266870734516383, 49.231522126517994 ], [ 11.283263528689229, 49.211599332250103 ], [ 11.306204650516154, 49.203079361776759 ], [ 11.309193149633687, 49.179452066613543 ], [ 11.268079318018168, 49.164122552257922 ], [ 11.296294262028583, 49.148759051250963 ], [ 11.277242582175516, 49.129109571072256 ], [ 11.28981202253164, 49.126771731126688 ], [ 11.271250863247886, 49.111882294611561 ], [ 11.26471725718468, 49.112711965984964 ], [ 11.245973217977072, 49.126698500413724 ], [ 11.224108833917683, 49.13672193535659 ], [ 11.206133893628781, 49.132660205953812 ], [ 11.2014753518379, 49.124053493866242 ], [ 11.201035866356504, 49.112975071919152 ], [ 11.215802566134647, 49.09708386269434 ], [ 11.193213031435194, 49.088982785988634 ], [ 11.123159106965829, 49.083966471048363 ], [ 11.0597853558848, 49.068651126526298 ], [ 11.046932450344142, 49.090424563157555 ], [ 11.034386555729933, 49.132450706405606 ], [ 11.03727767118246, 49.13386042506567 ], [ 11.096218670222646, 49.152439718121066 ], [ 11.099317040485948, 49.161552566946668 ], [ 11.143770958346476, 49.176138376030657 ], [ 11.148803062751627, 49.186341492786596 ], [ 11.125796017159262, 49.202437386664201 ], [ 11.129509666916855, 49.210403124211297 ], [ 11.147242890325735, 49.212722574287064 ], [ 11.154626239765649, 49.219344803880617 ], [ 11.157834481174724, 49.229641036656446 ], [ 11.134981255905085, 49.241334705859742 ], [ 11.135970097115331, 49.255401327981978 ], [ 11.153527527409633, 49.256698460716656 ], [ 11.169480836101082, 49.252719505353397 ], [ 11.18031414383009, 49.260720812708293 ], [ 11.175435859747671, 49.270644119443531 ], [ 11.156625896774621, 49.276996313076644 ], [ 11.154186755182568, 49.29336835770922 ], [ 11.135794303102434, 49.292756689136297 ], [ 11.138650956485719, 49.308308173677183 ], [ 11.162339203541189, 49.315281440620318 ], [ 11.207606168599067, 49.305221567322072 ], [ 11.239227121721616, 49.297810007113846 ], [ 11.259751075646653, 49.294547982350714 ] ] ], [ [ [ 10.512049514968751, 48.572454183216138 ], [ 10.53156821456499, 48.582009327373342 ], [ 10.527788642838585, 48.590608254603609 ], [ 10.507374560059317, 48.588312426448503 ], [ 10.506319795981945, 48.602451305769939 ], [ 10.49999999973614, 48.603352266225173 ], [ 10.499244085390862, 48.603460029195112 ], [ 10.497178505514764, 48.612464546684478 ], [ 10.482455754913582, 48.610213568572739 ], [ 10.478126826560011, 48.601661856066038 ], [ 10.459185018751027, 48.593225663019062 ], [ 10.453757378041441, 48.57710962064256 ], [ 10.461950075416365, 48.562049318428556 ], [ 10.432354453153613, 48.553833146921896 ], [ 10.395020194162813, 48.540880852664728 ], [ 10.359312030465029, 48.523371663196301 ], [ 10.341234324704253, 48.513398962816929 ], [ 10.326524804490576, 48.50380563712055 ], [ 10.325427728865009, 48.504552744813324 ], [ 10.304727980927073, 48.519652372190819 ], [ 10.322922663507514, 48.533283549494236 ], [ 10.313550329942521, 48.557038960868674 ], [ 10.324878372237842, 48.574535254729312 ], [ 10.325406350757879, 48.575854400580951 ], [ 10.343117003995244, 48.577212007178126 ], [ 10.34691855031013, 48.557330426207379 ], [ 10.364388083148825, 48.558661962227532 ], [ 10.391504313904907, 48.573584461228585 ], [ 10.434749647365333, 48.585548519660094 ], [ 10.438880807117528, 48.605638218133166 ], [ 10.424839257979448, 48.612245299879092 ], [ 10.410621915726784, 48.612610710689403 ], [ 10.398931611623466, 48.60522890123957 ], [ 10.391504313904907, 48.595535888105481 ], [ 10.364168339958971, 48.584802677454064 ], [ 10.341754600170727, 48.58863414162893 ], [ 10.327471334152625, 48.583778954975884 ], [ 10.325471677143653, 48.583091586308313 ], [ 10.311921220801723, 48.607964067592349 ], [ 10.304024804875494, 48.622431949631711 ], [ 10.301981198689562, 48.626202093315172 ], [ 10.304376392901284, 48.655987952710881 ], [ 10.31775871426643, 48.657754973535027 ], [ 10.329932451231475, 48.645749689543514 ], [ 10.339271509401714, 48.648130528109157 ], [ 10.339324377052817, 48.649074626802005 ], [ 10.342655544823684, 48.64899227596608 ], [ 10.363970572255909, 48.61407232613881 ], [ 10.392119592500883, 48.626903483794756 ], [ 10.427629988495605, 48.625690655967723 ], [ 10.459866221112444, 48.642331601385834 ], [ 10.473380387313524, 48.663362295580356 ], [ 10.487817472756042, 48.683829536485071 ], [ 10.49999999973614, 48.697733182367244 ], [ 10.517790356895407, 48.718029982006463 ], [ 10.601182654451273, 48.693272012342767 ], [ 10.604808406753262, 48.683333283317175 ], [ 10.617927036649908, 48.670720954335415 ], [ 10.636539231021581, 48.668151386753799 ], [ 10.686398815003214, 48.670560359999783 ], [ 10.705120880520656, 48.653753531474877 ], [ 10.680575637989191, 48.643120411504803 ], [ 10.684794694298679, 48.627692537182575 ], [ 10.665699067065281, 48.608664135548793 ], [ 10.602259393117125, 48.590798350210527 ], [ 10.596590035527516, 48.572048526271338 ], [ 10.593689433865588, 48.553613644138743 ], [ 10.572594148724903, 48.547423275676991 ], [ 10.556047535127643, 48.558486377294223 ], [ 10.534314996802502, 48.569912766698401 ], [ 10.512934046503153, 48.571653564033312 ], [ 10.512049514968751, 48.572454183216138 ] ] ], [ [ [ 6.368391250697623, 51.154765803964956 ], [ 6.363116786218717, 51.155372198059283 ], [ 6.363599464495603, 51.170836758711182 ], [ 6.329241536941823, 51.188082597422017 ], [ 6.29323811407814, 51.201181393633412 ], [ 6.234329405879143, 51.203866845632703 ], [ 6.226782070780743, 51.207914570026482 ], [ 6.224456438511362, 51.252297006830574 ], [ 6.185271726392084, 51.270608573749982 ], [ 6.167149344717285, 51.247169511359807 ], [ 6.133647074149736, 51.248980058351222 ], [ 6.104949647695168, 51.29257013376904 ], [ 6.132484258015036, 51.313861311549829 ], [ 6.134085873318265, 51.323902865555809 ], [ 6.091588231024989, 51.341183413353711 ], [ 6.13129950232617, 51.363440603667883 ], [ 6.184569648081799, 51.345087119002088 ], [ 6.195824831617669, 51.330776295137724 ], [ 6.221209328796601, 51.331145662889959 ], [ 6.267348998169851, 51.330525650649093 ], [ 6.259516444375491, 51.314890639671958 ], [ 6.285010641121938, 51.299514287118278 ], [ 6.2961122450836, 51.303236763353269 ], [ 6.290649202666975, 51.27890317556966 ], [ 6.317042936406336, 51.288411057679198 ], [ 6.351620263993533, 51.28431762843077 ], [ 6.32590666721366, 51.248834689038794 ], [ 6.35517453195851, 51.217662032635808 ], [ 6.416013954163342, 51.228094941257815 ], [ 6.427664055962752, 51.263990303474316 ], [ 6.438261041194994, 51.256736847866385 ], [ 6.500000000392768, 51.25353748323429 ], [ 6.50302771007413, 51.253380578919234 ], [ 6.507349875910251, 51.232180185722235 ], [ 6.500000000392768, 51.228281402818546 ], [ 6.467945764655862, 51.211274173737266 ], [ 6.469547379060756, 51.198905911897569 ], [ 6.492057746132525, 51.192740376096928 ], [ 6.482184777866411, 51.178514141861484 ], [ 6.413973540589921, 51.171935497749445 ], [ 6.3746352488964, 51.15404793478092 ], [ 6.368391250697623, 51.154765803964956 ] ] ], [ [ [ 7.629995834038801, 49.695311835131186 ], [ 7.625263607936766, 49.699754441442458 ], [ 7.619312841406292, 49.706511588679568 ], [ 7.615733122372723, 49.713016594408032 ], [ 7.613294938384772, 49.72227877165296 ], [ 7.612946751380639, 49.731539171803846 ], [ 7.593442155334388, 49.75745884206377 ], [ 7.562792075319748, 49.759309714219839 ], [ 7.553818644944872, 49.777027854608015 ], [ 7.528807126475303, 49.77992683112452 ], [ 7.538021896437788, 49.806868771566769 ], [ 7.536288642012845, 49.811017947143803 ], [ 7.527402970753012, 49.827145378207121 ], [ 7.529881524131516, 49.834133950897687 ], [ 7.54379209710456, 49.840881452565021 ], [ 7.555658307510167, 49.841327081836113 ], [ 7.580396235076832, 49.840654926361076 ], [ 7.597357774215593, 49.839780237401108 ], [ 7.621218105241859, 49.838233489029413 ], [ 7.652987121384473, 49.839644784750888 ], [ 7.69807367419058, 49.838495382069333 ], [ 7.73269488178447, 49.83258789423072 ], [ 7.787939621552654, 49.82784391750905 ], [ 7.769992759904569, 49.802762919783227 ], [ 7.728811514218553, 49.803636534843562 ], [ 7.727187959361159, 49.785214465172011 ], [ 7.718280348547143, 49.761874585241117 ], [ 7.734055156601754, 49.727266483052745 ], [ 7.724401588369065, 49.72598314488895 ], [ 7.665887799331948, 49.707458435642089 ], [ 7.629995834038801, 49.695311835131186 ] ] ], [ [ [ 5.734274556514322, 51.811616815403461 ], [ 5.734157227555055, 51.81025109203145 ], [ 5.731839223779092, 51.783260709541786 ], [ 5.729184492807057, 51.763593652774716 ], [ 5.732848461237846, 51.736767063184914 ], [ 5.746231817462208, 51.739913078165984 ], [ 5.757859979707442, 51.734083523126571 ], [ 5.766262971792064, 51.693189310539722 ], [ 5.752089778142347, 51.685077472235953 ], [ 5.732804581231154, 51.691786715462193 ], [ 5.699390069778638, 51.690159121061328 ], [ 5.657879725389979, 51.681940856268675 ], [ 5.638616468033007, 51.708006513604204 ], [ 5.616917878839065, 51.725119603170519 ], [ 5.625013712673542, 51.748926910663108 ], [ 5.622622259944968, 51.776697176446767 ], [ 5.621744663404571, 51.802061173537226 ], [ 5.612771232131363, 51.821882901758421 ], [ 5.632394003349913, 51.85555313384917 ], [ 5.634162663075161, 51.858586689213887 ], [ 5.644935167435847, 51.855066645805003 ], [ 5.653469799540493, 51.837040213157699 ], [ 5.705357730924661, 51.821117644908867 ], [ 5.734274556514322, 51.811616815403461 ] ] ], [ [ [ 8.873417582679847, 49.105607566991964 ], [ 8.873110423531378, 49.107142554836912 ], [ 8.875787094955921, 49.11768151267551 ], [ 8.852947629181463, 49.120326861631412 ], [ 8.853474187465032, 49.137218670423444 ], [ 8.859244389030129, 49.156339172196752 ], [ 8.845795212346575, 49.152950899987339 ], [ 8.830261742981284, 49.158325292587378 ], [ 8.835329867134366, 49.171379117190426 ], [ 8.834123170992981, 49.184195948276006 ], [ 8.871794027822451, 49.185451176374094 ], [ 8.900052656006809, 49.171028724332814 ], [ 8.971576822558964, 49.17124772023476 ], [ 8.98055025383217, 49.164619011681886 ], [ 8.971445183437236, 49.162224280688115 ], [ 8.974867812280442, 49.155419103961115 ], [ 8.987493733311737, 49.15625098698694 ], [ 8.9864082145123, 49.147239965573803 ], [ 8.971028324721209, 49.140812547129997 ], [ 8.958127646773733, 49.114831392471778 ], [ 8.944327431833386, 49.101104661252592 ], [ 8.913545711798722, 49.090503667265224 ], [ 8.888402554207399, 49.089363010700652 ], [ 8.873417582679847, 49.105607566991964 ] ] ], [ [ [ 9.572050725409765, 49.429608872437754 ], [ 9.550615415357624, 49.456338245789638 ], [ 9.588132692612838, 49.45810903893517 ], [ 9.596184646440621, 49.468805003458044 ], [ 9.590809364037369, 49.477699587347274 ], [ 9.574727396834298, 49.486607052415856 ], [ 9.558645428732913, 49.495498385147528 ], [ 9.561555005462843, 49.499999999800124 ], [ 9.566697382560697, 49.50803728296971 ], [ 9.592666888703773, 49.499999999800124 ], [ 9.601537989289689, 49.497282257830811 ], [ 9.62834858174508, 49.491944948082569 ], [ 9.647631931720028, 49.499999999800124 ], [ 9.648972113919363, 49.500565553776099 ], [ 9.658691502611225, 49.509150618952916 ], [ 9.679606102412292, 49.499999999800124 ], [ 9.68999978092946, 49.495498385147528 ], [ 9.687323109504927, 49.483038459086174 ], [ 9.695353122880212, 49.470575344151314 ], [ 9.67124114140354, 49.45810903893517 ], [ 9.631025253169613, 49.434953015470064 ], [ 9.590809364037369, 49.424264144441231 ], [ 9.572050725409765, 49.429608872437754 ] ] ], [ [ [ 7.653798898364002, 49.260953982500162 ], [ 7.624706553645932, 49.268414829068995 ], [ 7.630147655610051, 49.287265895027197 ], [ 7.623214637910264, 49.301013569645846 ], [ 7.652153403952425, 49.343688329292682 ], [ 7.690548278646356, 49.325877740432531 ], [ 7.723896970538005, 49.315951054888224 ], [ 7.693554048773541, 49.276078500917933 ], [ 7.653798898364002, 49.260953982500162 ] ] ], [ [ [ 12.390748399680474, 49.10213838984096 ], [ 12.425265559008269, 49.070143374554327 ], [ 12.44359208732296, 49.039133391708113 ], [ 12.444962190607775, 49.039300530813094 ], [ 12.445657667199056, 49.038211136359614 ], [ 12.42759482945455, 49.022925536240791 ], [ 12.409773709488379, 49.019030174420216 ], [ 12.386107436123075, 49.023276982193984 ], [ 12.370769406925916, 49.032281938595119 ], [ 12.349542276050981, 49.041651209093395 ], [ 12.345477039165912, 49.058584589273543 ], [ 12.344500063802252, 49.061826588979358 ], [ 12.343812489690528, 49.064942255337797 ], [ 12.343523308525839, 49.06789284187505 ], [ 12.345608884900162, 49.07129910400463 ], [ 12.355598380828285, 49.072948093633315 ], [ 12.357919960797419, 49.073471510525408 ], [ 12.366770092009656, 49.075643820912731 ], [ 12.387250097656052, 49.089363010700652 ], [ 12.390748399680474, 49.10213838984096 ] ] ], [ [ [ 8.847488958865339, 49.627792102510178 ], [ 8.837281320545182, 49.636856405003329 ], [ 8.832906618536319, 49.654332769052019 ], [ 8.837281320545182, 49.676169352716293 ], [ 8.861342183390612, 49.683446023485793 ], [ 8.887590396342198, 49.673258377318014 ], [ 8.89633980125825, 49.661612725257271 ], [ 8.900714503267112, 49.645595375645918 ], [ 8.902901854271532, 49.626658945493993 ], [ 8.89633980125825, 49.604800016945532 ], [ 8.881028343328881, 49.601884748369628 ], [ 8.87665364131999, 49.616459338939961 ], [ 8.867904236403929, 49.626658945493993 ], [ 8.847488958865339, 49.627792102510178 ] ] ], [ [ [ 7.050670264541192, 49.869752242762246 ], [ 7.035443954324334, 49.857929678848365 ], [ 7.004135676904433, 49.865913500529629 ], [ 7.000000000422981, 49.872134800038609 ], [ 6.982020228994472, 49.899172410214227 ], [ 6.975964808733408, 49.912481145252308 ], [ 6.976623006138703, 49.923622190890526 ], [ 6.982480966818842, 49.935138177758375 ], [ 7.000000000422981, 49.93067145165692 ], [ 7.023771912072409, 49.924609798707941 ], [ 7.024210711240936, 49.906350287268424 ], [ 7.045273042583757, 49.891993459789099 ], [ 7.048203119766779, 49.883691132230176 ], [ 7.049113407797013, 49.880805234943793 ], [ 7.05113319694981, 49.871405716021783 ], [ 7.050670264541192, 49.869752242762246 ] ] ], [ [ [ 10.290863682869279, 48.554521077361173 ], [ 10.286467374581191, 48.544715664548946 ], [ 10.276117500612225, 48.533195712511123 ], [ 10.295081283009688, 48.522815251171686 ], [ 10.269217584932351, 48.518202652608402 ], [ 10.258867710963383, 48.520516326351419 ], [ 10.243353886855015, 48.530882621366999 ], [ 10.227840062746646, 48.547013484399486 ], [ 10.218720746867946, 48.557462118140862 ], [ 10.215776196927372, 48.560842093883878 ], [ 10.239903928565919, 48.572355716778965 ], [ 10.236453970276827, 48.590769105100236 ], [ 10.24317809284212, 48.585928749042935 ], [ 10.241445399864228, 48.590644859525121 ], [ 10.258867710963383, 48.574652274059765 ], [ 10.259643480771389, 48.57398770279385 ], [ 10.272667542323131, 48.560842093883878 ], [ 10.291624040281954, 48.556216764629156 ], [ 10.290863682869279, 48.554521077361173 ] ] ], [ [ [ 8.763443440570846, 49.688598031259097 ], [ 8.782597542739349, 49.690721599209027 ], [ 8.786972244748211, 49.683446023485793 ], [ 8.786972244748211, 49.671802824495167 ], [ 8.780410190836596, 49.664524400965554 ], [ 8.773848137823288, 49.649964269498192 ], [ 8.762911381902782, 49.63831300925542 ], [ 8.743225221964542, 49.632486328191753 ], [ 8.727913764035172, 49.633943063888445 ], [ 8.703852901189743, 49.648508015164488 ], [ 8.708227604096939, 49.661612725257271 ], [ 8.732288466044034, 49.657244882844019 ], [ 8.745412572968995, 49.671802824495167 ], [ 8.765098732907228, 49.681990776704055 ], [ 8.763443440570846, 49.688598031259097 ] ] ], [ [ [ 8.633197305804318, 49.054311543114203 ], [ 8.634667281087486, 49.053535916847636 ], [ 8.646997520744707, 49.055701787163301 ], [ 8.671548300491592, 49.055628617429903 ], [ 8.693466289718932, 49.041651209093395 ], [ 8.693876649123853, 49.04065743523897 ], [ 8.680675311339007, 49.021549014620426 ], [ 8.64850549745935, 49.01275155136225 ], [ 8.62883125996156, 49.027450214647033 ], [ 8.613539130183835, 49.029441527377486 ], [ 8.630103775663791, 49.038137940735247 ], [ 8.633197305804318, 49.054311543114203 ] ] ], [ [ [ 8.490017328188383, 49.067978222160733 ], [ 8.499999999615302, 49.064971776507846 ], [ 8.503620088039424, 49.063881481977525 ], [ 8.514743631555238, 49.051926086556577 ], [ 8.533282871946081, 49.051574844136034 ], [ 8.537100419052807, 49.035942021037776 ], [ 8.507334932556329, 49.02632504133534 ], [ 8.499999999615302, 49.027172678417429 ], [ 8.474791022463112, 49.030085758886955 ], [ 8.465203273791293, 49.048764813148786 ], [ 8.471741372329234, 49.063018215242565 ], [ 8.490017328188383, 49.067978222160733 ] ] ], [ [ [ 9.008852761124896, 49.232017905407588 ], [ 9.007207266713319, 49.24519796187851 ], [ 9.010498255536472, 49.263868510530955 ], [ 9.035224555310082, 49.261682631178914 ], [ 9.059928914631191, 49.260575081099184 ], [ 9.06488163401637, 49.262527849173651 ], [ 9.067753790524826, 49.263467627472181 ], [ 9.073135215607991, 49.26448053953419 ], [ 9.075578884709076, 49.262891142855977 ], [ 9.074782246138705, 49.260575081099184 ], [ 9.072093288456029, 49.256074966933767 ], [ 9.070023694907244, 49.252850393622644 ], [ 9.061596349495268, 49.240809862684507 ], [ 9.045097522677864, 49.229816024401892 ], [ 9.026944865083042, 49.230537406846594 ], [ 9.008852761124896, 49.232017905407588 ] ] ], [ [ [ 8.79109897131447, 49.087637352135509 ], [ 8.794850698860328, 49.092214602397767 ], [ 8.782695978331551, 49.097566376102066 ], [ 8.797680949859105, 49.112843519127516 ], [ 8.816571227608446, 49.111849552116205 ], [ 8.81718554590539, 49.095665539198841 ], [ 8.823482305754057, 49.094378777325801 ], [ 8.824640247629997, 49.093672431207068 ], [ 8.837721318964606, 49.085692257926766 ], [ 8.832060817865385, 49.074678361359283 ], [ 8.811941902623866, 49.070860222542933 ], [ 8.800028521682663, 49.079505470992579 ], [ 8.79109897131447, 49.087637352135509 ] ] ], [ [ [ 8.59036840795344, 49.061743435375853 ], [ 8.583020689290954, 49.065476291710397 ], [ 8.591138462679616, 49.075643820912731 ], [ 8.599804734804312, 49.091395700668805 ], [ 8.621459443991569, 49.093048113536128 ], [ 8.636532174634157, 49.081216787297429 ], [ 8.62736128467839, 49.070553003081521 ], [ 8.616764299446123, 49.065534815723581 ], [ 8.615772605186516, 49.06480225207617 ], [ 8.611323197482003, 49.067480703969011 ], [ 8.59747910253493, 49.067670899779657 ], [ 8.59036840795344, 49.061743435375853 ] ] ] ] } }
]
}
