{
"type": "FeatureCollection",
"name": "Wurttemberg",
"crs": { "type": "name", "properties": { "name": "urn:ogc:def:crs:OGC:1.3:CRS84" } },
"features": [
{ "type": "Feature", "properties": { "OBJECTID": 24.0, "YEAR": 1700.0, "OWNER_ID": 2624.0, "SHORT_NAME": "WÃ?Â¼rttemberg", "LONG_NAME": "Duchy of WÃ?Â¼rttemberg", "VARIANTS": "Wirtemberg, Wuerttemberg", "SHAPE_LENG": 2162610.0, "Shape__Are": 19667720401.927002, "Shape__Len": 2165834.1331849713 }, "geometry": { "type": "MultiPolygon", "coordinates": [ [ [ [ 9.656560961065356, 49.024488707590585 ], [ 9.658779262624593, 49.018737277731326 ], [ 9.696186840312251, 49.000295937702901 ], [ 9.69656759214374, 49.000000000276607 ], [ 9.712510147102924, 48.987731641610139 ], [ 9.711742250130067, 48.971960206274964 ], [ 9.716722613371484, 48.946790966309877 ], [ 9.690087540044512, 48.936626754091151 ], [ 9.715011299399038, 48.92033063093043 ], [ 9.715208758081642, 48.90086122732977 ], [ 9.730851927014509, 48.882082010060969 ], [ 9.722448934929886, 48.84748468911161 ], [ 9.734844994147966, 48.813969702374337 ], [ 9.745639438961152, 48.805510991640745 ], [ 9.72753899863717, 48.789375771582435 ], [ 9.674663770246744, 48.747702968360642 ], [ 9.649015993926048, 48.74179893784266 ], [ 9.661894732319331, 48.729274252488416 ], [ 9.696779218156689, 48.692177535166586 ], [ 9.701825242855481, 48.65420625746885 ], [ 9.645395906400239, 48.651372960547498 ], [ 9.620164987897242, 48.632251266678367 ], [ 9.568364817424774, 48.60359160089169 ], [ 9.566763202121564, 48.577475286564486 ], [ 9.545635051217895, 48.56792321106542 ], [ 9.565512626871822, 48.535494058426252 ], [ 9.571620790816469, 48.500000000192749 ], [ 9.573125781531088, 48.491337169620898 ], [ 9.620801245748364, 48.49461564264459 ], [ 9.62393678739981, 48.500000000192749 ], [ 9.637365892126638, 48.523283808917846 ], [ 9.657484806469851, 48.533093236334302 ], [ 9.671131565803499, 48.559832805563538 ], [ 9.671460541436955, 48.560607990056077 ], [ 9.672820816254251, 48.560125148550078 ], [ 9.704918931997838, 48.551521004275273 ], [ 9.747460453399464, 48.536182077981181 ], [ 9.768632484309819, 48.516049962181462 ], [ 9.79285416535404, 48.521848836789033 ], [ 9.810384168286088, 48.524323406164868 ], [ 9.81612933470252, 48.521445473687081 ], [ 9.81979639782948, 48.519608441527751 ], [ 9.832938414466234, 48.509034774533511 ], [ 9.85817889733206, 48.500000000192749 ], [ 9.858432611212701, 48.49991007174696 ], [ 9.8586739508003, 48.486752751990544 ], [ 9.862030760082639, 48.454171074212987 ], [ 9.849678579972926, 48.430574324522574 ], [ 9.856874876814487, 48.416992120594919 ], [ 9.835615085890767, 48.408550429897957 ], [ 9.847265187690178, 48.390107480729135 ], [ 9.823285651124051, 48.390895890117825 ], [ 9.785811448086713, 48.39212795864114 ], [ 9.736885407721381, 48.390848816280545 ], [ 9.743511266272689, 48.412415475101078 ], [ 9.729403892183848, 48.435309079665096 ], [ 9.698819631730101, 48.438939726285803 ], [ 9.697854275176327, 48.454200109553703 ], [ 9.66810373215462, 48.459527815120026 ], [ 9.663167248021569, 48.472779313613884 ], [ 9.624333575057436, 48.472474553641362 ], [ 9.613363610217515, 48.461937437581 ], [ 9.57856688349521, 48.461603581044173 ], [ 9.572884442841803, 48.445430672128587 ], [ 9.538921433551534, 48.439898173413354 ], [ 9.552633888478539, 48.427712923311127 ], [ 9.540150069247092, 48.417122875412602 ], [ 9.517924921769598, 48.421902472424563 ], [ 9.510443406232069, 48.402723242778002 ], [ 9.520755172768366, 48.390441810036045 ], [ 9.505879900808354, 48.385862761446013 ], [ 9.499999999675717, 48.386902992907586 ], [ 9.479749446210768, 48.390485418303776 ], [ 9.440301454949697, 48.392680305053467 ], [ 9.428475833123555, 48.417093818749265 ], [ 9.40074376322276, 48.420798411299948 ], [ 9.3683823692357, 48.418590216085839 ], [ 9.353550977282371, 48.39877025501653 ], [ 9.340365080638936, 48.386662307560627 ], [ 9.330031373650138, 48.39634308366535 ], [ 9.303484060336533, 48.390950567629147 ], [ 9.288169991004633, 48.388813751114647 ], [ 9.263816669940359, 48.385179502294001 ], [ 9.248502599710143, 48.38557201378206 ], [ 9.195780982334988, 48.38693851046299 ], [ 9.198962241047873, 48.40544074306532 ], [ 9.19841374321012, 48.420943683800054 ], [ 9.173599684321458, 48.430400030698202 ], [ 9.142379166016591, 48.429993342769265 ], [ 9.118464644120836, 48.416556267164843 ], [ 9.112628622994881, 48.39711339659592 ], [ 9.0998008361462, 48.397620585568887 ], [ 9.086827267099949, 48.412023171901922 ], [ 9.057098663632424, 48.415466617743206 ], [ 9.020766142066089, 48.421553823740027 ], [ 8.999999999645505, 48.429393836271572 ], [ 8.979263237524613, 48.437221542892857 ], [ 8.973595295679866, 48.439360864421488 ], [ 8.982178876984388, 48.452548567220433 ], [ 8.985706136201996, 48.450309222673603 ], [ 8.997071019305437, 48.464869473185182 ], [ 8.999999999645505, 48.465720114425714 ], [ 9.018111411094054, 48.470979752443327 ], [ 9.018703788938494, 48.482516147741762 ], [ 9.01082735513744, 48.492338141714285 ], [ 9.029414604191988, 48.500000000192749 ], [ 9.034193378297125, 48.501989313111572 ], [ 9.028708396326325, 48.519154493276432 ], [ 9.047203755812143, 48.524338047755663 ], [ 9.040073279429762, 48.535128086555602 ], [ 9.022082537775013, 48.552647821586369 ], [ 9.002139143458535, 48.54985268372748 ], [ 8.999999999645505, 48.553013905197069 ], [ 8.986057175357148, 48.573613716342081 ], [ 8.964643804859202, 48.570571058763264 ], [ 8.950777770357963, 48.582535834502806 ], [ 8.921882884322475, 48.575588420087826 ], [ 8.923967177902554, 48.565377635141957 ], [ 8.908675048124866, 48.559832514572051 ], [ 8.906064196261191, 48.545184018469399 ], [ 8.881403716946746, 48.543105664659059 ], [ 8.83607582455303, 48.535494058426252 ], [ 8.817470764601349, 48.541378516747514 ], [ 8.804131288383681, 48.544935206159721 ], [ 8.801717896100925, 48.542227461133308 ], [ 8.792810285286944, 48.544203397661619 ], [ 8.782849557905795, 48.548989232981121 ], [ 8.774205226233562, 48.562510049949829 ], [ 8.76819368597919, 48.565816536470514 ], [ 8.755709866747734, 48.558632698412737 ], [ 8.746165997184299, 48.554594082129434 ], [ 8.730588648710624, 48.555954955985406 ], [ 8.724489348442875, 48.55122832082801 ], [ 8.734866934540051, 48.543910671043527 ], [ 8.736518376697108, 48.535333453990013 ], [ 8.695879681103358, 48.533078596692981 ], [ 8.694672984961983, 48.517807267460334 ], [ 8.671833520085858, 48.518422309881679 ], [ 8.644920887997346, 48.539848752708473 ], [ 8.64331161275971, 48.541129685023058 ], [ 8.610555299610823, 48.548784344137232 ], [ 8.588286272126627, 48.53452788740428 ], [ 8.586180038992374, 48.511671076594482 ], [ 8.583124439316361, 48.500000000192749 ], [ 8.582559950568253, 48.497864892833249 ], [ 8.567421400364761, 48.498633657725172 ], [ 8.568979134762962, 48.491975473368825 ], [ 8.540128128734167, 48.488856413228163 ], [ 8.541817504050726, 48.474448203883014 ], [ 8.556912174247534, 48.476784557733197 ], [ 8.577908686029488, 48.466886962748646 ], [ 8.575648873320965, 48.451949819643517 ], [ 8.580014919163768, 48.445793675830153 ], [ 8.589054169997809, 48.441481024045679 ], [ 8.587825533403953, 48.429223531355113 ], [ 8.600879790925635, 48.421147064598614 ], [ 8.6264178676788, 48.411659925462153 ], [ 8.642579193850693, 48.414357318512572 ], [ 8.6831764627368, 48.421132537126837 ], [ 8.691623335726439, 48.412778716111447 ], [ 8.704129094512069, 48.412037701992304 ], [ 8.729482019501981, 48.423676933555456 ], [ 8.731312665676777, 48.424517258192026 ], [ 8.740593256098455, 48.414783759061692 ], [ 8.760295311725631, 48.414420532460063 ], [ 8.761905065765323, 48.413421133336222 ], [ 8.763909589846504, 48.412176617363365 ], [ 8.766262971973321, 48.41071547298106 ], [ 8.754678689734769, 48.396066930912525 ], [ 8.721702977450782, 48.377953840533543 ], [ 8.737302266376973, 48.365695479628897 ], [ 8.7491278882031, 48.359339739874336 ], [ 8.747087474629714, 48.350539286533717 ], [ 8.744410803205179, 48.345418318843272 ], [ 8.75880339598999, 48.334403575857387 ], [ 8.759878453009611, 48.314230351607073 ], [ 8.761262189127189, 48.314629652034668 ], [ 8.764705236676784, 48.302509895031484 ], [ 8.761502007867005, 48.289679807638123 ], [ 8.760931569576751, 48.28895155544857 ], [ 8.759022796023389, 48.26763827535207 ], [ 8.740856535240248, 48.261401393898588 ], [ 8.743993944489162, 48.22829522344702 ], [ 8.701452423087526, 48.215519314813662 ], [ 8.701408683218027, 48.253364095870083 ], [ 8.698336953392799, 48.253006624792206 ], [ 8.688727265166802, 48.266720277998346 ], [ 8.695901621555866, 48.294165610046335 ], [ 8.675300028935748, 48.30191288013706 ], [ 8.659108361266828, 48.287771764802685 ], [ 8.641293139638805, 48.287480454471762 ], [ 8.636400535512429, 48.30092269350456 ], [ 8.637541784893772, 48.301359733859215 ], [ 8.691601395273929, 48.329004459135071 ], [ 8.66781851249992, 48.343381426680516 ], [ 8.632912087108357, 48.323924980542436 ], [ 8.626746966381456, 48.335771455185501 ], [ 8.581769434016515, 48.334526254591886 ], [ 8.580212378744685, 48.350859329602798 ], [ 8.538329054748365, 48.351543051503185 ], [ 8.534072709371445, 48.333806936300299 ], [ 8.513295596724586, 48.331536731289418 ], [ 8.499999999615302, 48.32669746384245 ], [ 8.4997806004802, 48.326617603960862 ], [ 8.483369534574477, 48.332395346268292 ], [ 8.47463744288887, 48.329149995340231 ], [ 8.46531489755019, 48.308411254078464 ], [ 8.45107395924996, 48.313254963217808 ], [ 8.422859211072288, 48.301956564070323 ], [ 8.407150222578544, 48.257860019356528 ], [ 8.383301520243673, 48.256898122058793 ], [ 8.382599442831649, 48.300296536182302 ], [ 8.361602931049733, 48.298403455136224 ], [ 8.348131814811994, 48.269270230357655 ], [ 8.318973650533065, 48.258501274307534 ], [ 8.311470194543016, 48.229097256620641 ], [ 8.323822374652746, 48.212354010506488 ], [ 8.357171065646069, 48.20848827961472 ], [ 8.405570547727832, 48.209961668144551 ], [ 8.423429649362539, 48.20205446973479 ], [ 8.413600562001452, 48.172938980280883 ], [ 8.437602843012231, 48.170909761978074 ], [ 8.457502358220351, 48.182412461536018 ], [ 8.484927268972678, 48.182018376404116 ], [ 8.488810636538586, 48.167931482767223 ], [ 8.482316342548845, 48.147677450969837 ], [ 8.464961934203682, 48.138533543548306 ], [ 8.43165712321705, 48.144420329623181 ], [ 8.417791087817504, 48.135918599646892 ], [ 8.444228701563549, 48.120679138173102 ], [ 8.421784154950972, 48.101298143459417 ], [ 8.405592488180341, 48.095728036461146 ], [ 8.378628315252401, 48.088022451566609 ], [ 8.36436736248764, 48.101780565117004 ], [ 8.333695342020528, 48.099280694508892 ], [ 8.304032559012168, 48.085317179806808 ], [ 8.305222895035605, 48.082861579384222 ], [ 8.276410188678923, 48.07923345104053 ], [ 8.222175011559646, 48.086062930676221 ], [ 8.205763619565509, 48.109674091160791 ], [ 8.250016454939569, 48.123090285926068 ], [ 8.213289015109698, 48.157418518036515 ], [ 8.156047841487792, 48.169260029447784 ], [ 8.155826793045819, 48.168078412247809 ], [ 8.146065073941156, 48.173946259638051 ], [ 8.13366901382477, 48.189038472721876 ], [ 8.154292546897359, 48.204024090023424 ], [ 8.14843458621722, 48.224328618034953 ], [ 8.173358344673442, 48.231619934232697 ], [ 8.170703613701381, 48.250237212770045 ], [ 8.204074245147249, 48.254420424313416 ], [ 8.205653919997923, 48.268541685429383 ], [ 8.26241251415766, 48.278113930887756 ], [ 8.286348976505904, 48.266589133908113 ], [ 8.316099519527604, 48.279381353319934 ], [ 8.301004848432509, 48.309062036815639 ], [ 8.328736918333295, 48.328320433074865 ], [ 8.349887009689455, 48.337022886417522 ], [ 8.395851159934285, 48.321348660973278 ], [ 8.427093617793329, 48.329062673667252 ], [ 8.425294543807517, 48.354030557979534 ], [ 8.366780753872066, 48.357376134657152 ], [ 8.340738059287828, 48.363281264808542 ], [ 8.329987494481353, 48.387897945320077 ], [ 8.323383575484218, 48.44641803587669 ], [ 8.333892801601445, 48.457568098120774 ], [ 8.31046095798256, 48.464100193373149 ], [ 8.30133394803345, 48.481282822560225 ], [ 8.283365145932894, 48.489233611901405 ], [ 8.282331722233421, 48.500000000192749 ], [ 8.281829351088867, 48.505285129832536 ], [ 8.251925228492933, 48.509020127896271 ], [ 8.238761271403673, 48.519769519244726 ], [ 8.253395203776092, 48.545023022655151 ], [ 8.25642291435576, 48.575749318672585 ], [ 8.241404740196989, 48.589940793077382 ], [ 8.244860571671421, 48.599980578893643 ], [ 8.254579960363257, 48.606851530619565 ], [ 8.269477171877469, 48.601018591707522 ], [ 8.280710414960859, 48.591909664895113 ], [ 8.296309703887053, 48.597904489492514 ], [ 8.346003642123538, 48.593094064758127 ], [ 8.357609863916263, 48.601296366153704 ], [ 8.379703372272013, 48.60682229485618 ], [ 8.409826894003086, 48.625398404309685 ], [ 8.418734504817094, 48.647166521104829 ], [ 8.433412317196169, 48.66839958977193 ], [ 8.452960793249147, 48.686485869147397 ], [ 8.449757563541034, 48.699882144294989 ], [ 8.454650167667408, 48.717125663978351 ], [ 8.484532350709159, 48.72991587231013 ], [ 8.470995414910561, 48.75411643282596 ], [ 8.49093880922705, 48.763662224576599 ], [ 8.492386844956034, 48.796774156179488 ], [ 8.468625902634496, 48.806966982557107 ], [ 8.444338401131091, 48.815294430519884 ], [ 8.429441189616924, 48.844909652326223 ], [ 8.452609754093986, 48.855616276717463 ], [ 8.429243730934292, 48.869912429881772 ], [ 8.457326839091943, 48.880017607701589 ], [ 8.499999999615302, 48.876030887373169 ], [ 8.502457271904733, 48.875801308287301 ], [ 8.506625858166611, 48.896922830914612 ], [ 8.524375260233741, 48.904639469624136 ], [ 8.540764387483588, 48.921274847699742 ], [ 8.560795541813444, 48.920069151659916 ], [ 8.564481449798441, 48.905787417115327 ], [ 8.585061102864341, 48.902924764841934 ], [ 8.605333596781806, 48.879755916816677 ], [ 8.609787401739643, 48.862757594673191 ], [ 8.624706553706329, 48.857696236896132 ], [ 8.640613001780991, 48.860125171387551 ], [ 8.666787336385289, 48.827433706986952 ], [ 8.691403935693003, 48.829543951166642 ], [ 8.716415454162609, 48.814653907217277 ], [ 8.742107110489973, 48.829020036995111 ], [ 8.784209833621404, 48.833138436447051 ], [ 8.783222536615131, 48.855281729561113 ], [ 8.762906162690973, 48.848415743134836 ], [ 8.752353057465388, 48.855412639559994 ], [ 8.752660216613856, 48.867614851033693 ], [ 8.760273371273124, 48.908388364280448 ], [ 8.79204238831406, 48.924528628591638 ], [ 8.80531604497088, 48.949317175853551 ], [ 8.767096689405365, 48.935130986931959 ], [ 8.737960464680604, 48.922771032400085 ], [ 8.714265341919933, 48.940474879061526 ], [ 8.737017047681016, 48.945847234223841 ], [ 8.765911932818167, 48.953788541892017 ], [ 8.756762983314873, 48.971104022909465 ], [ 8.735898110654682, 48.977038953221658 ], [ 8.722207595281843, 48.965008734821545 ], [ 8.704633713241428, 48.99205448855173 ], [ 8.681903947034558, 48.980173005882165 ], [ 8.647194980325626, 48.989675518924734 ], [ 8.647784518595433, 49.000000000276607 ], [ 8.64850549745935, 49.01275155136225 ], [ 8.680675311339007, 49.021549014620426 ], [ 8.693876649123853, 49.04065743523897 ], [ 8.714813839757678, 49.044505555957322 ], [ 8.735327673262754, 49.078320678854354 ], [ 8.79109897131447, 49.087637352135509 ], [ 8.800028521682663, 49.079505470992579 ], [ 8.811941902623866, 49.070860222542933 ], [ 8.832060817865385, 49.074678361359283 ], [ 8.837721318964606, 49.085692257926766 ], [ 8.824640247629997, 49.093672431207068 ], [ 8.823482305754057, 49.094378777325801 ], [ 8.873417582679847, 49.105607566991964 ], [ 8.888402554207399, 49.089363010700652 ], [ 8.913545711798722, 49.090503667265224 ], [ 8.944327431833386, 49.101104661252592 ], [ 8.958127646773733, 49.114831392471778 ], [ 8.971028324721209, 49.140812547129997 ], [ 8.9864082145123, 49.147239965573803 ], [ 8.987493733311737, 49.15625098698694 ], [ 8.987856249342959, 49.159259909310968 ], [ 8.999999999645505, 49.162329419434208 ], [ 9.002819280418024, 49.163042006762488 ], [ 9.017892011958953, 49.153067741165444 ], [ 9.025198007469751, 49.133712196759227 ], [ 9.044812303981894, 49.132367982366404 ], [ 9.068463546735863, 49.144040969041974 ], [ 9.087375764937704, 49.157784958898674 ], [ 9.092334188624935, 49.177612776677016 ], [ 9.085225651796739, 49.192690003717551 ], [ 9.087595164072804, 49.209090179110312 ], [ 9.123708286504035, 49.206624665860794 ], [ 9.119693279816394, 49.189639901966792 ], [ 9.137859540599562, 49.168386096265692 ], [ 9.134897650479058, 49.146261299687659 ], [ 9.186566181829793, 49.142609387197894 ], [ 9.181212838980725, 49.133902136872223 ], [ 9.218664297573383, 49.130190861637011 ], [ 9.248151561453307, 49.148627593923599 ], [ 9.231082296345647, 49.163231833824575 ], [ 9.248436780149275, 49.184429481496018 ], [ 9.263290111656788, 49.20008826878145 ], [ 9.235711621330227, 49.217725795057241 ], [ 9.251179271134676, 49.254541411555408 ], [ 9.270508348052536, 49.283245718770011 ], [ 9.302694222911176, 49.291067279668475 ], [ 9.301794685918271, 49.302440543803598 ], [ 9.271298185477889, 49.304813888136813 ], [ 9.253022225127172, 49.313723824227793 ], [ 9.253197744255591, 49.342408045613624 ], [ 9.252495666843602, 49.364139226047762 ], [ 9.277090326597161, 49.375364673321933 ], [ 9.268937106585712, 49.393683166207218 ], [ 9.26772197706045, 49.396412706363897 ], [ 9.278727906851087, 49.397940302167747 ], [ 9.291910469846501, 49.399769946411809 ], [ 9.296844773768356, 49.400454774456904 ], [ 9.299447114094704, 49.400815947227954 ], [ 9.308458568358926, 49.396761954801661 ], [ 9.324546391679334, 49.389523672204717 ], [ 9.360264595847047, 49.382604591726455 ], [ 9.354274995146859, 49.373634494357759 ], [ 9.401292261958831, 49.359194558236929 ], [ 9.413754140737778, 49.324291352337134 ], [ 9.402345378525968, 49.296572210593702 ], [ 9.392977028989259, 49.270906381962206 ], [ 9.406250685646061, 49.232513679293056 ], [ 9.381699905899186, 49.226461976735642 ], [ 9.37761907875236, 49.215231541425034 ], [ 9.394074025563082, 49.203414936755301 ], [ 9.446664033460905, 49.208754643455485 ], [ 9.432732179398799, 49.162662349853704 ], [ 9.408313038773658, 49.158617362255789 ], [ 9.397716053541389, 49.152322876042433 ], [ 9.400195265385006, 49.137452426542907 ], [ 9.42202549459898, 49.134048244334728 ], [ 9.443153645502649, 49.139979842857549 ], [ 9.461758704556022, 49.128276669053434 ], [ 9.481636280209948, 49.129796339385663 ], [ 9.499999999675717, 49.11467917608956 ], [ 9.502193992823363, 49.112872753373601 ], [ 9.526832532583606, 49.102961429103971 ], [ 9.557877531760056, 49.090927750555416 ], [ 9.605552995977334, 49.081465435360947 ], [ 9.607469780706397, 49.080007626658634 ], [ 9.627207705164572, 49.064993464628024 ], [ 9.648335856068243, 49.045808254580329 ], [ 9.656560961065356, 49.024488707590585 ] ], [ [ 9.230095000237689, 48.508287797170013 ], [ 9.225158516104642, 48.520428467091172 ], [ 9.20609271832857, 48.528115556461458 ], [ 9.187619298396934, 48.534191187156601 ], [ 9.155696702680077, 48.532727247006953 ], [ 9.136630904904004, 48.543091027930004 ], [ 9.114252177852276, 48.541963997146411 ], [ 9.112189823826363, 48.52373771994597 ], [ 9.127832993657545, 48.51369214801516 ], [ 9.117762565810532, 48.506120035494213 ], [ 9.107398879345757, 48.500000000192749 ], [ 9.1050374078898, 48.498619153139913 ], [ 9.104379209586179, 48.481877724221413 ], [ 9.126209438800153, 48.470805598070847 ], [ 9.157956515388591, 48.469020479594143 ], [ 9.196461089650073, 48.480209079787429 ], [ 9.219936813275625, 48.491859418254613 ], [ 9.224995175436531, 48.500000000192749 ], [ 9.230095000237689, 48.508287797170013 ] ], [ [ 9.338127207484606, 48.760849684804299 ], [ 9.353002479444617, 48.770729306956959 ], [ 9.377794598779094, 48.76908283872892 ], [ 9.405065929058871, 48.76908283872892 ], [ 9.392669869840791, 48.790482686005156 ], [ 9.372836174193546, 48.795419809479242 ], [ 9.355481691288233, 48.793774155753844 ], [ 9.328210360110141, 48.793774155753844 ], [ 9.310855876306514, 48.797065408314637 ], [ 9.291022181557583, 48.795419809479242 ], [ 9.263750850379491, 48.785545074443704 ], [ 9.246396366575862, 48.772375720287783 ], [ 9.25879242669226, 48.760849684804299 ], [ 9.288542969713967, 48.757556042976269 ], [ 9.338127207484606, 48.760849684804299 ] ], [ [ 9.030704929893052, 48.76908283872892 ], [ 9.05549704922753, 48.752615172633817 ], [ 9.06789310844561, 48.737789630095193 ], [ 9.092685227780088, 48.744379303348857 ], [ 9.097643651467319, 48.731199087842924 ], [ 9.119956558958179, 48.721311645623473 ], [ 9.122435770801795, 48.741084575345006 ], [ 9.15466552566712, 48.741084575345006 ], [ 9.167061585783516, 48.737789630095193 ], [ 9.169540797627132, 48.754262183920353 ], [ 9.139790254605423, 48.762496423961998 ], [ 9.137311042761809, 48.777314635652282 ], [ 9.117477347114564, 48.772375720287783 ], [ 9.10260207515455, 48.775668384635054 ], [ 9.092685227780088, 48.787190999064954 ], [ 9.070372320289225, 48.780606973595333 ], [ 9.030704929893052, 48.76908283872892 ] ], [ [ 8.762950042697666, 48.806937862906295 ], [ 8.76047083085404, 48.792128448324959 ], [ 8.77286689007213, 48.778960831774334 ], [ 8.78774216203216, 48.772375720287783 ], [ 8.817492705053859, 48.772375720287783 ], [ 8.844764036231943, 48.770729306956959 ], [ 8.872035367410026, 48.778960831774334 ], [ 8.876993791097259, 48.79871095344744 ], [ 8.849722459919175, 48.802001880233249 ], [ 8.797659009406633, 48.803647261887185 ], [ 8.762950042697666, 48.806937862906295 ] ] ], [ [ [ 6.899167487446023, 47.358991099680189 ], [ 6.898494920589416, 47.338899040518989 ], [ 6.882167936994313, 47.339027445699351 ], [ 6.877103490543979, 47.328871978682017 ], [ 6.855580420478491, 47.327081750043845 ], [ 6.832170517312113, 47.316193517369143 ], [ 6.822451128620234, 47.284534953711599 ], [ 6.79833914714357, 47.282641242943157 ], [ 6.781533162076003, 47.304545849802309 ], [ 6.780238706819586, 47.320706294005753 ], [ 6.782739858217377, 47.332525019688802 ], [ 6.798602426285355, 47.3416055821287 ], [ 6.800335680710308, 47.357260040679357 ], [ 6.773020469525532, 47.364881895627455 ], [ 6.780172886360393, 47.384091617382069 ], [ 6.794543539591029, 47.419191871585326 ], [ 6.793358783902162, 47.436028730487152 ], [ 6.795618596610677, 47.455009093765391 ], [ 6.772691370822853, 47.459553483078906 ], [ 6.750729502487163, 47.451059654836726 ], [ 6.721659097323267, 47.445904607221223 ], [ 6.727824217151847, 47.42767634983381 ], [ 6.693619869172309, 47.418959400244816 ], [ 6.666589876683503, 47.437466657947411 ], [ 6.628107241976204, 47.435665611288819 ], [ 6.605640755809415, 47.431816392659698 ], [ 6.577250488503325, 47.434532663161242 ], [ 6.575188134477404, 47.451756636619606 ], [ 6.567772439399055, 47.46708787787837 ], [ 6.558842888132575, 47.477567444930415 ], [ 6.577228548050816, 47.484823529999638 ], [ 6.579460001844136, 47.500000000208502 ], [ 6.579620000779399, 47.501098484830258 ], [ 6.601516048655925, 47.501772211256949 ], [ 6.621591083890761, 47.503939792674046 ], [ 6.626286228436218, 47.520896543498004 ], [ 6.61198139476644, 47.560382340320494 ], [ 6.590853243862789, 47.603229617709765 ], [ 6.553972224458673, 47.642915925897562 ], [ 6.553248206594222, 47.658002209492771 ], [ 6.577667347219344, 47.666456204747504 ], [ 6.63282432697416, 47.645019214017886 ], [ 6.647085280637216, 47.650466917997157 ], [ 6.681443208191024, 47.623836381530822 ], [ 6.713826542630574, 47.608959409899391 ], [ 6.743489326537231, 47.580187139516575 ], [ 6.767294148865427, 47.554076572647425 ], [ 6.79318326387542, 47.54155055733861 ], [ 6.817712104068103, 47.53764287745328 ], [ 6.830173983745375, 47.535652336668036 ], [ 6.866309045730784, 47.541418842530042 ], [ 6.89625704833341, 47.544331124508247 ], [ 6.906700453991443, 47.523766052682745 ], [ 6.944941749111133, 47.52211171210714 ], [ 6.968878211459414, 47.509446215777686 ], [ 6.966881677892685, 47.500776264900864 ], [ 6.964347914955124, 47.500000000208502 ], [ 6.942308957693283, 47.493311870522 ], [ 6.925239693483965, 47.496141010438031 ], [ 6.907687750997726, 47.491860969629251 ], [ 6.919798591519847, 47.476174161158099 ], [ 6.924142696910133, 47.466144323425688 ], [ 6.950784849859859, 47.46383573507579 ], [ 6.95425087811107, 47.457501614903471 ], [ 6.956249022357095, 47.453357736000576 ], [ 6.952708484242967, 47.452032522471406 ], [ 6.945139208692058, 47.437887861916316 ], [ 6.926994888361381, 47.426920938843011 ], [ 6.925722371760843, 47.402727477279775 ], [ 6.911527238556951, 47.388569480800633 ], [ 6.898933719757943, 47.366292690434875 ], [ 6.900013428254133, 47.365910734913648 ], [ 6.902266377833859, 47.365113727616318 ], [ 6.899167487446023, 47.358991099680189 ] ] ], [ [ [ 10.304024804875494, 48.622431949631711 ], [ 10.28578617311809, 48.611952969315517 ], [ 10.266273034093462, 48.619231488778432 ], [ 10.236344099131056, 48.604527207798348 ], [ 10.241445399864228, 48.590644859525121 ], [ 10.24317809284212, 48.585928749042935 ], [ 10.236453970276827, 48.590769105100236 ], [ 10.239903928565919, 48.572355716778965 ], [ 10.215776196927372, 48.560842093883878 ], [ 10.218720746867946, 48.557462118140862 ], [ 10.202305978106622, 48.552472215059765 ], [ 10.178112323600947, 48.545359650438385 ], [ 10.126978232352085, 48.561281034803649 ], [ 10.067032464971669, 48.580064127863309 ], [ 10.032466961908549, 48.574593764428606 ], [ 9.999999999705929, 48.56847552347412 ], [ 9.996763860217394, 48.567864693601457 ], [ 9.96459992581125, 48.585694762025142 ], [ 9.965521402358339, 48.609511944797148 ], [ 9.980330853859169, 48.627210339530087 ], [ 9.971379363038478, 48.645428340873629 ], [ 9.981691129574779, 48.659332096055223 ], [ 9.979255797737846, 48.679377674392832 ], [ 9.999999999705929, 48.685056839066704 ], [ 10.005174937139572, 48.686471274170565 ], [ 10.005966010646759, 48.703413027527155 ], [ 10.02077665780523, 48.710488633951982 ], [ 10.041718122623184, 48.700115599072369 ], [ 10.09968620758311, 48.71677560074756 ], [ 10.115309902837248, 48.707279204155753 ], [ 10.180002109464148, 48.716410948819494 ], [ 10.230894483832991, 48.691987823490663 ], [ 10.251022901453595, 48.698919133387072 ], [ 10.280116815528485, 48.681231448952573 ], [ 10.302838195063872, 48.671363325934657 ], [ 10.308705321254855, 48.660544110454239 ], [ 10.340589964947586, 48.671669909056561 ], [ 10.339324377052817, 48.649074626802005 ], [ 10.339271509401714, 48.648130528109157 ], [ 10.329932451231475, 48.645749689543514 ], [ 10.31775871426643, 48.657754973535027 ], [ 10.304376392901284, 48.655987952710881 ], [ 10.301981198689562, 48.626202093315172 ], [ 10.304024804875494, 48.622431949631711 ] ] ], [ [ [ 9.09376028390141, 48.2760014898763 ], [ 9.143168996255422, 48.233734225976299 ], [ 9.14729370969714, 48.21901988244047 ], [ 9.172349108173401, 48.192351155175331 ], [ 9.138890717612517, 48.184864478253431 ], [ 9.110324930279683, 48.223322334106953 ], [ 9.075528203557376, 48.250047720992569 ], [ 9.056067487517783, 48.246388937274084 ], [ 9.071315737288815, 48.221980591845956 ], [ 9.062912745204194, 48.190745917870743 ], [ 9.049200289378874, 48.188294184203897 ], [ 9.02445205005108, 48.162295635027405 ], [ 8.999999999645505, 48.14720110416426 ], [ 8.998453235473544, 48.146246118126598 ], [ 8.970743105126914, 48.168982659968606 ], [ 8.937175014998498, 48.168369475651488 ], [ 8.925459092739889, 48.154819145196107 ], [ 8.90319006525573, 48.174530181012436 ], [ 8.919491432492201, 48.197239522285429 ], [ 8.905757037112712, 48.251825999037443 ], [ 8.881688935642705, 48.254012320932304 ], [ 8.864224752271545, 48.27163064341709 ], [ 8.867406042425474, 48.290990634773394 ], [ 8.892966058732789, 48.307285761918301 ], [ 8.90161039040502, 48.314943683121925 ], [ 8.901631555611429, 48.350132159052023 ], [ 8.930176177737843, 48.35491788489449 ], [ 8.961703855191182, 48.30268462968165 ], [ 8.999999999645505, 48.296976869542341 ], [ 9.002446301708687, 48.296612243841679 ], [ 8.999999999645505, 48.301548715438919 ], [ 8.989918602470556, 48.321887224459523 ], [ 8.999999999645505, 48.33682232004513 ], [ 9.002424362154505, 48.340413237173273 ], [ 9.022696856071951, 48.32634107130071 ], [ 9.04413216612409, 48.32947017352086 ], [ 9.045580201853065, 48.294719025359711 ], [ 9.09376028390141, 48.2760014898763 ] ] ], [ [ [ 8.631173576640697, 48.070024796662267 ], [ 8.683220342743484, 48.072154355017879 ], [ 8.701584063107587, 48.092204374457516 ], [ 8.733265319236823, 48.093681125467498 ], [ 8.745946598049207, 48.080242580826024 ], [ 8.723672657678714, 48.049123172477088 ], [ 8.699368130405755, 48.035661002122197 ], [ 8.720671800437826, 48.02938105439484 ], [ 8.729008973859903, 48.013494766126286 ], [ 8.732594278617892, 48.000000000254126 ], [ 8.732892340527496, 47.998888848715133 ], [ 8.711742250069634, 47.983161883299317 ], [ 8.697415476845707, 47.991910965635853 ], [ 8.672864696200518, 47.979330969760262 ], [ 8.685348515431947, 47.968576763867908 ], [ 8.667533293803951, 47.963351235133608 ], [ 8.651253867019951, 47.971276411929395 ], [ 8.634645340635005, 47.964483478149603 ], [ 8.618651133445299, 47.97684942965153 ], [ 8.61805875470254, 47.989995870932518 ], [ 8.605370632524339, 48.000000000254126 ], [ 8.598334759521151, 48.005601037713213 ], [ 8.586048399870622, 48.007710056313236 ], [ 8.577886746475313, 48.018868836391142 ], [ 8.586180038992374, 48.031898981012546 ], [ 8.581144335936177, 48.036657763546302 ], [ 8.579225081738413, 48.038471358754016 ], [ 8.598400579082019, 48.04619904417487 ], [ 8.610752759191749, 48.060187871195659 ], [ 8.624947892395642, 48.06977005885058 ], [ 8.631173576640697, 48.070024796662267 ] ] ], [ [ [ 8.863448110199391, 48.453148986235433 ], [ 8.826343771412308, 48.453148986235433 ], [ 8.773292328597428, 48.460949478781231 ], [ 8.767196522776151, 48.485142047782098 ], [ 8.774891686434346, 48.484882569816691 ], [ 8.78181838089283, 48.484649002973597 ], [ 8.78072138521733, 48.499329887834335 ], [ 8.797919217208435, 48.500000000192749 ], [ 8.814223655784888, 48.500641628157986 ], [ 8.815713336512111, 48.504787467059053 ], [ 8.818523881168492, 48.512608395110817 ], [ 8.839103534234434, 48.515390957042975 ], [ 8.83886219554512, 48.527061396718175 ], [ 8.857774413746968, 48.527661684899748 ], [ 8.883707408763655, 48.534440053189243 ], [ 8.921400206045599, 48.53687008813084 ], [ 8.927280107178209, 48.522595613059444 ], [ 8.905822856673581, 48.516694314888198 ], [ 8.8829175713383, 48.507013516245813 ], [ 8.890553205439229, 48.500000000192749 ], [ 8.8990307388278, 48.492288933394981 ], [ 8.884497021610162, 48.482678299601467 ], [ 8.870904328280233, 48.473688273550714 ], [ 8.860709808956482, 48.465820686352814 ], [ 8.864107982064411, 48.457951872121733 ], [ 8.863767845761855, 48.455476245007212 ], [ 8.863448110199391, 48.453148986235433 ] ] ], [ [ [ 10.259643480771389, 48.57398770279385 ], [ 10.272975182070276, 48.580883168539053 ], [ 10.295520767592766, 48.590886086631109 ], [ 10.300530898307754, 48.609219598315605 ], [ 10.311921220801723, 48.607964067592349 ], [ 10.325471677143653, 48.583091586308313 ], [ 10.327471334152625, 48.583778954975884 ], [ 10.328086613646915, 48.582550459754572 ], [ 10.325406350757879, 48.575854400580951 ], [ 10.324878372237842, 48.574535254729312 ], [ 10.313550329942521, 48.557038960868674 ], [ 10.299935172442254, 48.55552789428512 ], [ 10.290863682869279, 48.554521077361173 ], [ 10.291624040281954, 48.556216764629156 ], [ 10.272667542323131, 48.560842093883878 ], [ 10.259643480771389, 48.57398770279385 ] ] ], [ [ [ 9.868678558188131, 48.827462814664742 ], [ 9.882807871831156, 48.829063696522162 ], [ 9.914247789271126, 48.827419153734724 ], [ 9.946236205447166, 48.826589584642299 ], [ 9.946609184156499, 48.824512400251685 ], [ 9.946982162865837, 48.819502611431616 ], [ 9.946740604089307, 48.815852261706667 ], [ 9.945292788447576, 48.810883385606829 ], [ 9.890925645219809, 48.813314604082358 ], [ 9.886316286190734, 48.811624410133199 ], [ 9.881775818062483, 48.809886551815552 ], [ 9.868678558188131, 48.827462814664742 ] ] ] ] } }
]
}
