{
"type": "FeatureCollection",
"name": "Zweibrucken",
"crs": { "type": "name", "properties": { "name": "urn:ogc:def:crs:OGC:1.3:CRS84" } },
"features": [
{ "type": "Feature", "properties": { "OBJECTID": 113.0, "YEAR": 1700.0, "OWNER_ID": 15028.0, "SHORT_NAME": "ZweibrÃ?Â¼cken", "LONG_NAME": "Duchy of ZweibrÃ?Â¼cken", "VARIANTS": "Litt. Two-Bridges", "SHAPE_LENG": 818879.9, "Shape__Are": 3820478462.9213867, "Shape__Len": 819943.56977230206 }, "geometry": { "type": "MultiPolygon", "coordinates": [ [ [ [ 7.51238130574102, 49.165058243013377 ], [ 7.499999999554868, 49.155605517137126 ], [ 7.494681265200438, 49.151544278262669 ], [ 7.488949526800861, 49.15071478118773 ], [ 7.4467284120032, 49.144604115599869 ], [ 7.442217705060312, 49.154213505972429 ], [ 7.439778723368379, 49.15940861339682 ], [ 7.404335311151142, 49.158020881041267 ], [ 7.400859421194723, 49.151079542584831 ], [ 7.395914382405241, 49.141202635781639 ], [ 7.395300715386896, 49.139976797505589 ], [ 7.383903846869431, 49.140679453706952 ], [ 7.372395319558809, 49.141119367707688 ], [ 7.368228789540617, 49.179072536251965 ], [ 7.343897408928862, 49.184429481496018 ], [ 7.320443625755791, 49.176444938311469 ], [ 7.31019767878035, 49.161245911910704 ], [ 7.307959805626036, 49.141513761021493 ], [ 7.281741591913391, 49.141718279639214 ], [ 7.275466771618909, 49.171890103064307 ], [ 7.275664231199827, 49.197651488052422 ], [ 7.284506022452976, 49.221882602550664 ], [ 7.317635314311198, 49.233986390908825 ], [ 7.33367340240592, 49.248754804221775 ], [ 7.32722306298301, 49.266418580619252 ], [ 7.306577590356254, 49.275000414437322 ], [ 7.260854779699025, 49.27661753556518 ], [ 7.232793611095548, 49.265485999263859 ], [ 7.201968011952535, 49.267613424959727 ], [ 7.19632945040749, 49.291984810701571 ], [ 7.211928739333684, 49.308191701762404 ], [ 7.248612299156845, 49.317013684990712 ], [ 7.300149191385853, 49.312937718290627 ], [ 7.302321244081, 49.341811538415094 ], [ 7.292996774550965, 49.363368472323643 ], [ 7.270859387086829, 49.377690868572138 ], [ 7.201638912351549, 49.380394931398008 ], [ 7.189857171430414, 49.402341730403556 ], [ 7.195671252103859, 49.424757975179574 ], [ 7.205324820336548, 49.451765817827493 ], [ 7.239551108768594, 49.491683868698196 ], [ 7.256839773011346, 49.494802221758071 ], [ 7.28413304374364, 49.491103688055041 ], [ 7.301575286662329, 49.497166235836339 ], [ 7.30254236798143, 49.499999999800124 ], [ 7.305831632937545, 49.509736574932766 ], [ 7.290649202727408, 49.52927416548701 ], [ 7.274720814200237, 49.534457485700244 ], [ 7.251267031027204, 49.565062940480075 ], [ 7.224697777261108, 49.568691576552695 ], [ 7.199444920102226, 49.557321919452228 ], [ 7.193060400240185, 49.521102725306505 ], [ 7.182134316305263, 49.50956078882141 ], [ 7.162739419826565, 49.506074233816989 ], [ 7.146701331731843, 49.524588203110262 ], [ 7.130246385819428, 49.522303632501206 ], [ 7.121236810830808, 49.499999999800124 ], [ 7.118157484851518, 49.492452597749441 ], [ 7.101987757635072, 49.465641448701881 ], [ 7.061837688063723, 49.465060957697709 ], [ 7.047642554859822, 49.452520660935384 ], [ 7.017233813534493, 49.453057753788478 ], [ 7.001305425905656, 49.449239911969755 ], [ 7.000000000422981, 49.44656908448232 ], [ 6.993911669483158, 49.434110770816432 ], [ 6.999725751054945, 49.413151626340735 ], [ 7.000000000422981, 49.413154154237816 ], [ 7.029673753657564, 49.413427653992166 ], [ 7.045141402563697, 49.402995622632169 ], [ 7.036782290485768, 49.386064254456358 ], [ 7.016465916561619, 49.380627532020277 ], [ 7.000000000422981, 49.380608083624622 ], [ 6.99184931635556, 49.380598456783204 ], [ 6.97313455773463, 49.392968311036164 ], [ 6.964885144325955, 49.419732285907223 ], [ 6.964819324765088, 49.451635170875917 ], [ 6.93116347462326, 49.448209188718245 ], [ 6.90970622411863, 49.450996446363888 ], [ 6.910108174394195, 49.45245965028181 ], [ 6.908316341727879, 49.465335161214391 ], [ 6.90731477228839, 49.473027594379381 ], [ 6.908612227917874, 49.473837415672854 ], [ 6.918240856223311, 49.479846812631109 ], [ 6.922870181207891, 49.483009445417224 ], [ 6.937547993586967, 49.48982726594587 ], [ 6.957982467224897, 49.499999999800124 ], [ 6.958961364084949, 49.500492295929405 ], [ 6.961553923554458, 49.499999999800124 ], [ 6.965828561325544, 49.499196584900211 ], [ 6.973836635146646, 49.492278546797486 ], [ 6.984960178662458, 49.492684664522137 ], [ 6.98692624856129, 49.499999999800124 ], [ 6.988624147093272, 49.506381881436333 ], [ 6.994833146928572, 49.517573058578648 ], [ 7.000000000422981, 49.518139406618872 ], [ 7.014074463833072, 49.519682101927344 ], [ 7.024583689950272, 49.52442711516705 ], [ 7.006614888748049, 49.561916928034307 ], [ 7.007053687018243, 49.602097394094365 ], [ 7.024473990382721, 49.621597857879323 ], [ 7.053983193816846, 49.629606269469114 ], [ 7.076076702172596, 49.630819106523319 ], [ 7.141918427173056, 49.612389471333351 ], [ 7.144595098597564, 49.607068272657266 ], [ 7.168882599202663, 49.604378213191801 ], [ 7.191107746680139, 49.607696905899644 ], [ 7.210634283178933, 49.607258325088111 ], [ 7.265681564264495, 49.602565263483861 ], [ 7.303089141952182, 49.584432034153458 ], [ 7.320092586600638, 49.554951076276176 ], [ 7.354099475897582, 49.552682568713649 ], [ 7.35750016428829, 49.570827663069224 ], [ 7.388106365194536, 49.568559897178801 ], [ 7.442890366240006, 49.542553486679822 ], [ 7.499999999554868, 49.525869748150726 ], [ 7.516390842586897, 49.521080346818934 ], [ 7.515511529365983, 49.520370450535985 ], [ 7.525165097598663, 49.517426593407755 ], [ 7.556346584104445, 49.499999999800124 ], [ 7.572686983140037, 49.490958641813641 ], [ 7.543090019692571, 49.474304456966777 ], [ 7.514831391508179, 49.476814554805031 ], [ 7.505090063262158, 49.479991891981975 ], [ 7.502633621914366, 49.478994481738013 ], [ 7.499999999554868, 49.480075238020518 ], [ 7.481394940501489, 49.487709492260592 ], [ 7.456931920767997, 49.478671653841012 ], [ 7.442385747510619, 49.471765208800569 ], [ 7.437471203830071, 49.457470399847097 ], [ 7.424153667166603, 49.4482817755678 ], [ 7.421542816201225, 49.43229553909233 ], [ 7.404605191113634, 49.426834915290272 ], [ 7.389422760903461, 49.421736813700257 ], [ 7.396948155549351, 49.410623720013731 ], [ 7.425601702895552, 49.412134668460084 ], [ 7.43148160312991, 49.399464499623754 ], [ 7.453180192323816, 49.402327199248397 ], [ 7.463162860157471, 49.404724762574183 ], [ 7.488020799052808, 49.410710891477969 ], [ 7.495941112860543, 49.399522627626148 ], [ 7.48145002699137, 49.384564491544722 ], [ 7.462767940995628, 49.36527352058436 ], [ 7.477599332948948, 49.339105341088278 ], [ 7.494207858435589, 49.3294723927227 ], [ 7.499999999554868, 49.326520821503706 ], [ 7.538131596005339, 49.307085201823718 ], [ 7.547938743812253, 49.292640180251055 ], [ 7.543287479273499, 49.27412627218343 ], [ 7.535103885425644, 49.256246654170752 ], [ 7.518736698628272, 49.245679024998708 ], [ 7.528456087320151, 49.223370216657166 ], [ 7.535740143276765, 49.203166903321886 ], [ 7.546732047670879, 49.181437254152684 ], [ 7.522137387917302, 49.175715025260217 ], [ 7.512549639245481, 49.166064554711333 ], [ 7.51238130574102, 49.165058243013377 ] ] ], [ [ [ 7.724445468375758, 49.570608206710546 ], [ 7.704896992322817, 49.573870692240959 ], [ 7.682606024386149, 49.581301903773934 ], [ 7.651955944371507, 49.581301903773934 ], [ 7.621305864356902, 49.581301903773934 ], [ 7.607374010294794, 49.579444207576287 ], [ 7.579510300373949, 49.572012711545682 ], [ 7.562375216603729, 49.565677486799451 ], [ 7.560890365219464, 49.565184614723883 ], [ 7.55774589161914, 49.564199636763902 ], [ 7.543287479273499, 49.559004855094209 ], [ 7.535016125412269, 49.560658465274884 ], [ 7.532427214001101, 49.560746266047126 ], [ 7.515423769352652, 49.564580077492494 ], [ 7.499999999554868, 49.583434997434289 ], [ 7.498705544298453, 49.585017082802864 ], [ 7.479200948252165, 49.605445483082299 ], [ 7.462482722299667, 49.622153228167356 ], [ 7.455966563315901, 49.638636065142634 ], [ 7.499999999554868, 49.648981616342546 ], [ 7.504278286282631, 49.649986671435705 ], [ 7.543287479273499, 49.664824634416675 ], [ 7.568364817303926, 49.683365689730962 ], [ 7.627997542469087, 49.694370165971804 ], [ 7.629995834038801, 49.695311835131186 ], [ 7.665887799331948, 49.707458435642089 ], [ 7.724401588369065, 49.72598314488895 ], [ 7.734055156601754, 49.727266483052745 ], [ 7.735678711459147, 49.727733143493623 ], [ 7.752265297391623, 49.729687233889642 ], [ 7.770650957309865, 49.714971280492399 ], [ 7.768983523344112, 49.683365689730962 ], [ 7.757526931233317, 49.674533880087431 ], [ 7.7411198143216, 49.666679059821178 ], [ 7.724092016345763, 49.662145958847752 ], [ 7.699324250338638, 49.655551440505732 ], [ 7.696537879346554, 49.64442126253374 ], [ 7.713256104400745, 49.627721196616633 ], [ 7.738333443329506, 49.629577043894201 ], [ 7.749478926399529, 49.64442126253374 ], [ 7.791274490382492, 49.649986671435705 ], [ 7.807992716334979, 49.646276469928161 ], [ 7.819138199405002, 49.635144159122071 ], [ 7.819138199405002, 49.625865278236802 ], [ 7.824710941389181, 49.601731868630864 ], [ 7.826154525067619, 49.600829986240662 ], [ 7.824337962679845, 49.599538655645944 ], [ 7.823701704828726, 49.595649113942464 ], [ 7.753713333120607, 49.586011649840792 ], [ 7.722602514383254, 49.573285509185283 ], [ 7.724445468375758, 49.570608206710546 ] ] ], [ [ [ 7.90215893938633, 49.071855019410542 ], [ 7.936955615802973, 49.074824644305075 ], [ 7.97245441993726, 49.072484065182181 ], [ 7.999999999585081, 49.074386424468628 ], [ 8.047861954055319, 49.077691703284898 ], [ 8.116950788770568, 49.080865753056777 ], [ 8.216053445649274, 49.093793874636127 ], [ 8.209010728381973, 49.083439947778103 ], [ 8.236128479985812, 49.079622485709997 ], [ 8.240801684977086, 49.065973744498443 ], [ 8.173731323382778, 49.044798300104738 ], [ 8.082000482474028, 49.030144324810706 ], [ 7.999999999585081, 49.02527341284059 ], [ 7.994986726563241, 49.024975603724108 ], [ 7.926490269692421, 49.027420929803732 ], [ 7.879911801150682, 49.036132337649747 ], [ 7.860670484246179, 49.0588333506916 ], [ 7.901478751222861, 49.066324885182873 ], [ 7.90215893938633, 49.071855019410542 ] ] ], [ [ [ 7.019910484959, 49.980942356819092 ], [ 7.009094100591665, 49.988470598011169 ], [ 7.000000000422981, 49.999535591975651 ], [ 6.999618266732867, 50.000000000210534 ], [ 6.996698040475251, 50.003254639762162 ], [ 7.000000000422981, 50.024570948379314 ], [ 7.000493648027793, 50.027756955095413 ], [ 7.021073301093691, 50.031939021922199 ], [ 7.047467034833079, 50.031939021922199 ], [ 7.06188156807037, 50.025592758148775 ], [ 7.071798416343168, 50.01077267547214 ], [ 7.070087169744379, 50.000000000210534 ], [ 7.069758002769755, 49.997737846222492 ], [ 7.082219881548704, 49.979825349000329 ], [ 7.098981987507877, 49.97680784737063 ], [ 7.122369951120079, 49.971642835914466 ], [ 7.155072447098626, 49.951152783373779 ], [ 7.156238540287456, 49.950421994453897 ], [ 7.158132034396151, 49.949235321626247 ], [ 7.134524671648856, 49.902020441209238 ], [ 7.144726738617614, 49.884377366188396 ], [ 7.120417297560033, 49.873968689667457 ], [ 7.112433188095765, 49.874619459739087 ], [ 7.084742973399003, 49.876876368690624 ], [ 7.065896574758014, 49.89520522854005 ], [ 7.07019680103995, 49.91136253985551 ], [ 7.071666776323109, 49.927383706359905 ], [ 7.056177186964467, 49.936488547320309 ], [ 7.052315759851058, 49.952994826993056 ], [ 7.023771912072409, 49.962326995500234 ], [ 7.019910484959, 49.980942356819092 ] ] ], [ [ [ 7.058195660085416, 49.679001152005902 ], [ 7.078533973563705, 49.700557259416527 ], [ 7.076537440895308, 49.720893204424108 ], [ 7.097577831785621, 49.727791475513143 ], [ 7.116555870446633, 49.750010913719855 ], [ 7.142839904618436, 49.746497891110401 ], [ 7.129610127070009, 49.716386190255669 ], [ 7.155718642113402, 49.708333778895337 ], [ 7.14865398529189, 49.691728736717984 ], [ 7.113242941170969, 49.691976832904359 ], [ 7.088779920539155, 49.671190711089089 ], [ 7.058195660085416, 49.679001152005902 ] ] ], [ [ [ 7.706223384484214, 49.054295574321905 ], [ 7.710996292590528, 49.054560326631524 ], [ 7.737521665451643, 49.069207067010701 ], [ 7.760953509070529, 49.069909299332195 ], [ 7.761107088644772, 49.043305286595185 ], [ 7.740746835612264, 49.038181857886649 ], [ 7.735393492763189, 49.028387312801762 ], [ 7.732387722636002, 49.027962692464364 ], [ 7.706223384484214, 49.054295574321905 ] ] ] ] } }
]
}
